[
 {
   "id": "09G26",
   "title": "Schule an den Püttbergen (Grundschule)",
   "address": "Fürstenwalder Allee 182",
   "zip": 12589,
   "type": "Grundschule",
   "icon": "fa-building-o",
   "color": "orange",
   "costs": 5660000,
   "lat": 52.43385,
   "lng": 13.70158,
   "priority": "Priorität 2 oder 3"
 },
 {
   "id": "09G20",
   "title": "Müggelheimer Schule (Grundschule)",
   "address": "Odernheimer Str. 28",
   "zip": 12559,
   "type": "Grundschule",
   "icon": "fa-building-o",
   "color": "blue",
   "costs": 4080000,
   "lat": 52.41469,
   "lng": 13.66739,
   "priority": "unbekannte Priorität"
 },
 {
   "id": "09G29",
   "title": "Schmöckwitzer Insel-Schule (Grundschule)",
   "address": "Adlergestell 776",
   "zip": 12527,
   "type": "Grundschule",
   "icon": "fa-building-o",
   "color": "blue",
   "costs": 4640000,
   "lat": 52.376769,
   "lng": 13.647546,
   "priority": "unbekannte Priorität"
 },
 {
   "id": "05G29",
   "title": "Mary-Poppins-Grundschule",
   "address": "Am Flugplatz Gatow 20",
   "zip": 14089,
   "type": "Grundschule",
   "icon": "fa-building-o",
   "color": "blue",
   "costs": 340000,
   "lat": 52.472209,
   "lng": 13.127426,
   "priority": "unbekannte Priorität"
 },
 {
   "id": "06G05",
   "title": "Conrad-Schule (Grundschule)",
   "address": "Schulstr. 4",
   "zip": 14109,
   "type": "Grundschule",
   "icon": "fa-building-o",
   "color": "orange",
   "costs": 6180000,
   "lat": 52.415181,
   "lng": 13.146695,
   "priority": "Priorität 2 oder 3"
 },
 {
   "id": "05Y03",
   "title": "Hans-Carossa-Gymnasium",
   "address": "Am Landschaftspark Gatow 40",
   "zip": 14089,
   "type": "Gymnasium",
   "icon": "fa-building-o",
   "color": "blue",
   "costs": 3100000,
   "lat": 52.47244,
   "lng": 13.13028,
   "priority": "unbekannte Priorität"
 },
 {
   "id": "05G19",
   "title": "Grundschule am Ritterfeld",
   "address": "Schallweg 31",
   "zip": 14089,
   "type": "Grundschule",
   "icon": "fa-building-o",
   "color": "blue",
   "costs": 2560000,
   "lat": 52.455239,
   "lng": 13.138357,
   "priority": "unbekannte Priorität"
 },
 {
   "id": "05K09",
   "title": "Schule am Staakener Kleeblatt (Integrierte Sekundarschule)",
   "address": "Brunsbütteler Damm 431-437",
   "zip": 13591,
   "type": "Integrierte Sekundarschule",
   "icon": "fa-building-o",
   "color": "blue",
   "costs": 4840000,
   "lat": 52.5349,
   "lng": 13.13491,
   "priority": "unbekannte Priorität"
 },
 {
   "id": "09Y06",
   "title": "Gerhart-Hauptmann-Gymnasium",
   "address": "Bruno-Wille-Str. 37-45",
   "zip": 12587,
   "type": "Gymnasium",
   "icon": "fa-building-o",
   "color": "orange",
   "costs": 6340000,
   "lat": 52.45227,
   "lng": 13.63269,
   "priority": "Priorität 2 oder 3"
 },
 {
   "id": "05G14",
   "title": "Linden-Grundschule",
   "address": "Staakener Feldstr. 6-8",
   "zip": 13591,
   "type": "Grundschule",
   "icon": "fa-building-o",
   "color": "blue",
   "costs": 4040000,
   "lat": 52.53517,
   "lng": 13.14081,
   "priority": "unbekannte Priorität"
 },
 {
   "id": "09G24",
   "title": "Müggelsee-Schule (Grundschule)",
   "address": "Aßmannstr. 63",
   "zip": 12587,
   "type": "Grundschule",
   "icon": "fa-building-o",
   "color": "blue",
   "costs": 2870000,
   "lat": 52.45072,
   "lng": 13.62746,
   "priority": "unbekannte Priorität"
 },
 {
   "id": "05G16",
   "title": "Zeppelin-Grundschule",
   "address": "Heidebergplan 3-4",
   "zip": 13591,
   "type": "Grundschule",
   "icon": "fa-building-o",
   "color": "blue",
   "costs": 3840000,
   "lat": 52.5409,
   "lng": 13.14635,
   "priority": "unbekannte Priorität"
 },
 {
   "id": "10S08",
   "title": "Schule am Mummelsoll",
   "address": "Eilenburger Str. 4",
   "zip": 12627,
   "type": "Förderschwerp.\"Geistige Entwicklung\"",
   "icon": "fa-building-o",
   "color": "green",
   "costs": 0,
   "lat": 52.540282,
   "lng": 13.629414,
   "priority": "unbekannte Priorität"
 },
 {
   "id": "10G19",
   "title": "Bücherwurm-Schule am Weiher (Grundschule)",
   "address": "Eilenburger Str. 1",
   "zip": 12627,
   "type": "Grundschule",
   "icon": "fa-building-o",
   "color": "orange",
   "costs": 5930000,
   "lat": 52.54068,
   "lng": 13.62913,
   "priority": "Priorität 2 oder 3"
 },
 {
   "id": "09S04",
   "title": "Ahorn-Schule",
   "address": "Peter-Hille-Str. 118",
   "zip": 12587,
   "type": "Übrige Förderschwerpunkte",
   "icon": "fa-building-o",
   "color": "blue",
   "costs": 4020000,
   "lat": 52.44782,
   "lng": 13.61966,
   "priority": "unbekannte Priorität"
 },
 {
   "id": "09G27",
   "title": "Friedrichshagener Schule (Grundschule)",
   "address": "Peter-Hille-Str. 7",
   "zip": 12587,
   "type": "Grundschule",
   "icon": "fa-building-o",
   "color": "orange",
   "costs": 5030000,
   "lat": 52.454606,
   "lng": 13.621399,
   "priority": "Priorität 2 oder 3"
 },
 {
   "id": "10G30",
   "title": "Mahlsdorfer Grundschule",
   "address": "Feldrain 47",
   "zip": 12623,
   "type": "Grundschule",
   "icon": "fa-building-o",
   "color": "blue",
   "costs": 3970000,
   "lat": 52.522102,
   "lng": 13.628787,
   "priority": "unbekannte Priorität"
 },
 {
   "id": "09K05",
   "title": "Wilhelm-Bölsche-Schule (Integrierte Sekundarschule)",
   "address": "Aßmannstr. 11",
   "zip": 12587,
   "type": "Integrierte Sekundarschule",
   "icon": "fa-building-o",
   "color": "orange",
   "costs": 6300000,
   "lat": 52.45109,
   "lng": 13.61894,
   "priority": "Priorität 2 oder 3"
 },
 {
   "id": "05G23",
   "title": "Grundschule am Brandwerder",
   "address": "Spandauer Str. 86",
   "zip": 13591,
   "type": "Grundschule",
   "icon": "fa-building-o",
   "color": "blue",
   "costs": 4010000,
   "lat": 52.53595,
   "lng": 13.15293,
   "priority": "unbekannte Priorität"
 },
 {
   "id": "05G18",
   "title": "Grundschule im Beerwinkel",
   "address": "Im Spektefeld 31",
   "zip": 13589,
   "type": "Grundschule",
   "icon": "fa-building-o",
   "color": "orange",
   "costs": 7500000,
   "lat": 52.549023,
   "lng": 13.154969,
   "priority": "Höchste Priorität"
 },
 {
   "id": "05K01",
   "title": "Martin-Buber-Oberschule (Integrierte Sekundarschule)",
   "address": "Im Spektefeld 33",
   "zip": 13589,
   "type": "Integrierte Sekundarschule",
   "icon": "fa-building-o",
   "color": "red",
   "costs": 12140000,
   "lat": 52.54895,
   "lng": 13.1565,
   "priority": "Höchste Priorität"
 },
 {
   "id": "05G17",
   "title": "Astrid-Lindgren-Grundschule",
   "address": "Südekumzeile 5",
   "zip": 13591,
   "type": "Grundschule",
   "icon": "fa-building-o",
   "color": "orange",
   "costs": 5090000,
   "lat": 52.5311,
   "lng": 13.15652,
   "priority": "Priorität 2 oder 3"
 },
 {
   "id": "10K09",
   "title": "Konrad-Wachsmann-Schule",
   "address": "Geithainer Str. 12",
   "zip": 12627,
   "type": "Integrierte Sekundarschule",
   "icon": "fa-building-o",
   "color": "blue",
   "costs": 3320000,
   "lat": 52.529047,
   "lng": 13.622082,
   "priority": "unbekannte Priorität"
 },
 {
   "id": "09G25",
   "title": "Müggelschlößchen-Schule (Grundschule)",
   "address": "Alfred-Randt-Str. 56",
   "zip": 12559,
   "type": "Grundschule",
   "icon": "fa-building-o",
   "color": "orange",
   "costs": 6960000,
   "lat": 52.43884,
   "lng": 13.6059,
   "priority": "Höchste Priorität"
 },
 {
   "id": "10Y11",
   "title": "Melanchthon-Gymnasium",
   "address": "Adele-Sandrock-Str. 73-75",
   "zip": 12627,
   "type": "Gymnasium",
   "icon": "fa-building-o",
   "color": "orange",
   "costs": 8090000,
   "lat": 52.534367,
   "lng": 13.618584,
   "priority": "Priorität 2 oder 3"
 },
 {
   "id": "10G22",
   "title": "Kolibri-Grundschule",
   "address": "Schönewalder Str. 9",
   "zip": 12627,
   "type": "Grundschule",
   "icon": "fa-building-o",
   "color": "green",
   "costs": 0,
   "lat": 52.532527,
   "lng": 13.618558,
   "priority": "unbekannte Priorität"
 },
 {
   "id": "05G25",
   "title": "Grundschule am Wasserwerk",
   "address": "Pionierstr. 197",
   "zip": 13589,
   "type": "Grundschule",
   "icon": "fa-building-o",
   "color": "blue",
   "costs": 3240000,
   "lat": 52.55625,
   "lng": 13.16467,
   "priority": "unbekannte Priorität"
 },
 {
   "id": "05S04",
   "title": "Schule am Stadtrand",
   "address": "Pionierstr. 197",
   "zip": 13589,
   "type": "Übrige Förderschwerpunkte",
   "icon": "fa-building-o",
   "color": "green",
   "costs": 0,
   "lat": 52.55625,
   "lng": 13.16467,
   "priority": "unbekannte Priorität"
 },
 {
   "id": "06G09",
   "title": "Dreilinden-Grundschule",
   "address": "Dreilindenstr. 65",
   "zip": 14109,
   "type": "Grundschule",
   "icon": "fa-building-o",
   "color": "blue",
   "costs": 400000,
   "lat": 52.4205,
   "lng": 13.18369,
   "priority": "unbekannte Priorität"
 },
 {
   "id": "10G26",
   "title": "Friedrich-Schiller-Grundschule",
   "address": "An der Schule 13-17",
   "zip": 12623,
   "type": "Grundschule",
   "icon": "fa-building-o",
   "color": "blue",
   "costs": 3690000,
   "lat": 52.5115,
   "lng": 13.614782,
   "priority": "unbekannte Priorität"
 },
 {
   "id": "06Y04",
   "title": "Dreilinden-Gymnasium",
   "address": "Dreilindenstr. 49",
   "zip": 14109,
   "type": "Gymnasium",
   "icon": "fa-building-o",
   "color": "orange",
   "costs": 9320000,
   "lat": 52.42057,
   "lng": 13.18778,
   "priority": "Höchste Priorität"
 },
 {
   "id": "09G16",
   "title": "Wendenschloß-Schule (Grundschule)",
   "address": "Köpenzeile 123",
   "zip": 12557,
   "type": "Grundschule",
   "icon": "fa-building-o",
   "color": "blue",
   "costs": 4470000,
   "lat": 52.42845,
   "lng": 13.5953,
   "priority": "unbekannte Priorität"
 },
 {
   "id": "05G26",
   "title": "Grundschule am Amalienhof",
   "address": "Weinmeisterhornweg 122",
   "zip": 13593,
   "type": "Grundschule",
   "icon": "fa-building-o",
   "color": "blue",
   "costs": 3650000,
   "lat": 52.51289,
   "lng": 13.1667,
   "priority": "unbekannte Priorität"
 },
 {
   "id": "05G22",
   "title": "Christian-Morgenstern-Grundschule",
   "address": "Räcknitzer Steig 12",
   "zip": 13593,
   "type": "Grundschule",
   "icon": "fa-building-o",
   "color": "blue",
   "costs": 1800000,
   "lat": 52.5227,
   "lng": 13.16816,
   "priority": "unbekannte Priorität"
 },
 {
   "id": "10G32",
   "title": "Kiekemal-Schule (Grundschule)",
   "address": "Hultschiner Damm 219",
   "zip": 12623,
   "type": "Grundschule",
   "icon": "fa-building-o",
   "color": "blue",
   "costs": 330000,
   "lat": 52.49407,
   "lng": 13.60915,
   "priority": "unbekannte Priorität"
 },
 {
   "id": "10G25",
   "title": "Grundschule am Schleipfuhl",
   "address": "Nossener Str. 85",
   "zip": 12627,
   "type": "Grundschule",
   "icon": "fa-building-o",
   "color": "blue",
   "costs": 4130000,
   "lat": 52.52913,
   "lng": 13.6081,
   "priority": "unbekannte Priorität"
 },
 {
   "id": "05K05",
   "title": "B.-Traven-Gemeinschaftsschule",
   "address": "Recklinghauser Weg 26-32",
   "zip": 13583,
   "type": "Integrierte Sekundarschule",
   "icon": "fa-building-o",
   "color": "red",
   "costs": 10320000,
   "lat": 52.5469,
   "lng": 13.17403,
   "priority": "Höchste Priorität"
 },
 {
   "id": "05G24",
   "title": "Grundschule am Windmühlenberg",
   "address": "Am Kinderdorf 23-37",
   "zip": 14089,
   "type": "Grundschule",
   "icon": "fa-building-o",
   "color": "blue",
   "costs": 3300000,
   "lat": 52.48547,
   "lng": 13.17431,
   "priority": "unbekannte Priorität"
 },
 {
   "id": "05G06",
   "title": "Siegerland-Grundschule",
   "address": "Hermann-Schmidt-Weg 4",
   "zip": 13589,
   "type": "Grundschule",
   "icon": "fa-building-o",
   "color": "orange",
   "costs": 5410000,
   "lat": 52.55125,
   "lng": 13.175203,
   "priority": "Priorität 2 oder 3"
 },
 {
   "id": "05G12",
   "title": "Grundschule am Weinmeisterhorn",
   "address": "Daberkowstr. 27",
   "zip": 13593,
   "type": "Grundschule",
   "icon": "fa-building-o",
   "color": "blue",
   "costs": 4240000,
   "lat": 52.50825,
   "lng": 13.1742,
   "priority": "unbekannte Priorität"
 },
 {
   "id": "05K02",
   "title": "Carlo-Schmid-Oberschule (Integrierte Sekundarschule)",
   "address": "Lutoner Str. 15-19",
   "zip": 13581,
   "type": "Integrierte Sekundarschule",
   "icon": "fa-building-o",
   "color": "red",
   "costs": 12710000,
   "lat": 52.5259,
   "lng": 13.17464,
   "priority": "Höchste Priorität"
 },
 {
   "id": "09G14",
   "title": "Schule am Buntzelberg (Grundschule)",
   "address": "Schulzendorfer Str. 112",
   "zip": 12526,
   "type": "Grundschule",
   "icon": "fa-building-o",
   "color": "blue",
   "costs": 4500000,
   "lat": 52.40671,
   "lng": 13.57427,
   "priority": "unbekannte Priorität"
 },
 {
   "id": "10S07",
   "title": "Schule am Rosenhain",
   "address": "Klingenthaler Str. 32",
   "zip": 12627,
   "type": "Integrierte Sekundarschule",
   "icon": "fa-building-o",
   "color": "blue",
   "costs": 2630000,
   "lat": 52.53,
   "lng": 13.60199,
   "priority": "unbekannte Priorität"
 },
 {
   "id": "09G19",
   "title": "Amtsfeld-Schule (Grundschule)",
   "address": "Pablo-Neruda-Str. 8",
   "zip": 12559,
   "type": "Grundschule",
   "icon": "fa-building-o",
   "color": "blue",
   "costs": 2980000,
   "lat": 52.44262,
   "lng": 13.58891,
   "priority": "unbekannte Priorität"
 },
 {
   "id": "09Y11",
   "title": "Emmy-Noether-Gymnasium",
   "address": "Pablo-Neruda-Str. 6-7",
   "zip": 12559,
   "type": "Gymnasium",
   "icon": "fa-building-o",
   "color": "orange",
   "costs": 6250000,
   "lat": 52.44275,
   "lng": 13.588735,
   "priority": "Priorität 2 oder 3"
 },
 {
   "id": "10G18",
   "title": "Pusteblume-Grundschule",
   "address": "Kastanienallee 118",
   "zip": 12627,
   "type": "Grundschule",
   "icon": "fa-building-o",
   "color": "green",
   "costs": 0,
   "lat": 52.54256,
   "lng": 13.6001,
   "priority": "unbekannte Priorität"
 },
 {
   "id": "05G04",
   "title": "Klosterfeld-Grundschule",
   "address": "Seegefelder Str. 125",
   "zip": 13583,
   "type": "Grundschule",
   "icon": "fa-building-o",
   "color": "blue",
   "costs": 2480000,
   "lat": 52.53861,
   "lng": 13.17968,
   "priority": "unbekannte Priorität"
 },
 {
   "id": "09K09",
   "title": "Grünauer Schule (Gemeinschaftsschule)",
   "address": "Walchenseestr. 40",
   "zip": 12527,
   "type": "Integrierte Sekundarschule",
   "icon": "fa-building-o",
   "color": "orange",
   "costs": 6330000,
   "lat": 52.419368,
   "lng": 13.576124,
   "priority": "Priorität 2 oder 3"
 },
 {
   "id": "05G10",
   "title": "Grundschule am Birkenhain",
   "address": "Seeburger Str. 59",
   "zip": 13581,
   "type": "Grundschule",
   "icon": "fa-building-o",
   "color": "blue",
   "costs": 2580000,
   "lat": 52.52596,
   "lng": 13.180519,
   "priority": "unbekannte Priorität"
 },
 {
   "id": "09K03",
   "title": "Fritz-Kühn-Schule (Integrierte Sekundarschule)",
   "address": "Dahmestr. 45",
   "zip": 12526,
   "type": "Integrierte Sekundarschule",
   "icon": "fa-building-o",
   "color": "blue",
   "costs": 3380000,
   "lat": 52.40141,
   "lng": 13.5647,
   "priority": "unbekannte Priorität"
 },
 {
   "id": "10K05",
   "title": "Jean-Piaget-Schule",
   "address": "Mittenwalder Str. 5",
   "zip": 12629,
   "type": "Integrierte Sekundarschule",
   "icon": "fa-building-o",
   "color": "orange",
   "costs": 7390000,
   "lat": 52.54542,
   "lng": 13.59615,
   "priority": "Priorität 2 oder 3"
 },
 {
   "id": "10K10",
   "title": "Wolfgang-Amadeus-Mozart-Schule (Gemeinschaftsschule)",
   "address": "Cottbusser Str. 23",
   "zip": 12627,
   "type": "Integrierte Sekundarschule",
   "icon": "fa-building-o",
   "color": "orange",
   "costs": 6290000,
   "lat": 52.53699,
   "lng": 13.59663,
   "priority": "Priorität 2 oder 3"
 },
 {
   "id": "10G28",
   "title": "Grundschule am Hollerbusch",
   "address": "Erich-Kästner-Str. 64",
   "zip": 12619,
   "type": "Grundschule",
   "icon": "fa-building-o",
   "color": "orange",
   "costs": 7280000,
   "lat": 52.52593,
   "lng": 13.59512,
   "priority": "Priorität 2 oder 3"
 },
 {
   "id": "05K08",
   "title": "Schule an der Haveldüne (Integrierte Sekundarschule)",
   "address": "Jaczostr. 53-67",
   "zip": 13595,
   "type": "Integrierte Sekundarschule",
   "icon": "fa-building-o",
   "color": "red",
   "costs": 14500000,
   "lat": 52.51098,
   "lng": 13.18567,
   "priority": "Höchste Priorität"
 },
 {
   "id": "09A01",
   "title": "1. Schulpraktisches Seminar Treptow-Köpenick",
   "address": "Luisenstr. 16",
   "zip": 12557,
   "type": "Schulpraktisches Seminar",
   "icon": "fa-building-o",
   "color": "green",
   "costs": 0,
   "lat": 52.44107,
   "lng": 13.57814,
   "priority": "unbekannte Priorität"
 },
 {
   "id": "10Y08",
   "title": "Sartre-Gymnasium",
   "address": "Kyritzer Str. 103",
   "zip": 12629,
   "type": "Gymnasium",
   "icon": "fa-building-o",
   "color": "blue",
   "costs": 540000,
   "lat": 52.54332,
   "lng": 13.59106,
   "priority": "unbekannte Priorität"
 },
 {
   "id": "10K07",
   "title": "Caspar-David-Friedrich-Schule",
   "address": "Alte Hellersdorfer Str. 7",
   "zip": 12629,
   "type": "Integrierte Sekundarschule",
   "icon": "fa-building-o",
   "color": "blue",
   "costs": 1130000,
   "lat": 52.535223,
   "lng": 13.591017,
   "priority": "unbekannte Priorität"
 },
 {
   "id": "10G17",
   "title": "Beatrix-Potter-Grundschule",
   "address": "Ludwigsfelder Str. 7",
   "zip": 12629,
   "type": "Grundschule",
   "icon": "fa-building-o",
   "color": "orange",
   "costs": 5630000,
   "lat": 52.54682,
   "lng": 13.58926,
   "priority": "Priorität 2 oder 3"
 },
 {
   "id": "09G23",
   "title": "Hauptmann-von-Köpenick-Schule (Grundschule)",
   "address": "Borgmannstr. 2",
   "zip": 12555,
   "type": "Grundschule",
   "icon": "fa-building-o",
   "color": "blue",
   "costs": 1490000,
   "lat": 52.45624,
   "lng": 13.58095,
   "priority": "unbekannte Priorität"
 },
 {
   "id": "05G21",
   "title": "Paul Moor Schule",
   "address": "Adamstr. 24-25",
   "zip": 13595,
   "type": "Grundschule",
   "icon": "fa-building-o",
   "color": "green",
   "costs": 0,
   "lat": 52521,
   "lng": 13.19029,
   "priority": "unbekannte Priorität"
 },
 {
   "id": "05S02",
   "title": "Paul-Moor-Schule",
   "address": "Adamstr. 24-25",
   "zip": 13595,
   "type": "Förderschwerp.\"Lernen\"",
   "icon": "fa-building-o",
   "color": "blue",
   "costs": 3890000,
   "lat": 52521,
   "lng": 13.19029,
   "priority": "unbekannte Priorität"
 },
 {
   "id": "05G09",
   "title": "Schule am Grüngürtel",
   "address": "Askanierring 42",
   "zip": 13585,
   "type": "Grundschule",
   "icon": "fa-building-o",
   "color": "green",
   "costs": 0,
   "lat": 52.549099,
   "lng": 13.1934,
   "priority": "unbekannte Priorität"
 },
 {
   "id": "05S01",
   "title": "Schule am Grüngürtel",
   "address": "Askanierring 42",
   "zip": 13585,
   "type": "Förderschwerp.\"Lernen\"",
   "icon": "fa-building-o",
   "color": "blue",
   "costs": 2780000,
   "lat": 52.549099,
   "lng": 13.1934,
   "priority": "unbekannte Priorität"
 },
 {
   "id": "05G15",
   "title": "Askanier-Grundschule",
   "address": "Borkzeile 34",
   "zip": 13583,
   "type": "Grundschule",
   "icon": "fa-building-o",
   "color": "orange",
   "costs": 6390000,
   "lat": 52.54049,
   "lng": 13.19242,
   "priority": "Höchste Priorität"
 },
 {
   "id": "05G08",
   "title": "Konkordia-Grundschule",
   "address": "Elsflether Weg 26",
   "zip": 13581,
   "type": "Grundschule",
   "icon": "fa-building-o",
   "color": "blue",
   "costs": 4880000,
   "lat": 52.53018,
   "lng": 13.19202,
   "priority": "unbekannte Priorität"
 },
 {
   "id": "06Y05",
   "title": "Werner-von-Siemens-Oberschule",
   "address": "Beskidenstr. 3",
   "zip": 14129,
   "type": "Gymnasium",
   "icon": "fa-building-o",
   "color": "orange",
   "costs": 9310000,
   "lat": 52.43194,
   "lng": 13.21159,
   "priority": "Höchste Priorität"
 },
 {
   "id": "05G20",
   "title": "Carl-Schurz-Grundschule",
   "address": "Hakenfelder Str. 32",
   "zip": 13587,
   "type": "Grundschule",
   "icon": "fa-building-o",
   "color": "blue",
   "costs": 4310000,
   "lat": 52.56751,
   "lng": 13.199061,
   "priority": "unbekannte Priorität"
 },
 {
   "id": "10K02",
   "title": "Ernst-Haeckel-Schule",
   "address": "Luckenwalder Str. 53",
   "zip": 12629,
   "type": "Integrierte Sekundarschule",
   "icon": "fa-building-o",
   "color": "red",
   "costs": 10250000,
   "lat": 52.54322,
   "lng": 13.58574,
   "priority": "Priorität 2 oder 3"
 },
 {
   "id": "05K03",
   "title": "Bertolt-Brecht-Oberschule (Integrierte Sekundarschule)",
   "address": "Wilhelmstr. 10",
   "zip": 13595,
   "type": "Integrierte Sekundarschule",
   "icon": "fa-building-o",
   "color": "red",
   "costs": 10580000,
   "lat": 52.525308,
   "lng": 13.192692,
   "priority": "Höchste Priorität"
 },
 {
   "id": "05K04",
   "title": "Heinrich-Böll-Oberschule (Integrierte Sekundarschule)",
   "address": "Am Forstacker 9-11",
   "zip": 13587,
   "type": "Integrierte Sekundarschule",
   "icon": "fa-building-o",
   "color": "blue",
   "costs": 1600000,
   "lat": 52.565166,
   "lng": 13.199033,
   "priority": "unbekannte Priorität"
 },
 {
   "id": "06G03",
   "title": "Johannes-Tews-Grundschule",
   "address": "Wasgenstr. 50",
   "zip": 14129,
   "type": "Grundschule",
   "icon": "fa-building-o",
   "color": "orange",
   "costs": 9540000,
   "lat": 52.43162,
   "lng": 13.21262,
   "priority": "Höchste Priorität"
 },
 {
   "id": "05G05",
   "title": "Christoph-Földerich-Grundschule",
   "address": "Földerichplatz 5",
   "zip": 13595,
   "type": "Grundschule",
   "icon": "fa-building-o",
   "color": "orange",
   "costs": 7860000,
   "lat": 52.51986,
   "lng": 13.193276,
   "priority": "Priorität 2 oder 3"
 },
 {
   "id": "10K08",
   "title": "Johann-Julius-Hecker-Schule",
   "address": "Hohenwalder Str. 2",
   "zip": 12689,
   "type": "Integrierte Sekundarschule",
   "icon": "fa-building-o",
   "color": "blue",
   "costs": 360000,
   "lat": 52.56993,
   "lng": 13.57866,
   "priority": "unbekannte Priorität"
 },
 {
   "id": "10K03",
   "title": "Kerschensteiner-Schule",
   "address": "Golliner Str. 2",
   "zip": 12689,
   "type": "Integrierte Sekundarschule",
   "icon": "fa-building-o",
   "color": "orange",
   "costs": 5130000,
   "lat": 52.56681,
   "lng": 13.579505,
   "priority": "Priorität 2 oder 3"
 },
 {
   "id": "09G17",
   "title": "Uhlenhorst-Grundschule",
   "address": "Wongrowitzer Steig 37",
   "zip": 12555,
   "type": "Grundschule",
   "icon": "fa-building-o",
   "color": "blue",
   "costs": 1360000,
   "lat": 52.467512,
   "lng": 13.579352,
   "priority": "unbekannte Priorität"
 },
 {
   "id": "09G13",
   "title": "Schule am Altglienicker Wasserturm (Grundschule)",
   "address": "Sachsenstr. 22",
   "zip": 12524,
   "type": "Grundschule",
   "icon": "fa-building-o",
   "color": "blue",
   "costs": 4440000,
   "lat": 52.41079,
   "lng": 13.55406,
   "priority": "unbekannte Priorität"
 },
 {
   "id": "09S05",
   "title": "Schule am Altglienicker Wasserturm (Förderzentrum)",
   "address": "Sachsenstr. 22",
   "zip": 12524,
   "type": "Förderschwerp.\"Lernen\"",
   "icon": "fa-building-o",
   "color": "green",
   "costs": 0,
   "lat": 52.41079,
   "lng": 13.55406,
   "priority": "unbekannte Priorität"
 },
 {
   "id": "05K06",
   "title": "Wolfgang-Borchert-Schule (Integrierte Sekundarschule)",
   "address": "Blumenstr. 13",
   "zip": 13585,
   "type": "Integrierte Sekundarschule",
   "icon": "fa-building-o",
   "color": "blue",
   "costs": 4160000,
   "lat": 52.54571,
   "lng": 13.1967,
   "priority": "unbekannte Priorität"
 },
 {
   "id": "05G02",
   "title": "Grundschule am Eichenwald",
   "address": "Gaismannshofer Weg 2",
   "zip": 13587,
   "type": "Grundschule",
   "icon": "fa-building-o",
   "color": "orange",
   "costs": 6710000,
   "lat": 52.558423,
   "lng": 13.199146,
   "priority": "Priorität 2 oder 3"
 },
 {
   "id": "05G03",
   "title": "Birken-Grundschule",
   "address": "Hügelschanze 8-9",
   "zip": 13585,
   "type": "Grundschule",
   "icon": "fa-building-o",
   "color": "orange",
   "costs": 7950000,
   "lat": 52.54863,
   "lng": 13.19756,
   "priority": "Priorität 2 oder 3"
 },
 {
   "id": "05G30",
   "title": "30. Schule",
   "address": "Hügelschanze 8-9",
   "zip": 13585,
   "type": "Grundschule",
   "icon": "fa-building-o",
   "color": "green",
   "costs": 0,
   "lat": 52.54863,
   "lng": 13.19756,
   "priority": "Höchste Priorität"
 },
 {
   "id": "10G08",
   "title": "Wilhelm-Busch-Grundschule",
   "address": "Parsteiner Ring 24",
   "zip": 12679,
   "type": "Grundschule",
   "icon": "fa-building-o",
   "color": "blue",
   "costs": 3470000,
   "lat": 52.55325,
   "lng": 13.58137,
   "priority": "unbekannte Priorität"
 },
 {
   "id": "09K01",
   "title": "Merian-Schule (Integrierte Sekundarschule)",
   "address": "Hoernlestr. 80",
   "zip": 12555,
   "type": "Integrierte Sekundarschule",
   "icon": "fa-building-o",
   "color": "red",
   "costs": 12080000,
   "lat": 52.46431,
   "lng": 13.57643,
   "priority": "Priorität 2 oder 3"
 },
 {
   "id": "09K08",
   "title": "Schule an der Dahme (Integrierte Sekundarschule)",
   "address": "Glienicker Str. 24 -30",
   "zip": 12557,
   "type": "Integrierte Sekundarschule",
   "icon": "fa-building-o",
   "color": "orange",
   "costs": 5240000,
   "lat": 52.44056,
   "lng": 13.56727,
   "priority": "Priorität 2 oder 3"
 },
 {
   "id": "05Y01",
   "title": "Freiherr-vom-Stein-Gymnasium",
   "address": "Galenstr. 40-44",
   "zip": 13597,
   "type": "Gymnasium",
   "icon": "fa-building-o",
   "color": "green",
   "costs": 0,
   "lat": 52.539684,
   "lng": 13.198479,
   "priority": "unbekannte Priorität"
 },
 {
   "id": "10G33",
   "title": "Ulmen-Grundschule",
   "address": "Ulmenstr. 79-85",
   "zip": 12621,
   "type": "Grundschule",
   "icon": "fa-building-o",
   "color": "blue",
   "costs": 4350000,
   "lat": 52.48584,
   "lng": 13.58006,
   "priority": "unbekannte Priorität"
 },
 {
   "id": "05G27",
   "title": "Charlie-Rivel-Grundschule",
   "address": "Flankenschanze 20",
   "zip": 13585,
   "type": "Grundschule",
   "icon": "fa-building-o",
   "color": "blue",
   "costs": 670000,
   "lat": 52.543893,
   "lng": 13.1996,
   "priority": "unbekannte Priorität"
 },
 {
   "id": "05Y05",
   "title": "Lily-Braun-Gymnasium",
   "address": "Münsingerstr. 2",
   "zip": 13597,
   "type": "Gymnasium",
   "icon": "fa-building-o",
   "color": "blue",
   "costs": 20000,
   "lat": 52.538567,
   "lng": 13.199029,
   "priority": "unbekannte Priorität"
 },
 {
   "id": "12K11",
   "title": "Albrecht-Haushofer-Schule",
   "address": "Kurzebracker Weg 40-46",
   "zip": 13503,
   "type": "Integrierte Sekundarschule",
   "icon": "fa-building-o",
   "color": "red",
   "costs": 11870000,
   "lat": 52.61914,
   "lng": 13.22771,
   "priority": "Priorität 2 oder 3"
 },
 {
   "id": "09Y05",
   "title": "Alexander-von-Humboldt-Gymnasium",
   "address": "Oberspreestr. 173",
   "zip": 12555,
   "type": "Gymnasium",
   "icon": "fa-building-o",
   "color": "orange",
   "costs": 7520000,
   "lat": 52.445252,
   "lng": 13.566972,
   "priority": "Priorität 2 oder 3"
 },
 {
   "id": "09G18",
   "title": "Schule in der Köllnischen Vorstadt (Grundschule)",
   "address": "Rudower Str. 201",
   "zip": 12557,
   "type": "Grundschule",
   "icon": "fa-building-o",
   "color": "blue",
   "costs": 3010000,
   "lat": 52.43946,
   "lng": 13.56429,
   "priority": "unbekannte Priorität"
 },
 {
   "id": "05Y02",
   "title": "Kant-Gymnasium",
   "address": "Bismarckstr. 54",
   "zip": 13585,
   "type": "Gymnasium",
   "icon": "fa-building-o",
   "color": "red",
   "costs": 14620000,
   "lat": 52.54286,
   "lng": 13.20115,
   "priority": "Höchste Priorität"
 },
 {
   "id": "10G29",
   "title": "Grundschule an der Wuhle",
   "address": "Teterower Ring 79",
   "zip": 12619,
   "type": "Grundschule",
   "icon": "fa-building-o",
   "color": "blue",
   "costs": 1330000,
   "lat": 52.52118,
   "lng": 13.58041,
   "priority": "unbekannte Priorität"
 },
 {
   "id": "10K01",
   "title": "Rudolf-Virchow-Schule",
   "address": "Glambecker Ring 90",
   "zip": 12679,
   "type": "Integrierte Sekundarschule",
   "icon": "fa-building-o",
   "color": "blue",
   "costs": 3520000,
   "lat": 52.5555,
   "lng": 13.57573,
   "priority": "unbekannte Priorität"
 },
 {
   "id": "12G34",
   "title": "Otfried-Preußler-Grundschule",
   "address": "Schulzendorfer Str. 99",
   "zip": 13503,
   "type": "Grundschule",
   "icon": "fa-building-o",
   "color": "orange",
   "costs": 5210000,
   "lat": 52.613129,
   "lng": 13.227141,
   "priority": "Priorität 2 oder 3"
 },
 {
   "id": "10G05",
   "title": "Ebereschen-Grundschule",
   "address": "Borkheider Str. 27",
   "zip": 12689,
   "type": "Grundschule",
   "icon": "fa-building-o",
   "color": "blue",
   "costs": 3510000,
   "lat": 52.56407,
   "lng": 13.57294,
   "priority": "unbekannte Priorität"
 },
 {
   "id": "06G11",
   "title": "Grundschule Am Rohrgarten (Gemeinschaftsschule)",
   "address": "Am Rohrgarten 9",
   "zip": 14163,
   "type": "Grundschule",
   "icon": "fa-building-o",
   "color": "blue",
   "costs": 730000,
   "lat": 52.425776,
   "lng": 13.224983,
   "priority": "unbekannte Priorität"
 },
 {
   "id": "10G03",
   "title": "Selma-Lagerlöf-Grundschule",
   "address": "Wörlitzer Str. 31",
   "zip": 12689,
   "type": "Marzahn-Hellersdorf",
   "icon": "fa-building-o",
   "color": "blue",
   "costs": 3960000,
   "lat": 52.56767,
   "lng": 13.57023,
   "priority": "unbekannte Priorität"
 },
 {
   "id": "05G07",
   "title": "Lynar-Grundschule",
   "address": "Lutherstr. 19-20",
   "zip": 13585,
   "type": "Grundschule",
   "icon": "fa-building-o",
   "color": "blue",
   "costs": 1030000,
   "lat": 52.54766,
   "lng": 13.20683,
   "priority": "unbekannte Priorität"
 },
 {
   "id": "05G01",
   "title": "Ernst-Ludwig-Heim-Grundschule",
   "address": "Grunewaldstr. 8",
   "zip": 13597,
   "type": "Grundschule",
   "icon": "fa-building-o",
   "color": "blue",
   "costs": 4450000,
   "lat": 52.5304,
   "lng": 13.20672,
   "priority": "unbekannte Priorität"
 },
 {
   "id": "09G15",
   "title": "Schule am Mohnweg (Grundschule)",
   "address": "Mohnweg 20",
   "zip": 12524,
   "type": "Grundschule",
   "icon": "fa-building-o",
   "color": "blue",
   "costs": 3340000,
   "lat": 52.40733,
   "lng": 13.53679,
   "priority": "unbekannte Priorität"
 },
 {
   "id": "12G17",
   "title": "Ellef-Ringnes-Grundschule",
   "address": "Im Erpelgrund 11-17",
   "zip": 13503,
   "type": "Grundschule",
   "icon": "fa-building-o",
   "color": "blue",
   "costs": 4780000,
   "lat": 52.60802,
   "lng": 13.23202,
   "priority": "unbekannte Priorität"
 },
 {
   "id": "10G31",
   "title": "Franz-Carl-Achard-Grundschule",
   "address": "Flämingstr. 16-18",
   "zip": 12689,
   "type": "Grundschule",
   "icon": "fa-building-o",
   "color": "blue",
   "costs": 1370000,
   "lat": 52.56382,
   "lng": 13.56592,
   "priority": "unbekannte Priorität"
 },
 {
   "id": "10K11",
   "title": "Marcana-Schule (Gemeinschaftsschule)",
   "address": "Flämingstr. 16-18",
   "zip": 12689,
   "type": "Integrierte Sekundarschule",
   "icon": "fa-building-o",
   "color": "blue",
   "costs": 2100000,
   "lat": 52.56382,
   "lng": 13.56592,
   "priority": "unbekannte Priorität"
 },
 {
   "id": "10G34",
   "title": "Schule am grünen Stadtrand",
   "address": "Geraer Ring 54",
   "zip": 12689,
   "type": "Förderschwerp.\"Lernen\"",
   "icon": "fa-building-o",
   "color": "orange",
   "costs": 7440000,
   "lat": 52.56973,
   "lng": 13.56193,
   "priority": "Priorität 2 oder 3"
 },
 {
   "id": "09Y04",
   "title": "Anne-Frank-Gymnasium",
   "address": "Uranusstr. 15 -17",
   "zip": 12524,
   "type": "Gymnasium",
   "icon": "fa-building-o",
   "color": "blue",
   "costs": 2040000,
   "lat": 52.399327,
   "lng": 13.525296,
   "priority": "unbekannte Priorität"
 },
 {
   "id": "10G09",
   "title": "Grundschule am Bürgerpark",
   "address": "Jan-Petersen-Str. 18B",
   "zip": 12679,
   "type": "Grundschule",
   "icon": "fa-building-o",
   "color": "blue",
   "costs": 2100000,
   "lat": 52.55062,
   "lng": 13.56569,
   "priority": "unbekannte Priorität"
 },
 {
   "id": "09K02",
   "title": "Anna-Seghers-Schule (Gemeinschaftsschule)",
   "address": "Radickestr. 43",
   "zip": 12489,
   "type": "Integrierte Sekundarschule",
   "icon": "fa-building-o",
   "color": "orange",
   "costs": 8100000,
   "lat": 52.435416,
   "lng": 13.548246,
   "priority": "Priorität 2 oder 3"
 },
 {
   "id": "09G11",
   "title": "Schule am Pegasuseck (Grundschule)",
   "address": "Pegasuseck 5",
   "zip": 12524,
   "type": "Grundschule",
   "icon": "fa-building-o",
   "color": "blue",
   "costs": 3060000,
   "lat": 52.40638,
   "lng": 13.5294,
   "priority": "unbekannte Priorität"
 },
 {
   "id": "10G07",
   "title": "Karl-Friedrich-Friesen-Grundschule",
   "address": "Max-Herrmann-Str. 5",
   "zip": 12687,
   "type": "Grundschule",
   "icon": "fa-building-o",
   "color": "green",
   "costs": 0,
   "lat": 52.55335,
   "lng": 13.56415,
   "priority": "unbekannte Priorität"
 },
 {
   "id": "09G10",
   "title": "Schule am Berg (Grundschule)",
   "address": "Köpenicker Str. 31",
   "zip": 12524,
   "type": "Grundschule",
   "icon": "fa-building-o",
   "color": "blue",
   "costs": 3230000,
   "lat": 52.41866,
   "lng": 13.538044,
   "priority": "unbekannte Priorität"
 },
 {
   "id": "10G11",
   "title": "Grundschule an der Mühle",
   "address": "Kienbergstr. 59",
   "zip": 12685,
   "type": "Grundschule",
   "icon": "fa-building-o",
   "color": "blue",
   "costs": 4060000,
   "lat": 52.53976,
   "lng": 13.5657,
   "priority": "unbekannte Priorität"
 },
 {
   "id": "10G01",
   "title": "Paavo-Nurmi-Grundschule",
   "address": "Schorfheidestr. 42",
   "zip": 12689,
   "type": "Grundschule",
   "icon": "fa-building-o",
   "color": "orange",
   "costs": 5940000,
   "lat": 52.54728,
   "lng": 13.56405,
   "priority": "Priorität 2 oder 3"
 },
 {
   "id": "10G06",
   "title": "Bruno-Bettelheim-Grundschule (Gemeinschaftsschule)",
   "address": "Schleusinger Str. 17",
   "zip": 12687,
   "type": "Grundschule",
   "icon": "fa-building-o",
   "color": "green",
   "costs": 0,
   "lat": 52.557763,
   "lng": 13.561873,
   "priority": "unbekannte Priorität"
 },
 {
   "id": "06G10",
   "title": "Grundschule am Buschgraben",
   "address": "Ludwigsfelder Str. 43-47",
   "zip": 14165,
   "type": "Grundschule",
   "icon": "fa-building-o",
   "color": "blue",
   "costs": 1460000,
   "lat": 52.42192,
   "lng": 13.242834,
   "priority": "unbekannte Priorität"
 },
 {
   "id": "10K04",
   "title": "Thüringen-Schule (Gemeinschaftsschule)",
   "address": "Liebensteiner Str. 24",
   "zip": 12687,
   "type": "Integrierte Sekundarschule",
   "icon": "fa-building-o",
   "color": "blue",
   "costs": 3620000,
   "lat": 52.55821,
   "lng": 13.5601,
   "priority": "unbekannte Priorität"
 },
 {
   "id": "10G04",
   "title": "Falken-Grundschule",
   "address": "Geraer Ring 2",
   "zip": 12689,
   "type": "Grundschule",
   "icon": "fa-building-o",
   "color": "orange",
   "costs": 5440000,
   "lat": 52.56593,
   "lng": 13.5564,
   "priority": "Priorität 2 oder 3"
 },
 {
   "id": "09G09",
   "title": "Heide-Schule (Grundschule)",
   "address": "Florian-Geyer-Str. 87",
   "zip": 12489,
   "type": "Grundschule",
   "icon": "fa-building-o",
   "color": "orange",
   "costs": 6510000,
   "lat": 52.438648,
   "lng": 13.543713,
   "priority": "Priorität 2 oder 3"
 },
 {
   "id": "12G18",
   "title": "Grundschule am Tegelschen Ort",
   "address": "Gerlindeweg 11-23",
   "zip": 13505,
   "type": "Grundschule",
   "icon": "fa-building-o",
   "color": "blue",
   "costs": 4910000,
   "lat": 52.576181,
   "lng": 13.228007,
   "priority": "unbekannte Priorität"
 },
 {
   "id": "10Y01",
   "title": "Tagore-Gymnasium",
   "address": "Sella-Hasse-Str. 25",
   "zip": 12687,
   "type": "Gymnasium",
   "icon": "fa-building-o",
   "color": "blue",
   "costs": 3560000,
   "lat": 52.55271,
   "lng": 13.55658,
   "priority": "unbekannte Priorität"
 },
 {
   "id": "10G13",
   "title": "Johann-Strauss-Grundschule",
   "address": "Cecilienstr. 81",
   "zip": 12683,
   "type": "Grundschule",
   "icon": "fa-building-o",
   "color": "green",
   "costs": 0,
   "lat": 52.52982,
   "lng": 13.55966,
   "priority": "unbekannte Priorität"
 },
 {
   "id": "10K06",
   "title": "Georg-Klingenberg-Schule",
   "address": "Alberichstr. 24",
   "zip": 12683,
   "type": "Integrierte Sekundarschule",
   "icon": "fa-building-o",
   "color": "blue",
   "costs": 4560000,
   "lat": 52.49015,
   "lng": 13.55783,
   "priority": "unbekannte Priorität"
 },
 {
   "id": "12G24",
   "title": "Renée-Sintenis-Grundschule",
   "address": "Laurinsteig 39-45",
   "zip": 13465,
   "type": "Grundschule",
   "icon": "fa-building-o",
   "color": "blue",
   "costs": 4630000,
   "lat": 52.63695,
   "lng": 13.27237,
   "priority": "unbekannte Priorität"
 },
 {
   "id": "11Y09",
   "title": "Barnim-Gymnasium",
   "address": "Ahrensfelder Chaussee 41",
   "zip": 13057,
   "type": "Gymnasium",
   "icon": "fa-building-o",
   "color": "blue",
   "costs": 300000,
   "lat": 52.569201,
   "lng": 13.549303,
   "priority": "unbekannte Priorität"
 },
 {
   "id": "10G10",
   "title": "Peter-Pan-Grundschule",
   "address": "Stolzenhagener Str. 9",
   "zip": 12679,
   "type": "Grundschule",
   "icon": "fa-building-o",
   "color": "blue",
   "costs": 2640000,
   "lat": 52.548156,
   "lng": 13.551672,
   "priority": "unbekannte Priorität"
 },
 {
   "id": "06G02",
   "title": "Süd-Grundschule",
   "address": "Claszeile 56",
   "zip": 14165,
   "type": "Grundschule",
   "icon": "fa-building-o",
   "color": "orange",
   "costs": 9290000,
   "lat": 52.4189,
   "lng": 13.25839,
   "priority": "Höchste Priorität"
 },
 {
   "id": "10S04",
   "title": "Schule am Pappelhof",
   "address": "Ketschendorfer Weg 21",
   "zip": 12683,
   "type": "Förderschwerp.\"Geistige Entwicklung\"",
   "icon": "fa-building-o",
   "color": "blue",
   "costs": 3160000,
   "lat": 52.531157,
   "lng": 13.553338,
   "priority": "unbekannte Priorität"
 },
 {
   "id": "05G28",
   "title": "Grundschule an der Pulvermühle",
   "address": "Grützmacherweg 7",
   "zip": 13599,
   "type": "Grundschule",
   "icon": "fa-building-o",
   "color": "blue",
   "costs": 630000,
   "lat": 52.544061,
   "lng": 13.228327,
   "priority": "unbekannte Priorität"
 },
 {
   "id": "08Y06",
   "title": "Hannah-Arendt-Gymnasium",
   "address": "Elfriede-Kuhr-Str. 17",
   "zip": 12355,
   "type": "Gymnasium",
   "icon": "fa-building-o",
   "color": "blue",
   "costs": 3800000,
   "lat": 52.40411,
   "lng": 13.508639,
   "priority": "unbekannte Priorität"
 },
 {
   "id": "10G16",
   "title": "Grundschule am Fuchsberg",
   "address": "Dankratweg 19",
   "zip": 12683,
   "type": "Grundschule",
   "icon": "fa-building-o",
   "color": "blue",
   "costs": 3120000,
   "lat": 52.49039,
   "lng": 13.551484,
   "priority": "unbekannte Priorität"
 },
 {
   "id": "10G12",
   "title": "Grundschule an der Geißenweide",
   "address": "Amanlisweg 40",
   "zip": 12685,
   "type": "Grundschule",
   "icon": "fa-building-o",
   "color": "blue",
   "costs": 2960000,
   "lat": 52.537783,
   "lng": 13.551797,
   "priority": "unbekannte Priorität"
 },
 {
   "id": "10Y03",
   "title": "Wilhelm-von-Siemens-Gymnasium",
   "address": "Allee der Kosmonauten 134",
   "zip": 12683,
   "type": "Gymnasium",
   "icon": "fa-building-o",
   "color": "blue",
   "costs": 450000,
   "lat": 52.533571,
   "lng": 13.551106,
   "priority": "unbekannte Priorität"
 },
 {
   "id": "08G37",
   "title": "Rose-Oehmichen-Schule (Grundschule)",
   "address": "Lieselotte-Berger-Str. 65",
   "zip": 12355,
   "type": "Grundschule",
   "icon": "fa-building-o",
   "color": "blue",
   "costs": 1330000,
   "lat": 52.401126,
   "lng": 13.501995,
   "priority": "unbekannte Priorität"
 },
 {
   "id": "06G07",
   "title": "Zinnowwald-Grundschule",
   "address": "Wilskistr. 78",
   "zip": 14163,
   "type": "Grundschule",
   "icon": "fa-building-o",
   "color": "orange",
   "costs": 9090000,
   "lat": 52.44543,
   "lng": 13.246529,
   "priority": "Höchste Priorität"
 },
 {
   "id": "06Y01",
   "title": "Schadow-Gymnasium",
   "address": "Beuckestr. 27-29",
   "zip": 14163,
   "type": "Gymnasium",
   "icon": "fa-building-o",
   "color": "red",
   "costs": 20090000,
   "lat": 52.43149,
   "lng": 13.25463,
   "priority": "Höchste Priorität"
 },
 {
   "id": "06Y02",
   "title": "Droste-Hülshoff-Oberschule",
   "address": "Schönower Str. 8",
   "zip": 14165,
   "type": "Gymnasium",
   "icon": "fa-building-o",
   "color": "red",
   "costs": 13340000,
   "lat": 52.42846,
   "lng": 13.25673,
   "priority": "Höchste Priorität"
 },
 {
   "id": "05G13",
   "title": "Bernd-Ryke-Grundschule",
   "address": "Daumstr. 12",
   "zip": 13599,
   "type": "Grundschule",
   "icon": "fa-building-o",
   "color": "orange",
   "costs": 5310000,
   "lat": 52.54494,
   "lng": 13.2325,
   "priority": "Höchste Priorität"
 },
 {
   "id": "06S01",
   "title": "Pestalozzi-Schule",
   "address": "Hartmannsweilerweg 47",
   "zip": 14163,
   "type": "Integrierte Sekundarschule",
   "icon": "fa-building-o",
   "color": "blue",
   "costs": 3630000,
   "lat": 52.44346,
   "lng": 13.24838,
   "priority": "unbekannte Priorität"
 },
 {
   "id": "10Y02",
   "title": "Otto-Nagel-Gymnasium",
   "address": "Schulstr. 11",
   "zip": 12683,
   "type": "Gymnasium",
   "icon": "fa-building-o",
   "color": "blue",
   "costs": 2670000,
   "lat": 52.511922,
   "lng": 13.549199,
   "priority": "unbekannte Priorität"
 },
 {
   "id": "12G23",
   "title": "Victor-Gollancz-Grundschule",
   "address": "Gollanczstr. 18-24",
   "zip": 13465,
   "type": "Grundschule",
   "icon": "fa-building-o",
   "color": "orange",
   "costs": 6060000,
   "lat": 52.63826,
   "lng": 13.28757,
   "priority": "Priorität 2 oder 3"
 },
 {
   "id": "08G25",
   "title": "Michael-Ende-Schule (Grundschule)",
   "address": "Neuhofer Str. 41",
   "zip": 12355,
   "type": "Grundschule",
   "icon": "fa-building-o",
   "color": "blue",
   "costs": 4280000,
   "lat": 52.41346,
   "lng": 13.50984,
   "priority": "unbekannte Priorität"
 },
 {
   "id": "03G29",
   "title": "Grundschule Am Sandhaus",
   "address": "Wiltbergstr. 37-39",
   "zip": 13125,
   "type": "Grundschule",
   "icon": "fa-building-o",
   "color": "blue",
   "costs": 770000,
   "lat": 52.637343,
   "lng": 13.490967,
   "priority": "unbekannte Priorität"
 },
 {
   "id": "06G01",
   "title": "Nord-Grundschule",
   "address": "Potsdamer Str. 7",
   "zip": 14163,
   "type": "Grundschule",
   "icon": "fa-building-o",
   "color": "orange",
   "costs": 6260000,
   "lat": 52.435951,
   "lng": 13.25558,
   "priority": "Priorität 2 oder 3"
 },
 {
   "id": "06K01",
   "title": "John-F.-Kennedy-Schule",
   "address": "Teltower Damm 87-93",
   "zip": 14167,
   "type": "Integrierte Sekundarschule",
   "icon": "fa-building-o",
   "color": "red",
   "costs": 28540000,
   "lat": 52.42589,
   "lng": 13.26273,
   "priority": "Höchste Priorität"
 },
 {
   "id": "06G08",
   "title": "Schweizerhof-Grundschule",
   "address": "Leo-Baeck-Str. 28-30",
   "zip": 14167,
   "type": "Grundschule",
   "icon": "fa-building-o",
   "color": "blue",
   "costs": 3930000,
   "lat": 52.42278,
   "lng": 13.26571,
   "priority": "unbekannte Priorität"
 },
 {
   "id": "03K10",
   "title": "Hufeland-Schule (Integrierte Sekundarschule)",
   "address": "Walter-Friedrich-Str. 16-18",
   "zip": 13125,
   "type": "Integrierte Sekundarschule",
   "icon": "fa-building-o",
   "color": "red",
   "costs": 16420000,
   "lat": 52.63325,
   "lng": 13.49373,
   "priority": "Höchste Priorität"
 },
 {
   "id": "04G15",
   "title": "Charles-Dickens-Grundschule",
   "address": "Dickensweg 15",
   "zip": 14055,
   "type": "Grundschule",
   "icon": "fa-building-o",
   "color": "blue",
   "costs": 3230000,
   "lat": 52.508946,
   "lng": 13.236971,
   "priority": "unbekannte Priorität"
 },
 {
   "id": "10G14",
   "title": "Grundschule unter dem Regenbogen",
   "address": "Murtzaner Ring 37",
   "zip": 12681,
   "type": "Grundschule",
   "icon": "fa-building-o",
   "color": "orange",
   "costs": 5940000,
   "lat": 52.5301,
   "lng": 13.54212,
   "priority": "Priorität 2 oder 3"
 },
 {
   "id": "03S10",
   "title": "Marianne-Buggenhagen-Schule",
   "address": "Ernst-Busch-Str. 29",
   "zip": 13125,
   "type": "Übrige Förderschwerpunkte",
   "icon": "fa-building-o",
   "color": "blue",
   "costs": 1060000,
   "lat": 52.62953,
   "lng": 13.49149,
   "priority": "unbekannte Priorität"
 },
 {
   "id": "11G28",
   "title": "Feldmark-Schule (Grundschule)",
   "address": "Wartiner Str. 23",
   "zip": 13057,
   "type": "Grundschule",
   "icon": "fa-building-o",
   "color": "blue",
   "costs": 2670000,
   "lat": 52.569161,
   "lng": 13.531731,
   "priority": "unbekannte Priorität"
 },
 {
   "id": "10A04",
   "title": "Victor-Klemperer-Kolleg",
   "address": "Martha-Arendsee-Str. 15",
   "zip": 12681,
   "type": "Volkshochschul-Kolleg",
   "icon": "fa-building-o",
   "color": "blue",
   "costs": 3010000,
   "lat": 52.5363,
   "lng": 13.53885,
   "priority": "unbekannte Priorität"
 },
 {
   "id": "05S03",
   "title": "Schule am Gartenfeld",
   "address": "Gartenfelder Str. 81",
   "zip": 13599,
   "type": "Förderschwerp.\"Geistige Entwicklung\"",
   "icon": "fa-building-o",
   "color": "orange",
   "costs": 9050000,
   "lat": 52.543211,
   "lng": 13.24234,
   "priority": "Priorität 2 oder 3"
 },
 {
   "id": "11G14",
   "title": "Richard-Wagner-Grundschule",
   "address": "Ehrenfelsstr. 36",
   "zip": 10318,
   "type": "Grundschule",
   "icon": "fa-building-o",
   "color": "blue",
   "costs": 3700000,
   "lat": 52.479326,
   "lng": 13.53427,
   "priority": "unbekannte Priorität"
 },
 {
   "id": "11G12",
   "title": "Lew-Tolstoi-Grundschule",
   "address": "Römerweg 120",
   "zip": 10318,
   "type": "Grundschule",
   "icon": "fa-building-o",
   "color": "blue",
   "costs": 1180000,
   "lat": 52.49199,
   "lng": 13.53678,
   "priority": "unbekannte Priorität"
 },
 {
   "id": "09Y03",
   "title": "Archenhold-Gymnasium",
   "address": "Rudower Str. 7",
   "zip": 12439,
   "type": "Gymnasium",
   "icon": "fa-building-o",
   "color": "blue",
   "costs": 4530000,
   "lat": 52.4514,
   "lng": 13.52271,
   "priority": "unbekannte Priorität"
 },
 {
   "id": "08G28",
   "title": "Matthias-Claudius-Schule (Grundschule)",
   "address": "Köpenicker Str. 148",
   "zip": 12355,
   "type": "Grundschule",
   "icon": "fa-building-o",
   "color": "orange",
   "costs": 5390000,
   "lat": 52.420381,
   "lng": 13.501675,
   "priority": "Priorität 2 oder 3"
 },
 {
   "id": "09G22",
   "title": "Schule an der Wuhlheide (Grundschule)",
   "address": "Kottmeierstr. 2",
   "zip": 12459,
   "type": "Grundschule",
   "icon": "fa-building-o",
   "color": "blue",
   "costs": 3420000,
   "lat": 52.462579,
   "lng": 13.524106,
   "priority": "unbekannte Priorität"
 },
 {
   "id": "03G10",
   "title": "Grundschule am Hohen Feld",
   "address": "Bedeweg 1",
   "zip": 13125,
   "type": "Grundschule",
   "icon": "fa-building-o",
   "color": "blue",
   "costs": 1820000,
   "lat": 52.61492,
   "lng": 13.49606,
   "priority": "unbekannte Priorität"
 },
 {
   "id": "12K10",
   "title": "Carl-Bosch-Schule",
   "address": "Frohnauer Str. 74-80",
   "zip": 13467,
   "type": "Integrierte Sekundarschule",
   "icon": "fa-building-o",
   "color": "orange",
   "costs": 8440000,
   "lat": 52.62349,
   "lng": 13.29375,
   "priority": "Priorität 2 oder 3"
 },
 {
   "id": "12S05",
   "title": "Wiesengrund-Schule",
   "address": "Frohnauer Str. 74-80",
   "zip": 13467,
   "type": "Übrige Förderschwerpunkte",
   "icon": "fa-building-o",
   "color": "green",
   "costs": 0,
   "lat": 52.62349,
   "lng": 13.29375,
   "priority": "unbekannte Priorität"
 },
 {
   "id": "03Y16",
   "title": "Robert-Havemann-Gymnasium",
   "address": "Achillesstr. 79",
   "zip": 13125,
   "type": "Gymnasium",
   "icon": "fa-building-o",
   "color": "orange",
   "costs": 7260000,
   "lat": 52.615393,
   "lng": 13.494218,
   "priority": "Priorität 2 oder 3"
 },
 {
   "id": "06K02",
   "title": "Wilma-Rudolph-Schule (Integrierte Sekundarschule)",
   "address": "Am Hegewinkel 2A",
   "zip": 14169,
   "type": "Integrierte Sekundarschule",
   "icon": "fa-building-o",
   "color": "red",
   "costs": 13210000,
   "lat": 52.45479,
   "lng": 13.26097,
   "priority": "Höchste Priorität"
 },
 {
   "id": "11G29",
   "title": "Matibi-Grundschule",
   "address": "Prendener Str. 15",
   "zip": 13059,
   "type": "Grundschule",
   "icon": "fa-building-o",
   "color": "blue",
   "costs": 1870000,
   "lat": 52.5724,
   "lng": 13.52072,
   "priority": "unbekannte Priorität"
 },
 {
   "id": "08G11",
   "title": "Schliemann-Schule (Grundschule)",
   "address": "Groß-Ziethener Chaussee 73",
   "zip": 12355,
   "type": "Grundschule",
   "icon": "fa-building-o",
   "color": "blue",
   "costs": 3740000,
   "lat": 52.41198,
   "lng": 13.48526,
   "priority": "unbekannte Priorität"
 },
 {
   "id": "11K05",
   "title": "Fritz-Reuter-Schule",
   "address": "Prendener Str. 29",
   "zip": 13059,
   "type": "Integrierte Sekundarschule",
   "icon": "fa-building-o",
   "color": "blue",
   "costs": 400000,
   "lat": 52.570237,
   "lng": 13.52104,
   "priority": "unbekannte Priorität"
 },
 {
   "id": "11G06",
   "title": "Adam-Ries-Grundschule",
   "address": "Alt-Friedrichsfelde 66",
   "zip": 10315,
   "type": "Grundschule",
   "icon": "fa-building-o",
   "color": "orange",
   "costs": 5130000,
   "lat": 52.5114,
   "lng": 13.53125,
   "priority": "Priorität 2 oder 3"
 },
 {
   "id": "03G24",
   "title": "Grundschule im Panketal",
   "address": "Achillesstr. 31",
   "zip": 13125,
   "type": "Grundschule",
   "icon": "fa-building-o",
   "color": "blue",
   "costs": 4140000,
   "lat": 52.61986,
   "lng": 13.486729,
   "priority": "unbekannte Priorität"
 },
 {
   "id": "08K05",
   "title": "Clay-Schule",
   "address": "Bildhauerweg 9",
   "zip": 12355,
   "type": "Integrierte Sekundarschule",
   "icon": "fa-building-o",
   "color": "blue",
   "costs": 4580000,
   "lat": 52.41759,
   "lng": 13.48999,
   "priority": "unbekannte Priorität"
 },
 {
   "id": "09G06",
   "title": "Melli-Beese-Schule (Grundschule)",
   "address": "Engelhardstr. 18",
   "zip": 12487,
   "type": "Grundschule",
   "icon": "fa-building-o",
   "color": "blue",
   "costs": 2790000,
   "lat": 52.44696,
   "lng": 13.51031,
   "priority": "unbekannte Priorität"
 },
 {
   "id": "09G07",
   "title": "Schule an der alten Feuerwache (Grundschule)",
   "address": "Schnellerstr. 31",
   "zip": 12439,
   "type": "Grundschule",
   "icon": "fa-building-o",
   "color": "blue",
   "costs": 3830000,
   "lat": 52.45459,
   "lng": 13.51379,
   "priority": "unbekannte Priorität"
 },
 {
   "id": "09K04",
   "title": "Isaac-Newton-Schule (Integrierte Sekundarschule)",
   "address": "Zeppelinstr. 76-80",
   "zip": 12459,
   "type": "Integrierte Sekundarschule",
   "icon": "fa-building-o",
   "color": "orange",
   "costs": 6470000,
   "lat": 52.4659,
   "lng": 13.51817,
   "priority": "Priorität 2 oder 3"
 },
 {
   "id": "11G26",
   "title": "Randow-Grundschule",
   "address": "Randowstr. 45",
   "zip": 13057,
   "type": "Grundschule",
   "icon": "fa-building-o",
   "color": "blue",
   "costs": 1430000,
   "lat": 52.56405,
   "lng": 13.51904,
   "priority": "unbekannte Priorität"
 },
 {
   "id": "06G06",
   "title": "Mühlenau-Grundschule",
   "address": "Molsheimer Str. 7",
   "zip": 14195,
   "type": "Grundschule",
   "icon": "fa-building-o",
   "color": "orange",
   "costs": 5870000,
   "lat": 52.443206,
   "lng": 13.276002,
   "priority": "Priorität 2 oder 3"
 },
 {
   "id": "11Y05",
   "title": "Hans-und-Hilde-Coppi-Oberschule",
   "address": "Römerweg 30-32",
   "zip": 10318,
   "type": "Gymnasium",
   "icon": "fa-building-o",
   "color": "red",
   "costs": 10340000,
   "lat": 52.4918,
   "lng": 13.52343,
   "priority": "Priorität 2 oder 3"
 },
 {
   "id": "06G12",
   "title": "Quentin-Blake-Grundschule",
   "address": "Hüttenweg 40",
   "zip": 14195,
   "type": "Grundschule",
   "icon": "fa-building-o",
   "color": "blue",
   "costs": 4760000,
   "lat": 52.454097,
   "lng": 13.27055,
   "priority": "unbekannte Priorität"
 },
 {
   "id": "06S02",
   "title": "Biesalski-Schule",
   "address": "Hüttenweg 40",
   "zip": 14195,
   "type": "Übrige Förderschwerpunkte",
   "icon": "fa-building-o",
   "color": "orange",
   "costs": 7170000,
   "lat": 52.454097,
   "lng": 13.27055,
   "priority": "Höchste Priorität"
 },
 {
   "id": "12K09",
   "title": "Carl-Benz-Schule (Integrierte Sekundarschule)",
   "address": "Heidenheimer Str. 53-54",
   "zip": 13467,
   "type": "Integrierte Sekundarschule",
   "icon": "fa-building-o",
   "color": "orange",
   "costs": 8980000,
   "lat": 52.615646,
   "lng": 13.298748,
   "priority": "Priorität 2 oder 3"
 },
 {
   "id": "09S03",
   "title": "Albatros-Schule",
   "address": "Treskowallee 222",
   "zip": 12459,
   "type": "Förderschwerp.\"Geistige Entwicklung\"",
   "icon": "fa-building-o",
   "color": "blue",
   "costs": 1110000,
   "lat": 52.471245,
   "lng": 13.516154,
   "priority": "unbekannte Priorität"
 },
 {
   "id": "08G33",
   "title": "Schule am Fliederbusch (Grundschule)",
   "address": "Kornradenstr. 2",
   "zip": 12357,
   "type": "Grundschule",
   "icon": "fa-building-o",
   "color": "blue",
   "costs": 2730000,
   "lat": 52.42424,
   "lng": 13.48673,
   "priority": "unbekannte Priorität"
 },
 {
   "id": "04Y02",
   "title": "Wald-Gymnasium",
   "address": "Waldschulallee 95",
   "zip": 14055,
   "type": "Gymnasium",
   "icon": "fa-building-o",
   "color": "orange",
   "costs": 5230000,
   "lat": 52.50343,
   "lng": 13.25701,
   "priority": "Priorität 2 oder 3"
 },
 {
   "id": "08S04",
   "title": "Schule am Zwickauer Damm",
   "address": "Zwickauer Damm 17-22",
   "zip": 12353,
   "type": "Integrierte Sekundarschule",
   "icon": "fa-building-o",
   "color": "blue",
   "costs": 3770000,
   "lat": 52422,
   "lng": 13.48315,
   "priority": "unbekannte Priorität"
 },
 {
   "id": "09Y10",
   "title": "Gebrüder-Montgolfier-Gymnasium",
   "address": "Ellernweg 20-22",
   "zip": 12487,
   "type": "Gymnasium",
   "icon": "fa-building-o",
   "color": "blue",
   "costs": 1460000,
   "lat": 52.44833,
   "lng": 13.50379,
   "priority": "unbekannte Priorität"
 },
 {
   "id": "11G13",
   "title": "Karlshorster Grundschule",
   "address": "Lisztstr. 6",
   "zip": 10318,
   "type": "Grundschule",
   "icon": "fa-building-o",
   "color": "blue",
   "costs": 230000,
   "lat": 52.48925,
   "lng": 13.51994,
   "priority": "unbekannte Priorität"
 },
 {
   "id": "09G05",
   "title": "Schule am Ginkobaum (Grundschule)",
   "address": "Springbornstr. 250",
   "zip": 12487,
   "type": "Grundschule",
   "icon": "fa-building-o",
   "color": "blue",
   "costs": 1040000,
   "lat": 52.44014,
   "lng": 13.4979,
   "priority": "unbekannte Priorität"
 },
 {
   "id": "04Y05",
   "title": "Herder-Gymnasium",
   "address": "Westendallee 45-46",
   "zip": 14052,
   "type": "Gymnasium",
   "icon": "fa-building-o",
   "color": "orange",
   "costs": 5030000,
   "lat": 52.510663,
   "lng": 13.257932,
   "priority": "Priorität 2 oder 3"
 },
 {
   "id": "12Y05",
   "title": "Georg-Herwegh-Gymnasium",
   "address": "Fellbacher Str. 18-19",
   "zip": 13467,
   "type": "Gymnasium",
   "icon": "fa-building-o",
   "color": "orange",
   "costs": 7670000,
   "lat": 52.616834,
   "lng": 13.303382,
   "priority": "Priorität 2 oder 3"
 },
 {
   "id": "07Y08",
   "title": "Ulrich-von-Hutten-Gymnasium",
   "address": "Rehagener Str. 35-37",
   "zip": 12307,
   "type": "Gymnasium",
   "icon": "fa-building-o",
   "color": "blue",
   "costs": 630000,
   "lat": 52.38563,
   "lng": 13.40388,
   "priority": "unbekannte Priorität"
 },
 {
   "id": "12S02",
   "title": "Richard-Keller-Schule",
   "address": "Olafstr. 32-34",
   "zip": 13467,
   "type": "Förderschwerp.\"Lernen\"",
   "icon": "fa-building-o",
   "color": "blue",
   "costs": 2840000,
   "lat": 52.62034,
   "lng": 13.30794,
   "priority": "unbekannte Priorität"
 },
 {
   "id": "04G06",
   "title": "Wald-Grundschule",
   "address": "Waldschulallee 83-93",
   "zip": 14055,
   "type": "Grundschule",
   "icon": "fa-building-o",
   "color": "blue",
   "costs": 3850000,
   "lat": 52.50259,
   "lng": 13259,
   "priority": "unbekannte Priorität"
 },
 {
   "id": "11S08",
   "title": "Schule Am Breiten Luch",
   "address": "Am Breiten Luch 19",
   "zip": 13053,
   "type": "Grundschule",
   "icon": "fa-building-o",
   "color": "orange",
   "costs": 5430000,
   "lat": 52.5627,
   "lng": 13.5136,
   "priority": "Priorität 2 oder 3"
 },
 {
   "id": "07G29",
   "title": "Käthe-Kollwitz-Grundschule",
   "address": "Mellener Str. 38-42",
   "zip": 12307,
   "type": "Grundschule",
   "icon": "fa-building-o",
   "color": "blue",
   "costs": 2840000,
   "lat": 52.3862,
   "lng": 13.40487,
   "priority": "unbekannte Priorität"
 },
 {
   "id": "11K12",
   "title": "Paul-und-Charlotte-Kniese-Schule (Gemeinschaftsschule)",
   "address": "Erich-Kurz-Str. 6-10",
   "zip": 10319,
   "type": "Förderschwerp.\"Geistige Entwicklung\"",
   "icon": "fa-building-o",
   "color": "green",
   "costs": 0,
   "lat": 52.498846,
   "lng": 13.519748,
   "priority": "unbekannte Priorität"
 },
 {
   "id": "11S04",
   "title": "Paul-und-Charlotte-Kniese-Schule",
   "address": "Erich-Kurz-Str. 6-10",
   "zip": 10319,
   "type": "Übrige Förderschwerpunkte",
   "icon": "fa-building-o",
   "color": "blue",
   "costs": 1480000,
   "lat": 52.498846,
   "lng": 13.519748,
   "priority": "unbekannte Priorität"
 },
 {
   "id": "09K06",
   "title": "Hans-Grade-Schule (Integrierte Sekundarschule)",
   "address": "Heubergerweg 37",
   "zip": 12487,
   "type": "Integrierte Sekundarschule",
   "icon": "fa-building-o",
   "color": "green",
   "costs": 0,
   "lat": 52.444484,
   "lng": 13.499022,
   "priority": "unbekannte Priorität"
 },
 {
   "id": "11G22",
   "title": "Martin-Niemöller-Grundschule",
   "address": "Am Breiten Luch 5",
   "zip": 13053,
   "type": "Grundschule",
   "icon": "fa-building-o",
   "color": "blue",
   "costs": 4610000,
   "lat": 52.56339,
   "lng": 13.51209,
   "priority": "unbekannte Priorität"
 },
 {
   "id": "07G35",
   "title": "Nahariya-Grundschule",
   "address": "Nahariyastr. 13-17",
   "zip": 12309,
   "type": "Grundschule",
   "icon": "fa-building-o",
   "color": "blue",
   "costs": 570000,
   "lat": 52.39085,
   "lng": 13.41943,
   "priority": "unbekannte Priorität"
 },
 {
   "id": "09G21",
   "title": "Edison-Grundschule",
   "address": "Wattstr. 69-70",
   "zip": 12459,
   "type": "Grundschule",
   "icon": "fa-building-o",
   "color": "blue",
   "costs": 3360000,
   "lat": 52.46607,
   "lng": 13.50886,
   "priority": "unbekannte Priorität"
 },
 {
   "id": "12G22",
   "title": "Gustav-Dreyer-Grundschule",
   "address": "Freiherr-vom-Stein-Str. 31",
   "zip": 13467,
   "type": "Grundschule",
   "icon": "fa-building-o",
   "color": "orange",
   "costs": 6220000,
   "lat": 52.61309,
   "lng": 13.30379,
   "priority": "Höchste Priorität"
 },
 {
   "id": "03G23",
   "title": "Grundschule Alt-Karow",
   "address": "Bahnhofstr. 32",
   "zip": 13125,
   "type": "Grundschule",
   "icon": "fa-building-o",
   "color": "blue",
   "costs": 3270000,
   "lat": 52.609682,
   "lng": 13.479743,
   "priority": "unbekannte Priorität"
 },
 {
   "id": "12G13",
   "title": "Franz-Marc-Grundschule",
   "address": "Treskowstr. 26-31",
   "zip": 13507,
   "type": "Grundschule",
   "icon": "fa-building-o",
   "color": "orange",
   "costs": 7770000,
   "lat": 52.58822,
   "lng": 13.2828,
   "priority": "Priorität 2 oder 3"
 },
 {
   "id": "12K01",
   "title": "Julius-Leber-Schule",
   "address": "Treskowstr. 26-31",
   "zip": 13507,
   "type": "Integrierte Sekundarschule",
   "icon": "fa-building-o",
   "color": "green",
   "costs": 0,
   "lat": 52.58822,
   "lng": 13.2828,
   "priority": "unbekannte Priorität"
 },
 {
   "id": "04G05",
   "title": "Dietrich-Bonhoeffer-Grundschule",
   "address": "Spandauer Damm 205-215",
   "zip": 14050,
   "type": "Grundschule",
   "icon": "fa-building-o",
   "color": "blue",
   "costs": 1100000,
   "lat": 52.521371,
   "lng": 13.26202,
   "priority": "unbekannte Priorität"
 },
 {
   "id": "06G25",
   "title": "Clemens-Brentano-Grundschule",
   "address": "Kommandantenstr. 83-84",
   "zip": 12205,
   "type": "Grundschule",
   "icon": "fa-building-o",
   "color": "red",
   "costs": 10800000,
   "lat": 52.433511,
   "lng": 13.29316,
   "priority": "Höchste Priorität"
 },
 {
   "id": "04S04",
   "title": "Reinfelder-Schule",
   "address": "Maikäferpfad 30",
   "zip": 14055,
   "type": "Grundschule",
   "icon": "fa-building-o",
   "color": "orange",
   "costs": 6230000,
   "lat": 52.49693,
   "lng": 13.26373,
   "priority": "Priorität 2 oder 3"
 },
 {
   "id": "11K07",
   "title": "Vincent-van-Gogh-Schule (Integrierte Sekundarschule)",
   "address": "Wustrower Str. 26",
   "zip": 13051,
   "type": "Integrierte Sekundarschule",
   "icon": "fa-building-o",
   "color": "orange",
   "costs": 6790000,
   "lat": 52.5678,
   "lng": 13.50702,
   "priority": "Priorität 2 oder 3"
 },
 {
   "id": "06G30",
   "title": "Mercator-Grundschule",
   "address": "Mercatorweg 8-10",
   "zip": 12207,
   "type": "Grundschule",
   "icon": "fa-building-o",
   "color": "orange",
   "costs": 5860000,
   "lat": 52.41225,
   "lng": 13.317376,
   "priority": "Priorität 2 oder 3"
 },
 {
   "id": "11G25",
   "title": "Grundschule am Wäldchen",
   "address": "Wustrower Str. 28",
   "zip": 13051,
   "type": "Grundschule",
   "icon": "fa-building-o",
   "color": "blue",
   "costs": 1560000,
   "lat": 52.56846,
   "lng": 13.50628,
   "priority": "unbekannte Priorität"
 },
 {
   "id": "11G09",
   "title": "Bürgermeister-Ziethen-Grundschule",
   "address": "Massower Str. 39",
   "zip": 10315,
   "type": "Grundschule",
   "icon": "fa-building-o",
   "color": "blue",
   "costs": 2150000,
   "lat": 52.50818,
   "lng": 13.51665,
   "priority": "unbekannte Priorität"
 },
 {
   "id": "11K08",
   "title": "George-Orwell-Schule",
   "address": "Sewanstr. 223",
   "zip": 10319,
   "type": "Integrierte Sekundarschule",
   "icon": "fa-building-o",
   "color": "blue",
   "costs": 2610000,
   "lat": 52.496354,
   "lng": 13.514933,
   "priority": "unbekannte Priorität"
 },
 {
   "id": "08K02",
   "title": "Hermann-von-Helmholtz-Schule",
   "address": "Wutzkyallee 68",
   "zip": 12353,
   "type": "Integrierte Sekundarschule",
   "icon": "fa-building-o",
   "color": "red",
   "costs": 14400000,
   "lat": 52.421823,
   "lng": 13.472974,
   "priority": "Priorität 2 oder 3"
 },
 {
   "id": "07Y09",
   "title": "Georg-Büchner-Gymnasium",
   "address": "Lichtenrader Damm 224",
   "zip": 12305,
   "type": "Gymnasium",
   "icon": "fa-building-o",
   "color": "red",
   "costs": 13650000,
   "lat": 52.39186,
   "lng": 13.406604,
   "priority": "Höchste Priorität"
 },
 {
   "id": "04S05",
   "title": "Ernst-Adolf-Eschke-Schule für Gehörlose",
   "address": "Waldschulallee 29",
   "zip": 14055,
   "type": "Fachschule",
   "icon": "fa-building-o",
   "color": "blue",
   "costs": 650000,
   "lat": 52.4989,
   "lng": 13.26508,
   "priority": "unbekannte Priorität"
 },
 {
   "id": "11K01",
   "title": "Alexander-Puschkin-Schule",
   "address": "Massower Str. 37",
   "zip": 10315,
   "type": "Integrierte Sekundarschule",
   "icon": "fa-building-o",
   "color": "orange",
   "costs": 7250000,
   "lat": 52.50795,
   "lng": 13.51556,
   "priority": "Priorität 2 oder 3"
 },
 {
   "id": "12Y03",
   "title": "Humboldt-Gymnasium",
   "address": "Hatzfeldtallee 2-4",
   "zip": 13509,
   "type": "Gymnasium",
   "icon": "fa-building-o",
   "color": "red",
   "costs": 11560000,
   "lat": 52.59176,
   "lng": 13.28891,
   "priority": "Priorität 2 oder 3"
 },
 {
   "id": "06G18",
   "title": "Athene-Grundschule",
   "address": "Curtiusstr. 37",
   "zip": 12205,
   "type": "Grundschule",
   "icon": "fa-building-o",
   "color": "blue",
   "costs": 4500000,
   "lat": 52.440565,
   "lng": 13.290632,
   "priority": "unbekannte Priorität"
 },
 {
   "id": "05K07",
   "title": "Schule an der Jungfernheide (Integrierte Sekundarschule)",
   "address": "Lenther Steig 1-3",
   "zip": 13629,
   "type": "Integrierte Sekundarschule",
   "icon": "fa-building-o",
   "color": "blue",
   "costs": 1770000,
   "lat": 52.53843,
   "lng": 13.26697,
   "priority": "unbekannte Priorität"
 },
 {
   "id": "06Y03",
   "title": "Arndt-Gymnasium Dahlem",
   "address": "Königin-Luise-Str. 80-84",
   "zip": 14195,
   "type": "Gymnasium",
   "icon": "fa-building-o",
   "color": "green",
   "costs": 0,
   "lat": 52.45916,
   "lng": 13.28001,
   "priority": "unbekannte Priorität"
 },
 {
   "id": "11G11",
   "title": "Bernhard-Grzimek-Grundschule",
   "address": "Sewanstr. 184",
   "zip": 10319,
   "type": "Grundschule",
   "icon": "fa-building-o",
   "color": "blue",
   "costs": 4040000,
   "lat": 52.49572,
   "lng": 13.51176,
   "priority": "unbekannte Priorität"
 },
 {
   "id": "05Y04",
   "title": "Carl-Friedrich-von-Siemens-Gymnasium",
   "address": "Jungfernheideweg 79",
   "zip": 13629,
   "type": "Gymnasium",
   "icon": "fa-building-o",
   "color": "orange",
   "costs": 8450000,
   "lat": 52.54559,
   "lng": 13.26983,
   "priority": "Höchste Priorität"
 },
 {
   "id": "06G22",
   "title": "Giesensdorfer Grundschule",
   "address": "Ostpreußendamm 63",
   "zip": 12207,
   "type": "Grundschule",
   "icon": "fa-building-o",
   "color": "blue",
   "costs": 4500000,
   "lat": 52.422226,
   "lng": 13.31101,
   "priority": "unbekannte Priorität"
 },
 {
   "id": "08K13",
   "title": "Gemeinschaftsschule Campus Efeuweg",
   "address": "Efeuweg 34",
   "zip": 12357,
   "type": "Integrierte Sekundarschule",
   "icon": "fa-building-o",
   "color": "red",
   "costs": 15520000,
   "lat": 52.427206,
   "lng": 13.47409,
   "priority": "Priorität 2 oder 3"
 },
 {
   "id": "04Y06",
   "title": "Heinz-Berggruen-Gymnasium",
   "address": "Bayernallee 4",
   "zip": 14052,
   "type": "Gymnasium",
   "icon": "fa-building-o",
   "color": "blue",
   "costs": 2160000,
   "lat": 52.51103,
   "lng": 13.26722,
   "priority": "unbekannte Priorität"
 },
 {
   "id": "06G04",
   "title": "Erich-Kästner-Grundschule",
   "address": "Bachstelzenweg 2-8",
   "zip": 14195,
   "type": "Grundschule",
   "icon": "fa-building-o",
   "color": "blue",
   "costs": 3660000,
   "lat": 52.458141,
   "lng": 13.283199,
   "priority": "unbekannte Priorität"
 },
 {
   "id": "07K02",
   "title": "Carl-Zeiss-Schule",
   "address": "Barnetstr. 12-14",
   "zip": 12305,
   "type": "Integrierte Sekundarschule",
   "icon": "fa-building-o",
   "color": "blue",
   "costs": 3200000,
   "lat": 52.39571,
   "lng": 13.40258,
   "priority": "unbekannte Priorität"
 },
 {
   "id": "12G01",
   "title": "Havelmüller-Grundschule",
   "address": "Namslaustr. 49-57",
   "zip": 13507,
   "type": "Grundschule",
   "icon": "fa-building-o",
   "color": "blue",
   "costs": 4040000,
   "lat": 52.578512,
   "lng": 13.284936,
   "priority": "unbekannte Priorität"
 },
 {
   "id": "04G14",
   "title": "Reinhold-Otto-Grundschule",
   "address": "Leistikowstr. 7-8",
   "zip": 14050,
   "type": "Grundschule",
   "icon": "fa-building-o",
   "color": "orange",
   "costs": 5170000,
   "lat": 52.513329,
   "lng": 13.268399,
   "priority": "Priorität 2 oder 3"
 },
 {
   "id": "11K11",
   "title": "Paul-Schmidt-Schule (Integrierte Sekundarschule)",
   "address": "Malchower Weg 54",
   "zip": 13053,
   "type": "Integrierte Sekundarschule",
   "icon": "fa-building-o",
   "color": "blue",
   "costs": 4320000,
   "lat": 52.55475,
   "lng": 13.50438,
   "priority": "unbekannte Priorität"
 },
 {
   "id": "12G14",
   "title": "Alfred-Brehm-Grundschule",
   "address": "Ascheberger Weg 8A",
   "zip": 13507,
   "type": "Grundschule",
   "icon": "fa-building-o",
   "color": "blue",
   "costs": 3660000,
   "lat": 52.57359,
   "lng": 13.28368,
   "priority": "unbekannte Priorität"
 },
 {
   "id": "12G21",
   "title": "Grundschule am Fließtal",
   "address": "Seebadstr. 42-43",
   "zip": 13467,
   "type": "Grundschule",
   "icon": "fa-building-o",
   "color": "blue",
   "costs": 4120000,
   "lat": 52.61528,
   "lng": 13.32062,
   "priority": "unbekannte Priorität"
 },
 {
   "id": "06K09",
   "title": "Gail-S.-Halvorsen-Integrierte Sekundarschule",
   "address": "Im Gehege 6",
   "zip": 14195,
   "type": "Integrierte Sekundarschule",
   "icon": "fa-building-o",
   "color": "red",
   "costs": 12060000,
   "lat": 52.459454,
   "lng": 13.284371,
   "priority": "Höchste Priorität"
 },
 {
   "id": "07G26",
   "title": "Grundschule im Taunusviertel",
   "address": "Wiesbadener Str. 20",
   "zip": 12309,
   "type": "Grundschule",
   "icon": "fa-building-o",
   "color": "blue",
   "costs": 3640000,
   "lat": 52.40019,
   "lng": 13.41799,
   "priority": "unbekannte Priorität"
 },
 {
   "id": "07G30",
   "title": "Annedore-Leber-Grundschule",
   "address": "Halker Zeile 137-149",
   "zip": 12305,
   "type": "Grundschule",
   "icon": "fa-building-o",
   "color": "orange",
   "costs": 5190000,
   "lat": 52.39757,
   "lng": 13.40197,
   "priority": "Priorität 2 oder 3"
 },
 {
   "id": "11G10",
   "title": "Schule im Ostseekarree (Grundschule)",
   "address": "Barther Str. 27",
   "zip": 13051,
   "type": "Grundschule",
   "icon": "fa-building-o",
   "color": "blue",
   "costs": 1580000,
   "lat": 52.56409,
   "lng": 13.50024,
   "priority": "unbekannte Priorität"
 },
 {
   "id": "05G11",
   "title": "Robert-Reinick-Grundschule",
   "address": "Jungfernheideweg 33-48",
   "zip": 13629,
   "type": "Grundschule",
   "icon": "fa-building-o",
   "color": "blue",
   "costs": 4340000,
   "lat": 52.54065,
   "lng": 13.27277,
   "priority": "unbekannte Priorität"
 },
 {
   "id": "12Y04",
   "title": "Gabriele-von-Bülow-Gymnasium",
   "address": "Tile-Brügge-Weg 63",
   "zip": 13509,
   "type": "Gymnasium",
   "icon": "fa-building-o",
   "color": "orange",
   "costs": 8690000,
   "lat": 52.592148,
   "lng": 13.297061,
   "priority": "Priorität 2 oder 3"
 },
 {
   "id": "07K04",
   "title": "Theodor-Haubach-Schule",
   "address": "Grimmstr. 9-11",
   "zip": 12305,
   "type": "Integrierte Sekundarschule",
   "icon": "fa-building-o",
   "color": "red",
   "costs": 12660000,
   "lat": 52.398399,
   "lng": 13.403988,
   "priority": "Priorität 2 oder 3"
 },
 {
   "id": "11S05",
   "title": "Schule am grünen Grund",
   "address": "Herzbergstr. 79",
   "zip": 10365,
   "type": "Übrige Förderschwerpunkte",
   "icon": "fa-building-o",
   "color": "blue",
   "costs": 660000,
   "lat": 52.52822,
   "lng": 13.50858,
   "priority": "unbekannte Priorität"
 },
 {
   "id": "06G33",
   "title": "Friedrich-Drake-Schule",
   "address": "Drakestr. 80",
   "zip": 12205,
   "type": "Grundschule",
   "icon": "fa-building-o",
   "color": "blue",
   "costs": 1190000,
   "lat": 52.43254,
   "lng": 13.30621,
   "priority": "unbekannte Priorität"
 },
 {
   "id": "04Y08",
   "title": "Hildegard-Wegscheider-Gymnasium",
   "address": "Lassenstr. 16-20",
   "zip": 14193,
   "type": "Gymnasium",
   "icon": "fa-building-o",
   "color": "blue",
   "costs": 4390000,
   "lat": 52.485116,
   "lng": 13.275931,
   "priority": "unbekannte Priorität"
 },
 {
   "id": "07K03",
   "title": "Gustav-Heinemann-Schule",
   "address": "Waldsassener Str. 62",
   "zip": 12279,
   "type": "Integrierte Sekundarschule",
   "icon": "fa-building-o",
   "color": "blue",
   "costs": 3200000,
   "lat": 52.40662,
   "lng": 13.34754,
   "priority": "unbekannte Priorität"
 },
 {
   "id": "12G15",
   "title": "Hoffmann-von-Fallersleben-Grundschule",
   "address": "Ziekowstr. 80-88",
   "zip": 13509,
   "type": "Grundschule",
   "icon": "fa-building-o",
   "color": "blue",
   "costs": 4530000,
   "lat": 52.58744,
   "lng": 13.29515,
   "priority": "unbekannte Priorität"
 },
 {
   "id": "06Y11",
   "title": "Goethe-Gymnasium Lichterfelde",
   "address": "Drakestr. 72-75",
   "zip": 12205,
   "type": "Gymnasium",
   "icon": "fa-building-o",
   "color": "red",
   "costs": 10030000,
   "lat": 52.434929,
   "lng": 13.305363,
   "priority": "Höchste Priorität"
 },
 {
   "id": "11G31",
   "title": "Schmetterlings-Grundschule",
   "address": "Dolgenseestr. 60",
   "zip": 10319,
   "type": "Grundschule",
   "icon": "fa-building-o",
   "color": "green",
   "costs": 0,
   "lat": 52.49417,
   "lng": 13.50546,
   "priority": "unbekannte Priorität"
 },
 {
   "id": "12G19",
   "title": "Münchhausen-Grundschule",
   "address": "Artemisstr. 22-26",
   "zip": 13469,
   "type": "Grundschule",
   "icon": "fa-building-o",
   "color": "orange",
   "costs": 5570000,
   "lat": 52.60851,
   "lng": 13.31718,
   "priority": "Priorität 2 oder 3"
 },
 {
   "id": "08G31",
   "title": "Janusz-Korczak-Schule (Grundschule)",
   "address": "Wildhüterweg 5",
   "zip": 12353,
   "type": "Grundschule",
   "icon": "fa-building-o",
   "color": "orange",
   "costs": 8040000,
   "lat": 52.42179,
   "lng": 13.45659,
   "priority": "Priorität 2 oder 3"
 },
 {
   "id": "06K08",
   "title": "Max-von-Laue-Schule",
   "address": "Dürerstr. 27",
   "zip": 12203,
   "type": "Integrierte Sekundarschule",
   "icon": "fa-building-o",
   "color": "blue",
   "costs": 1100000,
   "lat": 52.43725,
   "lng": 13.305628,
   "priority": "unbekannte Priorität"
 },
 {
   "id": "08K01",
   "title": "Walter-Gropius-Schule (Gemeinschaftsschule)",
   "address": "Fritz-Erler-Allee 86",
   "zip": 12351,
   "type": "Integrierte Sekundarschule",
   "icon": "fa-building-o",
   "color": "red",
   "costs": 17000000,
   "lat": 52.42934,
   "lng": 13.46355,
   "priority": "Priorität 2 oder 3"
 },
 {
   "id": "11G23",
   "title": "Friedrichsfelder Grundschule",
   "address": "Lincolnstr. 67",
   "zip": 10315,
   "type": "Grundschule",
   "icon": "fa-building-o",
   "color": "blue",
   "costs": 3320000,
   "lat": 52503,
   "lng": 13.50355,
   "priority": "unbekannte Priorität"
 },
 {
   "id": "06G29",
   "title": "Grundschule am Karpfenteich",
   "address": "Hildburghauser Str. 135",
   "zip": 12209,
   "type": "Grundschule",
   "icon": "fa-building-o",
   "color": "blue",
   "costs": 4540000,
   "lat": 52.417401,
   "lng": 13.333982,
   "priority": "unbekannte Priorität"
 },
 {
   "id": "11G21",
   "title": "Schule Am Faulen See",
   "address": "Degnerstr. 71",
   "zip": 13053,
   "type": "Grundschule",
   "icon": "fa-building-o",
   "color": "blue",
   "costs": 1150000,
   "lat": 52.5521,
   "lng": 13.49837,
   "priority": "unbekannte Priorität"
 },
 {
   "id": "04G22",
   "title": "Grunewald-Grundschule",
   "address": "Delbrückstr. 20A",
   "zip": 14193,
   "type": "Grundschule",
   "icon": "fa-building-o",
   "color": "blue",
   "costs": 3890000,
   "lat": 52.484525,
   "lng": 13.281094,
   "priority": "unbekannte Priorität"
 },
 {
   "id": "08G16",
   "title": "Hugo-Heimann-Schule",
   "address": "Hugo-Heimann-Str. 20",
   "zip": 12353,
   "type": "Grundschule",
   "icon": "fa-building-o",
   "color": "orange",
   "costs": 5280000,
   "lat": 52.42538,
   "lng": 13.45705,
   "priority": "Priorität 2 oder 3"
 },
 {
   "id": "09G04",
   "title": "Sonnenblumen-Schule (Grundschule)",
   "address": "Radenzer Str. 16",
   "zip": 12437,
   "type": "Grundschule",
   "icon": "fa-building-o",
   "color": "blue",
   "costs": 1500000,
   "lat": 52.46163,
   "lng": 13.48872,
   "priority": "unbekannte Priorität"
 },
 {
   "id": "07G32",
   "title": "Bruno-H.-Bürgel-Grundschule",
   "address": "Rackebüller Weg 70",
   "zip": 12305,
   "type": "Grundschule",
   "icon": "fa-building-o",
   "color": "orange",
   "costs": 6710000,
   "lat": 52.404902,
   "lng": 13.402536,
   "priority": "Höchste Priorität"
 },
 {
   "id": "12G20",
   "title": "Grundschule am Vierrutenberg",
   "address": "Am Vierrutenberg 59-65",
   "zip": 13469,
   "type": "Grundschule",
   "icon": "fa-building-o",
   "color": "blue",
   "costs": 2970000,
   "lat": 52.617516,
   "lng": 13.339396,
   "priority": "unbekannte Priorität"
 },
 {
   "id": "11G17",
   "title": "Brodowin-Grundschule",
   "address": "Liebenwalder Str. 22",
   "zip": 13055,
   "type": "Grundschule",
   "icon": "fa-building-o",
   "color": "blue",
   "costs": 4950000,
   "lat": 52.53738,
   "lng": 13.50067,
   "priority": "unbekannte Priorität"
 },
 {
   "id": "06Y10",
   "title": "Lilienthal-Gymnasium",
   "address": "Ringstr. 2-3",
   "zip": 12203,
   "type": "Gymnasium",
   "icon": "fa-building-o",
   "color": "red",
   "costs": 10470000,
   "lat": 52.43595,
   "lng": 13.31215,
   "priority": "Höchste Priorität"
 },
 {
   "id": "06K06",
   "title": "Anna Essinger Gemeinschaftsschule",
   "address": "Tietzenweg 101",
   "zip": 12203,
   "type": "Integrierte Sekundarschule",
   "icon": "fa-building-o",
   "color": "orange",
   "costs": 7000000,
   "lat": 52.439089,
   "lng": 13.309116,
   "priority": "Höchste Priorität"
 },
 {
   "id": "12S06",
   "title": "Toulouse-Lautrec-Schule",
   "address": "Miraustr. 120-126",
   "zip": 13509,
   "type": "Übrige Förderschwerpunkte",
   "icon": "fa-building-o",
   "color": "orange",
   "costs": 8940000,
   "lat": 52.58901,
   "lng": 13.30389,
   "priority": "Höchste Priorität"
 },
 {
   "id": "06G26",
   "title": "Käthe-Kruse-Grundschule",
   "address": "Tietzenweg 108",
   "zip": 12203,
   "type": "Grundschule",
   "icon": "fa-building-o",
   "color": "blue",
   "costs": 3150000,
   "lat": 52.438186,
   "lng": 13.310138,
   "priority": "unbekannte Priorität"
 },
 {
   "id": "08G27",
   "title": "Oskar-Heinroth-Schule (Grundschule)",
   "address": "Rohrdommelweg 1",
   "zip": 12359,
   "type": "Grundschule",
   "icon": "fa-building-o",
   "color": "orange",
   "costs": 7950000,
   "lat": 52.44057,
   "lng": 13.47209,
   "priority": "Priorität 2 oder 3"
 },
 {
   "id": "06G24",
   "title": "Grundschule unter den Kastanien",
   "address": "Kastanienstr. 6 -8",
   "zip": 12209,
   "type": "Grundschule",
   "icon": "fa-building-o",
   "color": "orange",
   "costs": 5770000,
   "lat": 52.42546,
   "lng": 13.32527,
   "priority": "Höchste Priorität"
 },
 {
   "id": "07G34",
   "title": "Marienfelder Schule (Grundschule)",
   "address": "Erbendorfer Weg 13",
   "zip": 12279,
   "type": "Grundschule",
   "icon": "fa-building-o",
   "color": "orange",
   "costs": 8530000,
   "lat": 52.41209,
   "lng": 13.35184,
   "priority": "Höchste Priorität"
 },
 {
   "id": "04Y09",
   "title": "Walther-Rathenau-Gymnasium",
   "address": "Herbertstr. 2-6",
   "zip": 14193,
   "type": "Gymnasium",
   "icon": "fa-building-o",
   "color": "orange",
   "costs": 6370000,
   "lat": 52.49143,
   "lng": 13.28135,
   "priority": "Priorität 2 oder 3"
 },
 {
   "id": "11G08",
   "title": "Robinson-Grundschule",
   "address": "Wönnichstr. 7",
   "zip": 10317,
   "type": "Grundschule",
   "icon": "fa-building-o",
   "color": "blue",
   "costs": 2700000,
   "lat": 52.510047,
   "lng": 13.50046,
   "priority": "unbekannte Priorität"
 },
 {
   "id": "12G12",
   "title": "Borsigwalder Grundschule",
   "address": "Miraustr. 100",
   "zip": 13509,
   "type": "Grundschule",
   "icon": "fa-building-o",
   "color": "blue",
   "costs": 2840000,
   "lat": 52.58822,
   "lng": 13.30561,
   "priority": "unbekannte Priorität"
 },
 {
   "id": "04G24",
   "title": "Carl-Orff-Grundschule",
   "address": "Berkaer Str. 9-10",
   "zip": 14199,
   "type": "Grundschule",
   "icon": "fa-building-o",
   "color": "orange",
   "costs": 6910000,
   "lat": 52.47841,
   "lng": 13.28709,
   "priority": "Priorität 2 oder 3"
 },
 {
   "id": "12K06",
   "title": "Benjamin-Franklin-Schule (Integrierte Sekundarschule)",
   "address": "Sommerfelder Str. 5-7",
   "zip": 13509,
   "type": "Integrierte Sekundarschule",
   "icon": "fa-building-o",
   "color": "orange",
   "costs": 7170000,
   "lat": 52.581447,
   "lng": 13.300983,
   "priority": "Priorität 2 oder 3"
 },
 {
   "id": "08K04",
   "title": "Heinrich-Mann-Schule",
   "address": "Gerlinger Str. 22",
   "zip": 12353,
   "type": "Integrierte Sekundarschule",
   "icon": "fa-building-o",
   "color": "orange",
   "costs": 6880000,
   "lat": 52.41578,
   "lng": 13.43231,
   "priority": "Priorität 2 oder 3"
 },
 {
   "id": "08G34",
   "title": "Lisa-Tetzner-Schule (Grundschule)",
   "address": "Hasenhegerweg 12",
   "zip": 12353,
   "type": "Grundschule",
   "icon": "fa-building-o",
   "color": "orange",
   "costs": 7370000,
   "lat": 52.42254,
   "lng": 13.44504,
   "priority": "Priorität 2 oder 3"
 },
 {
   "id": "08S05",
   "title": "Schule am Hasenhegerweg",
   "address": "Hasenhegerweg 12",
   "zip": 12353,
   "type": "Förderschwerp.\"Lernen\"",
   "icon": "fa-building-o",
   "color": "green",
   "costs": 0,
   "lat": 52.42254,
   "lng": 13.44504,
   "priority": "Höchste Priorität"
 },
 {
   "id": "12Y07",
   "title": "Romain-Rolland-Gymnasium",
   "address": "Place Moliere 4",
   "zip": 13469,
   "type": "Gymnasium",
   "icon": "fa-building-o",
   "color": "red",
   "costs": 16370000,
   "lat": 52.598998,
   "lng": 13.317865,
   "priority": "Priorität 2 oder 3"
 },
 {
   "id": "12S01",
   "title": "Stötzner-Schule",
   "address": "Tietzstr. 26-28",
   "zip": 13509,
   "type": "Förderschwerp.\"Lernen\"",
   "icon": "fa-building-o",
   "color": "blue",
   "costs": 3470000,
   "lat": 52.584273,
   "lng": 13.304873,
   "priority": "unbekannte Priorität"
 },
 {
   "id": "11K09",
   "title": "Philipp-Reis-Schule (Integrierte Sekundarschule)",
   "address": "Werneuchener Str. 15",
   "zip": 13055,
   "type": "Integrierte Sekundarschule",
   "icon": "fa-building-o",
   "color": "orange",
   "costs": 5060000,
   "lat": 52.53952,
   "lng": 13.49572,
   "priority": "Priorität 2 oder 3"
 },
 {
   "id": "06G23",
   "title": "Kronach-Grundschule",
   "address": "Moltkestr. 24-26",
   "zip": 12203,
   "type": "Grundschule",
   "icon": "fa-building-o",
   "color": "orange",
   "costs": 8280000,
   "lat": 52.44167,
   "lng": 13.313098,
   "priority": "Höchste Priorität"
 },
 {
   "id": "12G28",
   "title": "Grundschule in den Rollbergen",
   "address": "Waldshuter Zeile 6",
   "zip": 13469,
   "type": "Grundschule",
   "icon": "fa-building-o",
   "color": "orange",
   "costs": 6230000,
   "lat": 52.609905,
   "lng": 13.335731,
   "priority": "Priorität 2 oder 3"
 },
 {
   "id": "06Y12",
   "title": "Willi-Graf-Gymnasium",
   "address": "Ostpreußendamm 166",
   "zip": 12207,
   "type": "Gymnasium",
   "icon": "fa-building-o",
   "color": "orange",
   "costs": 7300000,
   "lat": 52.43469,
   "lng": 13.32096,
   "priority": "Höchste Priorität"
 },
 {
   "id": "08Y05",
   "title": "Leonardo-da-Vinci-Gymnasium",
   "address": "Haewererweg 35",
   "zip": 12349,
   "type": "Gymnasium",
   "icon": "fa-building-o",
   "color": "blue",
   "costs": 1750000,
   "lat": 52.41623,
   "lng": 13.42658,
   "priority": "unbekannte Priorität"
 },
 {
   "id": "07G36",
   "title": "Grundschule am Dielingsgrund",
   "address": "Dielingsgrund 35",
   "zip": 12305,
   "type": "Grundschule",
   "icon": "fa-building-o",
   "color": "orange",
   "costs": 7040000,
   "lat": 52.41166,
   "lng": 13.40863,
   "priority": "Priorität 2 oder 3"
 },
 {
   "id": "08G22",
   "title": "Schule am Regenweiher (Grundschule)",
   "address": "Johannisthaler Chaussee 328",
   "zip": 12351,
   "type": "Grundschule",
   "icon": "fa-building-o",
   "color": "orange",
   "costs": 5490000,
   "lat": 52.42985,
   "lng": 13.45178,
   "priority": "Priorität 2 oder 3"
 },
 {
   "id": "09A05",
   "title": "Treptow-Kolleg",
   "address": "Kiefholzstr. 274",
   "zip": 12437,
   "type": "Volkshochschul-Kolleg",
   "icon": "fa-building-o",
   "color": "blue",
   "costs": 4170000,
   "lat": 52.46818,
   "lng": 13.48463,
   "priority": "unbekannte Priorität"
 },
 {
   "id": "09S06",
   "title": "6. Schule",
   "address": "Köpenicker Landstr. 185A",
   "zip": 12437,
   "type": "Grundschule",
   "icon": "fa-building-o",
   "color": "blue",
   "costs": 3240000,
   "lat": 52.473436,
   "lng": 13.48707,
   "priority": "unbekannte Priorität"
 },
 {
   "id": "08G26",
   "title": "Christoph-Ruden-Schule (Grundschule)",
   "address": "An den Achterhöfen 13",
   "zip": 12349,
   "type": "Grundschule",
   "icon": "fa-building-o",
   "color": "orange",
   "costs": 6530000,
   "lat": 52.421067,
   "lng": 13.435095,
   "priority": "Priorität 2 oder 3"
 },
 {
   "id": "07K05",
   "title": "Solling-Schule",
   "address": "Alt-Marienfelde 52",
   "zip": 12277,
   "type": "Integrierte Sekundarschule",
   "icon": "fa-building-o",
   "color": "red",
   "costs": 13740000,
   "lat": 52.41397,
   "lng": 13.36527,
   "priority": "Höchste Priorität"
 },
 {
   "id": "11Y10",
   "title": "Manfred-von-Ardenne-Gymnasium",
   "address": "Werneuchener Str. 27-28",
   "zip": 13055,
   "type": "Gymnasium",
   "icon": "fa-building-o",
   "color": "red",
   "costs": 10660000,
   "lat": 52.54188,
   "lng": 13.49242,
   "priority": "Priorität 2 oder 3"
 },
 {
   "id": "04G09",
   "title": "Erwin-von-Witzleben-Grundschule",
   "address": "Halemweg 34",
   "zip": 13627,
   "type": "Grundschule",
   "icon": "fa-building-o",
   "color": "blue",
   "costs": 2840000,
   "lat": 52.53967,
   "lng": 13.2873,
   "priority": "unbekannte Priorität"
 },
 {
   "id": "04G23",
   "title": "Alt-Schmargendorf-Grundschule",
   "address": "Reichenhaller Str. 8",
   "zip": 14199,
   "type": "Grundschule",
   "icon": "fa-building-o",
   "color": "red",
   "costs": 10810000,
   "lat": 52.477085,
   "lng": 13.293432,
   "priority": "Höchste Priorität"
 },
 {
   "id": "11G05",
   "title": "Grundschule auf dem lichten Berg",
   "address": "Atzpodienstr. 19",
   "zip": 10365,
   "type": "Grundschule",
   "icon": "fa-building-o",
   "color": "blue",
   "costs": 2080000,
   "lat": 52.51686,
   "lng": 13.49421,
   "priority": "unbekannte Priorität"
 },
 {
   "id": "11K10",
   "title": "Grüner Campus Malchow (Gemeinschaftsschule)",
   "address": "Malchower Chaussee 2",
   "zip": 13051,
   "type": "Integrierte Sekundarschule",
   "icon": "fa-building-o",
   "color": "red",
   "costs": 11830000,
   "lat": 52.569831,
   "lng": 13.479469,
   "priority": "Priorität 2 oder 3"
 },
 {
   "id": "06G27",
   "title": "Grundschule am Königsgraben",
   "address": "Gallwitzallee 136-144",
   "zip": 12249,
   "type": "Grundschule",
   "icon": "fa-building-o",
   "color": "blue",
   "costs": 4380000,
   "lat": 52.42303,
   "lng": 13.34815,
   "priority": "unbekannte Priorität"
 },
 {
   "id": "07G28",
   "title": "Kiepert-Grundschule",
   "address": "Prechtlstr. 21-23",
   "zip": 12277,
   "type": "Grundschule",
   "icon": "fa-building-o",
   "color": "orange",
   "costs": 9350000,
   "lat": 52.41591,
   "lng": 13.37327,
   "priority": "Priorität 2 oder 3"
 },
 {
   "id": "07S03",
   "title": "Steinwald-Schule",
   "address": "Hanielweg 7-9",
   "zip": 12277,
   "type": "Förderschwerp.\"Geistige Entwicklung\"",
   "icon": "fa-building-o",
   "color": "green",
   "costs": 0,
   "lat": 52.41783,
   "lng": 13.36458,
   "priority": "unbekannte Priorität"
 },
 {
   "id": "11G19",
   "title": "Obersee-Grundschule",
   "address": "Roedernstr. 69-72",
   "zip": 13053,
   "type": "Grundschule",
   "icon": "fa-building-o",
   "color": "green",
   "costs": 0,
   "lat": 52.543711,
   "lng": 13.488079,
   "priority": "unbekannte Priorität"
 },
 {
   "id": "08S07",
   "title": "Schule am Bienwaldring",
   "address": "Breitunger Weg 1",
   "zip": 12349,
   "type": "Förderschwerp.\"Geistige Entwicklung\"",
   "icon": "fa-building-o",
   "color": "orange",
   "costs": 6840000,
   "lat": 52.42178,
   "lng": 13.42537,
   "priority": "Priorität 2 oder 3"
 },
 {
   "id": "03G35",
   "title": "Platanengrundschule",
   "address": "Hauptstr. 20",
   "zip": 13159,
   "type": "Grundschule",
   "icon": "fa-building-o",
   "color": "blue",
   "costs": 1350000,
   "lat": 52.618258,
   "lng": 13.389549,
   "priority": "unbekannte Priorität"
 },
 {
   "id": "08G29",
   "title": "Wetzlar-Schule (Grundschule)",
   "address": "Tischlerzeile 34",
   "zip": 12351,
   "type": "Grundschule",
   "icon": "fa-building-o",
   "color": "orange",
   "costs": 5070000,
   "lat": 52.43092,
   "lng": 13.44294,
   "priority": "Priorität 2 oder 3"
 },
 {
   "id": "11Y11",
   "title": "Immanuel-Kant-Gymnasium",
   "address": "Lückstr. 63",
   "zip": 10317,
   "type": "Gymnasium",
   "icon": "fa-building-o",
   "color": "orange",
   "costs": 7240000,
   "lat": 52.501956,
   "lng": 13.489635,
   "priority": "Priorität 2 oder 3"
 },
 {
   "id": "09G03",
   "title": "Schule am Heidekampgraben (Grundschule)",
   "address": "Hänselstr. 14",
   "zip": 12437,
   "type": "Grundschule",
   "icon": "fa-building-o",
   "color": "blue",
   "costs": 1900000,
   "lat": 52.46872,
   "lng": 13.47837,
   "priority": "unbekannte Priorität"
 },
 {
   "id": "04K08",
   "title": "Peter-Ustinov-Schule",
   "address": "Kuno-Fischer-Str. 22-26",
   "zip": 14057,
   "type": "Integrierte Sekundarschule",
   "icon": "fa-building-o",
   "color": "blue",
   "costs": 2530000,
   "lat": 52.505241,
   "lng": 13.290548,
   "priority": "unbekannte Priorität"
 },
 {
   "id": "08S09",
   "title": "Schule an der Windmühle",
   "address": "Buckower Damm 176",
   "zip": 12349,
   "type": "Integrierte Sekundarschule",
   "icon": "fa-building-o",
   "color": "blue",
   "costs": 2530000,
   "lat": 52.42741,
   "lng": 13.43451,
   "priority": "unbekannte Priorität"
 },
 {
   "id": "04K07",
   "title": "Integrierte Sekundarschule Wilmersdorf",
   "address": "Kranzer Str. 3",
   "zip": 14199,
   "type": "Integrierte Sekundarschule",
   "icon": "fa-building-o",
   "color": "orange",
   "costs": 8520000,
   "lat": 52.482808,
   "lng": 13.296098,
   "priority": "Priorität 2 oder 3"
 },
 {
   "id": "08G30",
   "title": "Schule am Sandsteinweg (Grundschule)",
   "address": "Hornblendeweg 2",
   "zip": 12349,
   "type": "Grundschule",
   "icon": "fa-building-o",
   "color": "orange",
   "costs": 7650000,
   "lat": 52.41829,
   "lng": 13.40469,
   "priority": "Priorität 2 oder 3"
 },
 {
   "id": "06G16",
   "title": "Rothenburg-Grundschule",
   "address": "Rothenburgstr. 18",
   "zip": 12165,
   "type": "Grundschule",
   "icon": "fa-building-o",
   "color": "blue",
   "costs": 30000,
   "lat": 52.45398,
   "lng": 13.31302,
   "priority": "unbekannte Priorität"
 },
 {
   "id": "06Y09",
   "title": "Fichtenberg-Oberschule",
   "address": "Rothenburgstr. 18",
   "zip": 12165,
   "type": "Gymnasium",
   "icon": "fa-building-o",
   "color": "green",
   "costs": 0,
   "lat": 52.45398,
   "lng": 13.31302,
   "priority": "unbekannte Priorität"
 },
 {
   "id": "06G31",
   "title": "Grundschule an der Bäke",
   "address": "Haydnstr. 15",
   "zip": 12203,
   "type": "Grundschule",
   "icon": "fa-building-o",
   "color": "orange",
   "costs": 8200000,
   "lat": 52.447783,
   "lng": 13.318838,
   "priority": "Höchste Priorität"
 },
 {
   "id": "11K04",
   "title": "Gutenberg-Schule",
   "address": "Sandinostr. 10",
   "zip": 13055,
   "type": "Integrierte Sekundarschule",
   "icon": "fa-building-o",
   "color": "orange",
   "costs": 6250000,
   "lat": 52.53573,
   "lng": 13.48743,
   "priority": "Priorität 2 oder 3"
 },
 {
   "id": "06K04",
   "title": "Bröndby-Schule (Integrierte Sekundarschule)",
   "address": "Dessauerstr. 63",
   "zip": 12249,
   "type": "Integrierte Sekundarschule",
   "icon": "fa-building-o",
   "color": "red",
   "costs": 15120000,
   "lat": 52.428237,
   "lng": 13.345888,
   "priority": "Höchste Priorität"
 },
 {
   "id": "03G21",
   "title": "Grundschule unter den Bäumen",
   "address": "Alt-Blankenburg 26",
   "zip": 13129,
   "type": "Grundschule",
   "icon": "fa-building-o",
   "color": "blue",
   "costs": 2940000,
   "lat": 52.592262,
   "lng": 13.454422,
   "priority": "unbekannte Priorität"
 },
 {
   "id": "06G21",
   "title": "Paul-Schneider-Grundschule",
   "address": "Seydlitzstr. 30-34",
   "zip": 12249,
   "type": "Grundschule",
   "icon": "fa-building-o",
   "color": "orange",
   "costs": 5380000,
   "lat": 52.431002,
   "lng": 13.341243,
   "priority": "Priorität 2 oder 3"
 },
 {
   "id": "12G30",
   "title": "Reineke-Fuchs-Grundschule",
   "address": "Foxweg 15",
   "zip": 13403,
   "type": "Grundschule",
   "icon": "fa-building-o",
   "color": "orange",
   "costs": 6200000,
   "lat": 52574,
   "lng": 13.30985,
   "priority": "Priorität 2 oder 3"
 },
 {
   "id": "03G33",
   "title": "Jeanne-Barez-Schule (Grundschule)",
   "address": "Hauptstr. 66",
   "zip": 13127,
   "type": "Grundschule",
   "icon": "fa-building-o",
   "color": "blue",
   "costs": 1940000,
   "lat": 52.60417,
   "lng": 13.43415,
   "priority": "unbekannte Priorität"
 },
 {
   "id": "12S04",
   "title": "Schule am Park",
   "address": "Eichborndamm 276-284",
   "zip": 13437,
   "type": "Förderschwerp.\"Geistige Entwicklung\"",
   "icon": "fa-building-o",
   "color": "blue",
   "costs": 4700000,
   "lat": 52.594285,
   "lng": 13.330313,
   "priority": "unbekannte Priorität"
 },
 {
   "id": "03G40",
   "title": "Schule am Birkenhof",
   "address": "Arnouxstr. 18",
   "zip": 13127,
   "type": "Grundschule",
   "icon": "fa-building-o",
   "color": "blue",
   "costs": 1640000,
   "lat": 52.60791,
   "lng": 13.42388,
   "priority": "unbekannte Priorität"
 },
 {
   "id": "06S05",
   "title": "J.-A.-Zeune-Schule für Blinde und Berufsfachschule Dr. Silex",
   "address": "Rothenburgstr. 14",
   "zip": 12165,
   "type": "Berufsschule mit sonderpäd. Aufgaben",
   "icon": "fa-building-o",
   "color": "orange",
   "costs": 6230000,
   "lat": 52.455569,
   "lng": 13.315047,
   "priority": "Höchste Priorität"
 },
 {
   "id": "06Y06",
   "title": "Beethoven-Oberschule",
   "address": "Barbarastr. 9",
   "zip": 12249,
   "type": "Gymnasium",
   "icon": "fa-building-o",
   "color": "red",
   "costs": 14610000,
   "lat": 52.43293,
   "lng": 13.34283,
   "priority": "Höchste Priorität"
 },
 {
   "id": "08G35",
   "title": "Schule in der Köllnischen Heide (Grundschule)",
   "address": "Hänselstr. 6",
   "zip": 12057,
   "type": "Grundschule",
   "icon": "fa-building-o",
   "color": "orange",
   "costs": 6650000,
   "lat": 52.4666,
   "lng": 13.4721,
   "priority": "Höchste Priorität"
 },
 {
   "id": "11G07",
   "title": "Hermann-Gmeiner-Grundschule",
   "address": "Harnackstr. 17",
   "zip": 10365,
   "type": "Grundschule",
   "icon": "fa-building-o",
   "color": "green",
   "costs": 0,
   "lat": 52.5101,
   "lng": 13.48594,
   "priority": "unbekannte Priorität"
 },
 {
   "id": "08G13",
   "title": "Bruno-Taut-Schule (Grundschule)",
   "address": "Bruno-Taut-Ring 9C",
   "zip": 12359,
   "type": "Grundschule",
   "icon": "fa-building-o",
   "color": "blue",
   "costs": 4530000,
   "lat": 52.44095,
   "lng": 13.44886,
   "priority": "unbekannte Priorität"
 },
 {
   "id": "04G13",
   "title": "Nehring-Grundschule",
   "address": "Nehringstr. 9-10",
   "zip": 14059,
   "type": "Grundschule",
   "icon": "fa-building-o",
   "color": "red",
   "costs": 12330000,
   "lat": 52.514893,
   "lng": 13.293865,
   "priority": "Priorität 2 oder 3"
 },
 {
   "id": "12K12",
   "title": "Campus Hannah Höch (Gemeinschaftsschule)",
   "address": "Finsterwalder Str. 52-56",
   "zip": 13435,
   "type": "Integrierte Sekundarschule",
   "icon": "fa-building-o",
   "color": "red",
   "costs": 11180000,
   "lat": 52.60028,
   "lng": 13.34229,
   "priority": "Priorität 2 oder 3"
 },
 {
   "id": "11G18",
   "title": "Grundschule am Wilhelmsberg",
   "address": "Sandinostr. 8",
   "zip": 13055,
   "type": "Grundschule",
   "icon": "fa-building-o",
   "color": "blue",
   "costs": 4770000,
   "lat": 52.537206,
   "lng": 13.483664,
   "priority": "unbekannte Priorität"
 },
 {
   "id": "04G21",
   "title": "Halensee-Grundschule",
   "address": "Joachim-Friedrich-Str. 35-36",
   "zip": 10711,
   "type": "Grundschule",
   "icon": "fa-building-o",
   "color": "orange",
   "costs": 6620000,
   "lat": 52.49993,
   "lng": 13.2961,
   "priority": "Priorität 2 oder 3"
 },
 {
   "id": "04G02",
   "title": "Lietzensee-Grundschule",
   "address": "Witzlebenstr. 34",
   "zip": 14057,
   "type": "Grundschule",
   "icon": "fa-building-o",
   "color": "blue",
   "costs": 4350000,
   "lat": 52.5094,
   "lng": 13.29502,
   "priority": "unbekannte Priorität"
 },
 {
   "id": "03G20",
   "title": "Grundschule im Moselviertel",
   "address": "Brodenbacher Weg 31",
   "zip": 13088,
   "type": "Grundschule",
   "icon": "fa-building-o",
   "color": "blue",
   "costs": 2930000,
   "lat": 52.559028,
   "lng": 13.475454,
   "priority": "unbekannte Priorität"
 },
 {
   "id": "09K07",
   "title": "Sophie-Brahe-Schule (Gemeinschaftsschule)",
   "address": "Am Plänterwald 17-23",
   "zip": 12435,
   "type": "Integrierte Sekundarschule",
   "icon": "fa-building-o",
   "color": "orange",
   "costs": 5940000,
   "lat": 52.48171,
   "lng": 13.47804,
   "priority": "Priorität 2 oder 3"
 },
 {
   "id": "12K02",
   "title": "Bettina-von-Arnim-Schule",
   "address": "Senftenberger Ring 49",
   "zip": 13435,
   "type": "Integrierte Sekundarschule",
   "icon": "fa-building-o",
   "color": "red",
   "costs": 18520000,
   "lat": 52.60511,
   "lng": 13.35859,
   "priority": "Höchste Priorität"
 },
 {
   "id": "06Y07",
   "title": "Paulsen-Gymnasium",
   "address": "Gritznerstr. 57",
   "zip": 12163,
   "type": "Gymnasium",
   "icon": "fa-building-o",
   "color": "orange",
   "costs": 9530000,
   "lat": 52.46219,
   "lng": 13.314388,
   "priority": "Höchste Priorität"
 },
 {
   "id": "11G03",
   "title": "Grundschule im Gutspark",
   "address": "Josef-Orlopp-Str. 20",
   "zip": 10367,
   "type": "Grundschule",
   "icon": "fa-building-o",
   "color": "blue",
   "costs": 1580000,
   "lat": 52.52237,
   "lng": 13.48307,
   "priority": "unbekannte Priorität"
 },
 {
   "id": "12K03",
   "title": "Max-Beckmann-Schule (Integrierte Sekundarschule)",
   "address": "Auguste-Viktoria-Allee 37",
   "zip": 13403,
   "type": "Integrierte Sekundarschule",
   "icon": "fa-building-o",
   "color": "orange",
   "costs": 9370000,
   "lat": 52.57153,
   "lng": 13.31463,
   "priority": "Priorität 2 oder 3"
 },
 {
   "id": "11G02",
   "title": "Grundschule am Roederplatz",
   "address": "Bernhard-Bästlein-Str. 22",
   "zip": 10367,
   "type": "Grundschule",
   "icon": "fa-building-o",
   "color": "blue",
   "costs": 4900000,
   "lat": 52.52899,
   "lng": 13.48214,
   "priority": "unbekannte Priorität"
 },
 {
   "id": "12G33",
   "title": "Lauterbach-Grundschule",
   "address": "Senftenberger Ring 41",
   "zip": 13435,
   "type": "Grundschule",
   "icon": "fa-building-o",
   "color": "orange",
   "costs": 9550000,
   "lat": 52.603879,
   "lng": 13.359443,
   "priority": "Priorität 2 oder 3"
 },
 {
   "id": "12S03",
   "title": "Lauterbach-Schule",
   "address": "Senftenberger Ring 41",
   "zip": 13435,
   "type": "Übrige Förderschwerpunkte",
   "icon": "fa-building-o",
   "color": "blue",
   "costs": 750000,
   "lat": 52.603879,
   "lng": 13.359443,
   "priority": "unbekannte Priorität"
 },
 {
   "id": "08S08",
   "title": "Schilling-Schule",
   "address": "Paster-Behrens-Str. 81",
   "zip": 12359,
   "type": "Übrige Förderschwerpunkte",
   "icon": "fa-building-o",
   "color": "red",
   "costs": 11040000,
   "lat": 52.442637,
   "lng": 13.444198,
   "priority": "Priorität 2 oder 3"
 },
 {
   "id": "03G44",
   "title": "Georg-Zacharias-Grundschule",
   "address": "Sulzfelder Str. 15",
   "zip": 13088,
   "type": "Grundschule",
   "icon": "fa-building-o",
   "color": "blue",
   "costs": 1800000,
   "lat": 52.55219,
   "lng": 13.47502,
   "priority": "unbekannte Priorität"
 },
 {
   "id": "04K06",
   "title": "Schule am Schloss (Integrierte Sekundarschule)",
   "address": "Schloßstr. 55A",
   "zip": 14059,
   "type": "Integrierte Sekundarschule",
   "icon": "fa-building-o",
   "color": "red",
   "costs": 12530000,
   "lat": 52.5161,
   "lng": 13.29812,
   "priority": "Priorität 2 oder 3"
 },
 {
   "id": "11G16",
   "title": "Schule an der Victoriastadt",
   "address": "Nöldnerstr. 44",
   "zip": 10317,
   "type": "Grundschule",
   "icon": "fa-building-o",
   "color": "blue",
   "costs": 2450000,
   "lat": 52.50159,
   "lng": 13.48054,
   "priority": "unbekannte Priorität"
 },
 {
   "id": "04G11",
   "title": "Helmuth-James-von-Moltke-Grundschule",
   "address": "Heckerdamm 221",
   "zip": 13627,
   "type": "Grundschule",
   "icon": "fa-building-o",
   "color": "blue",
   "costs": 4440000,
   "lat": 52.53903,
   "lng": 13.30104,
   "priority": "unbekannte Priorität"
 },
 {
   "id": "12G10",
   "title": "Peter-Witte-Grundschule",
   "address": "Rathauspromenade 75",
   "zip": 13437,
   "type": "Grundschule",
   "icon": "fa-building-o",
   "color": "orange",
   "costs": 6200000,
   "lat": 52.5863,
   "lng": 13.33039,
   "priority": "Priorität 2 oder 3"
 },
 {
   "id": "11K02",
   "title": "Mildred-Harnack-Schule",
   "address": "Schulze-Boysen-Str. 12",
   "zip": 10365,
   "type": "Integrierte Sekundarschule",
   "icon": "fa-building-o",
   "color": "orange",
   "costs": 8280000,
   "lat": 52.511321,
   "lng": 13.481213,
   "priority": "Priorität 2 oder 3"
 },
 {
   "id": "04G12",
   "title": "Schinkel-Grundschule",
   "address": "Nithackstr. 8",
   "zip": 10585,
   "type": "Grundschule",
   "icon": "fa-building-o",
   "color": "orange",
   "costs": 7530000,
   "lat": 52.51782,
   "lng": 13.29876,
   "priority": "Priorität 2 oder 3"
 },
 {
   "id": "11S06",
   "title": "Selma-Lagerlöf-Schule",
   "address": "Bernhard-Bästlein-Str. 56",
   "zip": 10367,
   "type": "Übrige Förderschwerpunkte",
   "icon": "fa-building-o",
   "color": "orange",
   "costs": 5480000,
   "lat": 52.53183,
   "lng": 13.47998,
   "priority": "Priorität 2 oder 3"
 },
 {
   "id": "12K07",
   "title": "Jean-Krämer-Schule (Integrierte Sekundarschule) Wittenau",
   "address": "Alt-Wittenau 8-12",
   "zip": 13437,
   "type": "Integrierte Sekundarschule",
   "icon": "fa-building-o",
   "color": "red",
   "costs": 10670000,
   "lat": 52.58995,
   "lng": 13.33545,
   "priority": "Priorität 2 oder 3"
 },
 {
   "id": "12G27",
   "title": "Chamisso-Grundschule",
   "address": "Senftenberger Ring 27",
   "zip": 13435,
   "type": "Grundschule",
   "icon": "fa-building-o",
   "color": "orange",
   "costs": 5810000,
   "lat": 52.60169,
   "lng": 13.35807,
   "priority": "Priorität 2 oder 3"
 },
 {
   "id": "11K06",
   "title": "Schule am Rathaus",
   "address": "Rathausstr. 8",
   "zip": 10367,
   "type": "Integrierte Sekundarschule",
   "icon": "fa-building-o",
   "color": "blue",
   "costs": 3250000,
   "lat": 52.515892,
   "lng": 13.48038,
   "priority": "unbekannte Priorität"
 },
 {
   "id": "12Y08",
   "title": "Thomas-Mann-Gymnasium",
   "address": "Königshorster Str. 10",
   "zip": 13439,
   "type": "Gymnasium",
   "icon": "fa-building-o",
   "color": "red",
   "costs": 16100000,
   "lat": 52.59848,
   "lng": 13.35224,
   "priority": "Höchste Priorität"
 },
 {
   "id": "08K12",
   "title": "Kepler-Schule",
   "address": "Zwillingestr. 21",
   "zip": 12057,
   "type": "Integrierte Sekundarschule",
   "icon": "fa-building-o",
   "color": "blue",
   "costs": 4950000,
   "lat": 52.46737,
   "lng": 13.46477,
   "priority": "unbekannte Priorität"
 },
 {
   "id": "04G19",
   "title": "Grundschule am Rüdesheimer Platz",
   "address": "Rüdesheimer Str. 24-30",
   "zip": 14197,
   "type": "Grundschule",
   "icon": "fa-building-o",
   "color": "orange",
   "costs": 7900000,
   "lat": 52.47113,
   "lng": 13.31312,
   "priority": "Priorität 2 oder 3"
 },
 {
   "id": "02G11",
   "title": "Thalia-Grundschule",
   "address": "Alt-Stralau 34",
   "zip": 10245,
   "type": "Grundschule",
   "icon": "fa-building-o",
   "color": "blue",
   "costs": 650000,
   "lat": 52.492881,
   "lng": 13.476151,
   "priority": "unbekannte Priorität"
 },
 {
   "id": "08G20",
   "title": "Sonnen-Schule (Grundschule)",
   "address": "Dammweg 228",
   "zip": 12057,
   "type": "Grundschule",
   "icon": "fa-building-o",
   "color": "blue",
   "costs": 4060000,
   "lat": 52.47197,
   "lng": 13.46714,
   "priority": "unbekannte Priorität"
 },
 {
   "id": "04K05",
   "title": "Paula-Fürst-Schule (Gemeinschaftsschule)",
   "address": "Sybelstr. 20-21",
   "zip": 10629,
   "type": "Integrierte Sekundarschule",
   "icon": "fa-building-o",
   "color": "orange",
   "costs": 5350000,
   "lat": 52.50227,
   "lng": 13.30194,
   "priority": "Priorität 2 oder 3"
 },
 {
   "id": "06G20",
   "title": "Alt-Lankwitzer Grundschule",
   "address": "Schulstr. 17-21",
   "zip": 12247,
   "type": "Grundschule",
   "icon": "fa-building-o",
   "color": "blue",
   "costs": 4600000,
   "lat": 52.437023,
   "lng": 13.351096,
   "priority": "unbekannte Priorität"
 },
 {
   "id": "06S03",
   "title": "Peter-Frankenfeld-Schule",
   "address": "Wedellstr. 26",
   "zip": 12247,
   "type": "Förderschwerp.\"Geistige Entwicklung\"",
   "icon": "fa-building-o",
   "color": "blue",
   "costs": 2100000,
   "lat": 52.43515,
   "lng": 13.35522,
   "priority": "unbekannte Priorität"
 },
 {
   "id": "06G28",
   "title": "Ludwig-Bechstein-Grundschule",
   "address": "Halbauer Weg 25",
   "zip": 12249,
   "type": "Grundschule",
   "icon": "fa-building-o",
   "color": "orange",
   "costs": 5790000,
   "lat": 52.43255,
   "lng": 13.36236,
   "priority": "Priorität 2 oder 3"
 },
 {
   "id": "06G15",
   "title": "Dunant-Grundschule",
   "address": "Gritznerstr. 19-23",
   "zip": 12163,
   "type": "Grundschule",
   "icon": "fa-building-o",
   "color": "orange",
   "costs": 5880000,
   "lat": 52.46486,
   "lng": 13.31818,
   "priority": "Höchste Priorität"
 },
 {
   "id": "08Y03",
   "title": "Albert-Einstein-Gymnasium",
   "address": "Parchimer Allee 109",
   "zip": 12359,
   "type": "Gymnasium",
   "icon": "fa-building-o",
   "color": "red",
   "costs": 15780000,
   "lat": 52.44553,
   "lng": 13.44245,
   "priority": "Priorität 2 oder 3"
 },
 {
   "id": "04Y04",
   "title": "Gottfried-Keller-Gymnasium",
   "address": "Olbersstr. 38",
   "zip": 10589,
   "type": "Gymnasium",
   "icon": "fa-building-o",
   "color": "red",
   "costs": 13390000,
   "lat": 52.52888,
   "lng": 13.3022,
   "priority": "Priorität 2 oder 3"
 },
 {
   "id": "04K09",
   "title": "Otto-von-Guericke-Schule (Integrierte Sekundarschule)",
   "address": "Eisenzahnstr. 47-48",
   "zip": 10709,
   "type": "Integrierte Sekundarschule",
   "icon": "fa-building-o",
   "color": "red",
   "costs": 11540000,
   "lat": 52.49276,
   "lng": 13.30516,
   "priority": "Priorität 2 oder 3"
 },
 {
   "id": "06Y13",
   "title": "Gymnasium Steglitz",
   "address": "Heesestr. 15",
   "zip": 12169,
   "type": "Gymnasium",
   "icon": "fa-building-o",
   "color": "orange",
   "costs": 6690000,
   "lat": 52.45671,
   "lng": 13.32644,
   "priority": "Höchste Priorität"
 },
 {
   "id": "11S02",
   "title": "Schule am Fennpfuhl",
   "address": "Alfred-Jung-Str. 19",
   "zip": 10369,
   "type": "Förderschwerp.\"Lernen\"",
   "icon": "fa-building-o",
   "color": "blue",
   "costs": 4400000,
   "lat": 52.52392,
   "lng": 13.4769,
   "priority": "unbekannte Priorität"
 },
 {
   "id": "06K03",
   "title": "Kopernikus-Schule (Integrierte Sekundarschule)",
   "address": "Lepsiusstr. 24-28",
   "zip": 12163,
   "type": "Integrierte Sekundarschule",
   "icon": "fa-building-o",
   "color": "orange",
   "costs": 7190000,
   "lat": 52.4643,
   "lng": 13.32069,
   "priority": "Höchste Priorität"
 },
 {
   "id": "08K06",
   "title": "Fritz-Karsen-Schule (Gemeinschaftsschule)",
   "address": "Onkel-Bräsig-Str. 76-78",
   "zip": 12359,
   "type": "Integrierte Sekundarschule",
   "icon": "fa-building-o",
   "color": "red",
   "costs": 18380000,
   "lat": 52.44865,
   "lng": 13.44389,
   "priority": "Priorität 2 oder 3"
 },
 {
   "id": "04G08",
   "title": "Mierendorff-Grundschule",
   "address": "Mierendorffstr. 20-24",
   "zip": 10589,
   "type": "Grundschule",
   "icon": "fa-building-o",
   "color": "orange",
   "costs": 9500000,
   "lat": 52.523791,
   "lng": 13.303338,
   "priority": "Priorität 2 oder 3"
 },
 {
   "id": "04G20",
   "title": "Katharina-Heinroth-Grundschule",
   "address": "Münstersche Str. 15-17",
   "zip": 10709,
   "type": "Grundschule",
   "icon": "fa-building-o",
   "color": "orange",
   "costs": 8720000,
   "lat": 52494,
   "lng": 13.30619,
   "priority": "Priorität 2 oder 3"
 },
 {
   "id": "12G11",
   "title": "Ringelnatz-Grundschule",
   "address": "Wilhelm-Gericke-Str. 7",
   "zip": 13437,
   "type": "Grundschule",
   "icon": "fa-building-o",
   "color": "blue",
   "costs": 3840000,
   "lat": 52.5861,
   "lng": 13.33753,
   "priority": "unbekannte Priorität"
 },
 {
   "id": "12G09",
   "title": "Grundschule an der Peckwisch",
   "address": "Tornower Weg 26-34",
   "zip": 13439,
   "type": "Grundschule",
   "icon": "fa-building-o",
   "color": "blue",
   "costs": 4640000,
   "lat": 52.59299,
   "lng": 13.34869,
   "priority": "unbekannte Priorität"
 },
 {
   "id": "12G29",
   "title": "Hermann-Schulz-Grundschule",
   "address": "Kienhorststr. 67-79",
   "zip": 13403,
   "type": "Grundschule",
   "icon": "fa-building-o",
   "color": "orange",
   "costs": 7060000,
   "lat": 52.57359,
   "lng": 13.32554,
   "priority": "Priorität 2 oder 3"
 },
 {
   "id": "06Y08",
   "title": "Hermann-Ehlers-Oberschule",
   "address": "Elisenstr. 3-4",
   "zip": 12169,
   "type": "Gymnasium",
   "icon": "fa-building-o",
   "color": "red",
   "costs": 10150000,
   "lat": 52.45297,
   "lng": 13.33373,
   "priority": "Höchste Priorität"
 },
 {
   "id": "12G32",
   "title": "Charlie-Chaplin-Grundschule",
   "address": "Wilhelmsruher Damm 90-94",
   "zip": 13439,
   "type": "Grundschule",
   "icon": "fa-building-o",
   "color": "blue",
   "costs": 2840000,
   "lat": 52.59744,
   "lng": 13.36465,
   "priority": "unbekannte Priorität"
 },
 {
   "id": "06K10",
   "title": "Helene-Lange-Schule (Integrierte Sekundarschule)",
   "address": "Lauenburger Str. 110",
   "zip": 12169,
   "type": "Integrierte Sekundarschule",
   "icon": "fa-building-o",
   "color": "orange",
   "costs": 7550000,
   "lat": 52.4528,
   "lng": 13.33586,
   "priority": "Priorität 2 oder 3"
 },
 {
   "id": "11S12",
   "title": "Nils-Holgersson-Schule",
   "address": "Otto-Marquardt-Str. 12-14",
   "zip": 10369,
   "type": "Förderschwerp.\"Geistige Entwicklung\"",
   "icon": "fa-building-o",
   "color": "green",
   "costs": 0,
   "lat": 52.53405,
   "lng": 13.47214,
   "priority": "unbekannte Priorität"
 },
 {
   "id": "12G26",
   "title": "Märkische Grundschule",
   "address": "Dannenwalder Weg 163-165",
   "zip": 13439,
   "type": "Grundschule",
   "icon": "fa-building-o",
   "color": "blue",
   "costs": 4850000,
   "lat": 52.5952,
   "lng": 13.36016,
   "priority": "unbekannte Priorität"
 },
 {
   "id": "07G37",
   "title": "Ikarus-Grundschule",
   "address": "Körtingstr. 45",
   "zip": 12107,
   "type": "Grundschule",
   "icon": "fa-building-o",
   "color": "orange",
   "costs": 6900000,
   "lat": 52.43363,
   "lng": 13.38389,
   "priority": "Priorität 2 oder 3"
 },
 {
   "id": "08K03",
   "title": "Otto-Hahn-Schule",
   "address": "Buschkrugallee 63",
   "zip": 12359,
   "type": "Integrierte Sekundarschule",
   "icon": "fa-building-o",
   "color": "blue",
   "costs": 3240000,
   "lat": 52.45809,
   "lng": 13449,
   "priority": "unbekannte Priorität"
 },
 {
   "id": "11S07",
   "title": "Carl-von-Linné-Schule",
   "address": "Paul-Junius-Str. 15",
   "zip": 10367,
   "type": "Berufsschule mit sonderpäd. Aufgaben",
   "icon": "fa-building-o",
   "color": "blue",
   "costs": 1280000,
   "lat": 52.5217,
   "lng": 13.47301,
   "priority": "unbekannte Priorität"
 },
 {
   "id": "04S02",
   "title": "Arno-Fuchs-Schule",
   "address": "Richard-Wagner-Str. 30",
   "zip": 10585,
   "type": "Förderschwerp.\"Geistige Entwicklung\"",
   "icon": "fa-building-o",
   "color": "blue",
   "costs": 3840000,
   "lat": 52.51489,
   "lng": 13.30717,
   "priority": "unbekannte Priorität"
 },
 {
   "id": "07G17",
   "title": "Stechlinsee-Grundschule",
   "address": "Rheingaustr. 7",
   "zip": 12161,
   "type": "Grundschule",
   "icon": "fa-building-o",
   "color": "blue",
   "costs": 2800000,
   "lat": 52.46934,
   "lng": 13.32242,
   "priority": "unbekannte Priorität"
 },
 {
   "id": "06G32",
   "title": "Grundschule am Stadtpark Steglitz",
   "address": "Karl-Stieler-Str. 10-11",
   "zip": 12167,
   "type": "Grundschule",
   "icon": "fa-building-o",
   "color": "blue",
   "costs": 2760000,
   "lat": 52.449314,
   "lng": 13.34298,
   "priority": "unbekannte Priorität"
 },
 {
   "id": "08K11",
   "title": "Alfred-Nobel-Schule",
   "address": "Britzer Damm 164",
   "zip": 12347,
   "type": "Integrierte Sekundarschule",
   "icon": "fa-building-o",
   "color": "blue",
   "costs": 2190000,
   "lat": 52448,
   "lng": 13.43469,
   "priority": "unbekannte Priorität"
 },
 {
   "id": "07Y03",
   "title": "Rheingau-Gymnasium",
   "address": "Schwalbacher Str. 3-4",
   "zip": 12161,
   "type": "Gymnasium",
   "icon": "fa-building-o",
   "color": "red",
   "costs": 10360000,
   "lat": 52.470206,
   "lng": 13.322611,
   "priority": "Priorität 2 oder 3"
 },
 {
   "id": "02G08",
   "title": "Grundschule am Traveplatz",
   "address": "Jessnerstr. 24-32",
   "zip": 10247,
   "type": "Grundschule",
   "icon": "fa-building-o",
   "color": "blue",
   "costs": 3040000,
   "lat": 52.511492,
   "lng": 13.471855,
   "priority": "unbekannte Priorität"
 },
 {
   "id": "12G07",
   "title": "Mark-Twain-Grundschule",
   "address": "Auguste-Viktoria-Allee 95",
   "zip": 13403,
   "type": "Grundschule",
   "icon": "fa-building-o",
   "color": "blue",
   "costs": 4890000,
   "lat": 52.56864,
   "lng": 13.3264,
   "priority": "unbekannte Priorität"
 },
 {
   "id": "07Y04",
   "title": "Paul-Natorp-Gymnasium",
   "address": "Goßlerstr. 13-15",
   "zip": 12161,
   "type": "Gymnasium",
   "icon": "fa-building-o",
   "color": "green",
   "costs": 0,
   "lat": 52.46939,
   "lng": 13.32431,
   "priority": "unbekannte Priorität"
 },
 {
   "id": "02G04",
   "title": "Pettenkofer-Grundschule",
   "address": "Pettenkoferstr. 20-24",
   "zip": 10247,
   "type": "Grundschule",
   "icon": "fa-building-o",
   "color": "orange",
   "costs": 5070000,
   "lat": 52.518656,
   "lng": 13471,
   "priority": "Priorität 2 oder 3"
 },
 {
   "id": "04S06",
   "title": "Finkenkrug-Schule",
   "address": "Mannheimer Str. 21-22",
   "zip": 10713,
   "type": "Förderschwerp.\"Geistige Entwicklung\"",
   "icon": "fa-building-o",
   "color": "blue",
   "costs": 1780000,
   "lat": 52.48448,
   "lng": 13.31606,
   "priority": "unbekannte Priorität"
 },
 {
   "id": "07G16",
   "title": "Ruppin-Grundschule",
   "address": "Offenbacher Str. 5A",
   "zip": 14197,
   "type": "Grundschule",
   "icon": "fa-building-o",
   "color": "red",
   "costs": 12860000,
   "lat": 52.47538,
   "lng": 13.32137,
   "priority": "Höchste Priorität"
 },
 {
   "id": "04Y03",
   "title": "Sophie-Charlotte-Gymnasium",
   "address": "Sybelstr. 2",
   "zip": 10629,
   "type": "Gymnasium",
   "icon": "fa-building-o",
   "color": "orange",
   "costs": 7210000,
   "lat": 52.5023,
   "lng": 13.31237,
   "priority": "Priorität 2 oder 3"
 },
 {
   "id": "08G19",
   "title": "Herman-Nohl-Schule (Grundschule)",
   "address": "Hannemannstr. 69",
   "zip": 12347,
   "type": "Grundschule",
   "icon": "fa-building-o",
   "color": "blue",
   "costs": 1960000,
   "lat": 52.455159,
   "lng": 13.43894,
   "priority": "unbekannte Priorität"
 },
 {
   "id": "08S03",
   "title": "Herman-Nohl-Schule",
   "address": "Hannemannstr. 69",
   "zip": 12347,
   "type": "Förderschwerp.\"Lernen\"",
   "icon": "fa-building-o",
   "color": "green",
   "costs": 0,
   "lat": 52.455159,
   "lng": 13.43894,
   "priority": "unbekannte Priorität"
 },
 {
   "id": "07G27",
   "title": "Rudolf-Hildebrand-Grundschule",
   "address": "Friedenstr. 23-25",
   "zip": 12107,
   "type": "Grundschule",
   "icon": "fa-building-o",
   "color": "orange",
   "costs": 8980000,
   "lat": 52.43886,
   "lng": 13.3855,
   "priority": "Priorität 2 oder 3"
 },
 {
   "id": "02G34",
   "title": "34. Schule (Grundschule)",
   "address": "Scharnweberstr. 19",
   "zip": 10247,
   "type": "Grundschule",
   "icon": "fa-building-o",
   "color": "blue",
   "costs": 270000,
   "lat": 52.51279,
   "lng": 13.46783,
   "priority": "unbekannte Priorität"
 },
 {
   "id": "11G01",
   "title": "Sonnenuhr-Grundschule",
   "address": "Franz-Jacob-Str. 33",
   "zip": 10369,
   "type": "Grundschule",
   "icon": "fa-building-o",
   "color": "blue",
   "costs": 3670000,
   "lat": 52.52933,
   "lng": 13.46695,
   "priority": "unbekannte Priorität"
 },
 {
   "id": "11Y02",
   "title": "Johann-Gottfried-Herder-Gymnasium",
   "address": "Franz-Jacob-Str. 8",
   "zip": 10369,
   "type": "Gymnasium",
   "icon": "fa-building-o",
   "color": "blue",
   "costs": 1480000,
   "lat": 52.52671,
   "lng": 13.467245,
   "priority": "unbekannte Priorität"
 },
 {
   "id": "06G14",
   "title": "Sachsenwald-Grundschule",
   "address": "Sachsenwaldstr. 20-21",
   "zip": 12157,
   "type": "Grundschule",
   "icon": "fa-building-o",
   "color": "blue",
   "costs": 3490000,
   "lat": 52.46151,
   "lng": 13.3354,
   "priority": "unbekannte Priorität"
 },
 {
   "id": "04Y07",
   "title": "Friedrich-Ebert-Gymnasium",
   "address": "Blissestr. 22",
   "zip": 10713,
   "type": "Gymnasium",
   "icon": "fa-building-o",
   "color": "orange",
   "costs": 8430000,
   "lat": 52.484621,
   "lng": 13.319289,
   "priority": "Höchste Priorität"
 },
 {
   "id": "03G43",
   "title": "Grundschule Wilhelmsruh",
   "address": "Lessingstr. 44",
   "zip": 13158,
   "type": "Grundschule",
   "icon": "fa-building-o",
   "color": "blue",
   "costs": 2100000,
   "lat": 52.5903,
   "lng": 13.36421,
   "priority": "unbekannte Priorität"
 },
 {
   "id": "04G01",
   "title": "Eichendorff-Grundschule",
   "address": "Goethestr. 19",
   "zip": 10625,
   "type": "Grundschule",
   "icon": "fa-building-o",
   "color": "blue",
   "costs": 4660000,
   "lat": 52.50921,
   "lng": 13.31305,
   "priority": "Priorität 2 oder 3"
 },
 {
   "id": "04S07",
   "title": "Comenius-Schule",
   "address": "Gieselerstr. 4",
   "zip": 10713,
   "type": "Grundschule",
   "icon": "fa-building-o",
   "color": "red",
   "costs": 11020000,
   "lat": 52.48869,
   "lng": 13.3181,
   "priority": "Priorität 2 oder 3"
 },
 {
   "id": "03G17",
   "title": "Grundschule am Weißen See",
   "address": "Amalienstr. 6",
   "zip": 13086,
   "type": "Grundschule",
   "icon": "fa-building-o",
   "color": "orange",
   "costs": 8790000,
   "lat": 52.555294,
   "lng": 13.457004,
   "priority": "Höchste Priorität"
 },
 {
   "id": "04G26",
   "title": "Birger-Forell-Grundschule",
   "address": "Koblenzer Str. 22-24",
   "zip": 10715,
   "type": "Grundschule",
   "icon": "fa-building-o",
   "color": "orange",
   "costs": 5660000,
   "lat": 52.480726,
   "lng": 13.321893,
   "priority": "Priorität 2 oder 3"
 },
 {
   "id": "08G24",
   "title": "Schule am Teltowkanal (Grundschule)",
   "address": "Rungiusstr. 46",
   "zip": 12347,
   "type": "Grundschule",
   "icon": "fa-building-o",
   "color": "blue",
   "costs": 3370000,
   "lat": 52.45925,
   "lng": 13.44063,
   "priority": "unbekannte Priorität"
 },
 {
   "id": "03G28",
   "title": "Grundschule im Hasengrund",
   "address": "Charlottenstr. 19",
   "zip": 13156,
   "type": "Grundschule",
   "icon": "fa-building-o",
   "color": "green",
   "costs": 0,
   "lat": 52.59089,
   "lng": 13.410577,
   "priority": "unbekannte Priorität"
 },
 {
   "id": "06G17",
   "title": "Grundschule am Insulaner",
   "address": "Hanstedter Weg 11-15",
   "zip": 12169,
   "type": "Grundschule",
   "icon": "fa-building-o",
   "color": "blue",
   "costs": 4430000,
   "lat": 52.45185,
   "lng": 13.34956,
   "priority": "unbekannte Priorität"
 },
 {
   "id": "03G18",
   "title": "Picasso-Grundschule",
   "address": "Gounodstr. 71",
   "zip": 13088,
   "type": "Grundschule",
   "icon": "fa-building-o",
   "color": "blue",
   "costs": 3460000,
   "lat": 52.547032,
   "lng": 13.460359,
   "priority": "unbekannte Priorität"
 },
 {
   "id": "02G09",
   "title": "Zille-Grundschule",
   "address": "Boxhagener Str. 46",
   "zip": 10245,
   "type": "Grundschule",
   "icon": "fa-building-o",
   "color": "blue",
   "costs": 1180000,
   "lat": 52.50898,
   "lng": 13.4653,
   "priority": "unbekannte Priorität"
 },
 {
   "id": "03G13",
   "title": "Rudolf-Dörrier-Grundschule",
   "address": "Kastanienallee 59",
   "zip": 13158,
   "type": "Grundschule",
   "icon": "fa-building-o",
   "color": "blue",
   "costs": 4910000,
   "lat": 52.59125,
   "lng": 13.37612,
   "priority": "unbekannte Priorität"
 },
 {
   "id": "07G31",
   "title": "Carl-Sonnenschein-Grundschule",
   "address": "Am Hellespont 4-6",
   "zip": 12109,
   "type": "Grundschule",
   "icon": "fa-building-o",
   "color": "blue",
   "costs": 710000,
   "lat": 52.443699,
   "lng": 13.408152,
   "priority": "unbekannte Priorität"
 },
 {
   "id": "07G15",
   "title": "Fläming-Grundschule",
   "address": "Illstr. 4-6",
   "zip": 12161,
   "type": "Grundschule",
   "icon": "fa-building-o",
   "color": "orange",
   "costs": 7250000,
   "lat": 52.46839,
   "lng": 13.3329,
   "priority": "Höchste Priorität"
 },
 {
   "id": "04Y10",
   "title": "Marie-Curie-Gymnasium",
   "address": "Weimarische Str. 21",
   "zip": 10715,
   "type": "Gymnasium",
   "icon": "fa-building-o",
   "color": "orange",
   "costs": 5050000,
   "lat": 52.480119,
   "lng": 13.324748,
   "priority": "Priorität 2 oder 3"
 },
 {
   "id": "04G07",
   "title": "Ludwig-Cauer-Grundschule",
   "address": "Cauerstr. 36-38",
   "zip": 10587,
   "type": "Grundschule",
   "icon": "fa-building-o",
   "color": "orange",
   "costs": 6920000,
   "lat": 52.515043,
   "lng": 13.315123,
   "priority": "Priorität 2 oder 3"
 },
 {
   "id": "04K03",
   "title": "Robert-Jungk-Schule",
   "address": "Sächsische Str. 58",
   "zip": 10707,
   "type": "Integrierte Sekundarschule",
   "icon": "fa-building-o",
   "color": "blue",
   "costs": 3200000,
   "lat": 52.49448,
   "lng": 13.31872,
   "priority": "unbekannte Priorität"
 },
 {
   "id": "07K07",
   "title": "Johanna-Eck-Schule (Integrierte Sekundarschule)",
   "address": "Ringstr. 103-106",
   "zip": 12105,
   "type": "Integrierte Sekundarschule",
   "icon": "fa-building-o",
   "color": "red",
   "costs": 13340000,
   "lat": 52.44692,
   "lng": 13.36411,
   "priority": "Höchste Priorität"
 },
 {
   "id": "04G17",
   "title": "Johann-Peter-Hebel-Grundschule",
   "address": "Emser Str. 50",
   "zip": 10719,
   "type": "Grundschule",
   "icon": "fa-building-o",
   "color": "orange",
   "costs": 5890000,
   "lat": 52.49541,
   "lng": 13.31942,
   "priority": "Priorität 2 oder 3"
 },
 {
   "id": "08G36",
   "title": "Löwenzahn-Schule (Grundschule)",
   "address": "Drorystr. 3",
   "zip": 12055,
   "type": "Grundschule",
   "icon": "fa-building-o",
   "color": "blue",
   "costs": 4860000,
   "lat": 52.472499,
   "lng": 13.448771,
   "priority": "unbekannte Priorität"
 },
 {
   "id": "12G04",
   "title": "Till-Eulenspiegel-Grundschule",
   "address": "Humboldtstr. 8-13",
   "zip": 13407,
   "type": "Grundschule",
   "icon": "fa-building-o",
   "color": "orange",
   "costs": 5530000,
   "lat": 52.5732,
   "lng": 13.3423,
   "priority": "Priorität 2 oder 3"
 },
 {
   "id": "01K04",
   "title": "Heinrich-von-Stephan-Schule (Gemeinschaftsschule)",
   "address": "Neues Ufer 6",
   "zip": 10553,
   "type": "Integrierte Sekundarschule",
   "icon": "fa-building-o",
   "color": "orange",
   "costs": 6980000,
   "lat": 52.524775,
   "lng": 13.316714,
   "priority": "Priorität 2 oder 3"
 },
 {
   "id": "04Y11",
   "title": "Goethe-Gymnasium",
   "address": "Gasteiner Str. 23",
   "zip": 10717,
   "type": "Gymnasium",
   "icon": "fa-building-o",
   "color": "orange",
   "costs": 7130000,
   "lat": 52.48759,
   "lng": 13.3225,
   "priority": "Priorität 2 oder 3"
 },
 {
   "id": "08G23",
   "title": "Zürich-Schule (Grundschule)",
   "address": "Wederstr. 49",
   "zip": 12347,
   "type": "Grundschule",
   "icon": "fa-building-o",
   "color": "blue",
   "costs": 1900000,
   "lat": 52.462585,
   "lng": 13.439533,
   "priority": "unbekannte Priorität"
 },
 {
   "id": "08S01",
   "title": "Adolf-Reichwein-Schule",
   "address": "Sonnenallee 188",
   "zip": 12059,
   "type": "Förderschwerp.\"Lernen\"",
   "icon": "fa-building-o",
   "color": "orange",
   "costs": 5350000,
   "lat": 52.475733,
   "lng": 13.450826,
   "priority": "Priorität 2 oder 3"
 },
 {
   "id": "02Y03",
   "title": "Heinrich-Hertz-Oberschule",
   "address": "Rigaer Str. 81-82",
   "zip": 10247,
   "type": "Gymnasium",
   "icon": "fa-building-o",
   "color": "orange",
   "costs": 7780000,
   "lat": 52.51695,
   "lng": 13.46306,
   "priority": "Höchste Priorität"
 },
 {
   "id": "09G30",
   "title": "Kiefholz-Grundschule",
   "address": "Kiefholzstr. 45",
   "zip": 12435,
   "type": "Grundschule",
   "icon": "fa-building-o",
   "color": "blue",
   "costs": 950000,
   "lat": 52.48626,
   "lng": 13.45609,
   "priority": "unbekannte Priorität"
 },
 {
   "id": "07Y07",
   "title": "Eckener-Gymnasium",
   "address": "Kaiserstr. 17-21",
   "zip": 12105,
   "type": "Gymnasium",
   "icon": "fa-building-o",
   "color": "orange",
   "costs": 9540000,
   "lat": 52.4451,
   "lng": 13.38052,
   "priority": "Höchste Priorität"
 },
 {
   "id": "03Y14",
   "title": "Primo-Levi-Gymnasium",
   "address": "Pistoriusstr. 133",
   "zip": 13086,
   "type": "Gymnasium",
   "icon": "fa-building-o",
   "color": "red",
   "costs": 19850000,
   "lat": 52.5516,
   "lng": 13.45369,
   "priority": "Höchste Priorität"
 },
 {
   "id": "08G18",
   "title": "Eduard-Mörike-Schule (Grundschule)",
   "address": "Stuttgarter Str. 35-39",
   "zip": 12059,
   "type": "Grundschule",
   "icon": "fa-building-o",
   "color": "orange",
   "costs": 7930000,
   "lat": 52.477969,
   "lng": 13.450143,
   "priority": "Priorität 2 oder 3"
 },
 {
   "id": "03G36",
   "title": "Elisabeth-Christinen-Grundschule",
   "address": "Lindenberger Str. 12",
   "zip": 13156,
   "type": "Grundschule",
   "icon": "fa-building-o",
   "color": "orange",
   "costs": 7650000,
   "lat": 52.58294,
   "lng": 13.41741,
   "priority": "Höchste Priorität"
 },
 {
   "id": "04G04",
   "title": "Joan-Miró-Grundschule",
   "address": "Bleibtreustr. 43",
   "zip": 10623,
   "type": "Grundschule",
   "icon": "fa-building-o",
   "color": "orange",
   "costs": 8030000,
   "lat": 52.50357,
   "lng": 13.32014,
   "priority": "Priorität 2 oder 3"
 },
 {
   "id": "02G10",
   "title": "Modersohn-Grundschule",
   "address": "Niemannstr. 3",
   "zip": 10245,
   "type": "Grundschule",
   "icon": "fa-building-o",
   "color": "blue",
   "costs": 510000,
   "lat": 52.50705,
   "lng": 13.46024,
   "priority": "unbekannte Priorität"
 },
 {
   "id": "03K08",
   "title": "Hagenbeck-Schule",
   "address": "Gustav-Adolf-Str. 60",
   "zip": 13086,
   "type": "Integrierte Sekundarschule",
   "icon": "fa-building-o",
   "color": "orange",
   "costs": 5080000,
   "lat": 52.55879,
   "lng": 13.44729,
   "priority": "Priorität 2 oder 3"
 },
 {
   "id": "03G38",
   "title": "Grundschule im Blumenviertel",
   "address": "Syringenplatz 30",
   "zip": 10407,
   "type": "Grundschule",
   "icon": "fa-building-o",
   "color": "blue",
   "costs": 3720000,
   "lat": 52.535141,
   "lng": 13.458074,
   "priority": "unbekannte Priorität"
 },
 {
   "id": "03K03",
   "title": "Konrad-Duden-Schule (Integrierte Sekundarschule)",
   "address": "Rolandstr. 35",
   "zip": 13156,
   "type": "Integrierte Sekundarschule",
   "icon": "fa-building-o",
   "color": "blue",
   "costs": 1880000,
   "lat": 52.58183,
   "lng": 13.41744,
   "priority": "unbekannte Priorität"
 },
 {
   "id": "08G03",
   "title": "Hans-Fallada-Schule (Grundschule)",
   "address": "Harzer Str. 73",
   "zip": 12059,
   "type": "Grundschule",
   "icon": "fa-building-o",
   "color": "orange",
   "costs": 7860000,
   "lat": 52.483564,
   "lng": 13.451851,
   "priority": "Priorität 2 oder 3"
 },
 {
   "id": "08S06",
   "title": "Hans-Fallada-Schule",
   "address": "Harzer Str. 73-74",
   "zip": 12059,
   "type": "Förderschwerp.\"Lernen\"",
   "icon": "fa-building-o",
   "color": "green",
   "costs": 0,
   "lat": 52.483564,
   "lng": 13.451851,
   "priority": "unbekannte Priorität"
 },
 {
   "id": "07G25",
   "title": "Ludwig-Heck-Grundschule",
   "address": "Königstr. 32",
   "zip": 12105,
   "type": "Grundschule",
   "icon": "fa-building-o",
   "color": "orange",
   "costs": 7430000,
   "lat": 52.447125,
   "lng": 13.383928,
   "priority": "Priorität 2 oder 3"
 },
 {
   "id": "07K10",
   "title": "Friedrich-Bergius-Schule",
   "address": "Perelsplatz 6-9",
   "zip": 12159,
   "type": "Integrierte Sekundarschule",
   "icon": "fa-building-o",
   "color": "orange",
   "costs": 8750000,
   "lat": 52.47618,
   "lng": 13.33314,
   "priority": "Höchste Priorität"
 },
 {
   "id": "04K02",
   "title": "Friedensburg-Schule",
   "address": "Goethestr. 8-9",
   "zip": 10623,
   "type": "Integrierte Sekundarschule",
   "icon": "fa-building-o",
   "color": "red",
   "costs": 12860000,
   "lat": 52.50908,
   "lng": 13.32082,
   "priority": "Priorität 2 oder 3"
 },
 {
   "id": "08G17",
   "title": "Richard-Schule (Grundschule)",
   "address": "Richardplatz 14",
   "zip": 12055,
   "type": "Grundschule",
   "icon": "fa-building-o",
   "color": "blue",
   "costs": 3070000,
   "lat": 52.47359,
   "lng": 13.44439,
   "priority": "unbekannte Priorität"
 },
 {
   "id": "07G23",
   "title": "Schätzelberg-Grundschule",
   "address": "Wolfsburger Weg 13-19",
   "zip": 12109,
   "type": "Grundschule",
   "icon": "fa-building-o",
   "color": "orange",
   "costs": 5840000,
   "lat": 52.4487,
   "lng": 13.40066,
   "priority": "Höchste Priorität"
 },
 {
   "id": "02K06",
   "title": "Emanuel-Lasker-Schule",
   "address": "Modersohnstr. 53",
   "zip": 10245,
   "type": "Integrierte Sekundarschule",
   "icon": "fa-building-o",
   "color": "blue",
   "costs": 2220000,
   "lat": 52.50277,
   "lng": 13.45729,
   "priority": "unbekannte Priorität"
 },
 {
   "id": "04Y01",
   "title": "Schiller-Gymnasium",
   "address": "Schillerstr. 125-127",
   "zip": 10625,
   "type": "Gymnasium",
   "icon": "fa-building-o",
   "color": "red",
   "costs": 11340000,
   "lat": 52.50993,
   "lng": 13.321596,
   "priority": "Höchste Priorität"
 },
 {
   "id": "08Y01",
   "title": "Albrecht-Dürer-Gymnasium",
   "address": "Emser Str. 132-137",
   "zip": 12051,
   "type": "Gymnasium",
   "icon": "fa-building-o",
   "color": "blue",
   "costs": 1830000,
   "lat": 52.46947,
   "lng": 13.43907,
   "priority": "unbekannte Priorität"
 },
 {
   "id": "01G40",
   "title": "Möwensee-Grundschule",
   "address": "Afrikanische Str. 123-125",
   "zip": 13351,
   "type": "Grundschule",
   "icon": "fa-building-o",
   "color": "orange",
   "costs": 6620000,
   "lat": 52.55575,
   "lng": 13.33375,
   "priority": "Höchste Priorität"
 },
 {
   "id": "03Y15",
   "title": "Max-Delbrück-Gymnasium",
   "address": "Kuckhoffstr. 2-22",
   "zip": 13156,
   "type": "Gymnasium",
   "icon": "fa-building-o",
   "color": "orange",
   "costs": 8200000,
   "lat": 52.583884,
   "lng": 13.402118,
   "priority": "Höchste Priorität"
 },
 {
   "id": "02G03",
   "title": "Justus-von-Liebig-Grundschule",
   "address": "Liebigstr. 18A",
   "zip": 10247,
   "type": "Grundschule",
   "icon": "fa-building-o",
   "color": "orange",
   "costs": 5430000,
   "lat": 52.518699,
   "lng": 13.457697,
   "priority": "Priorität 2 oder 3"
 },
 {
   "id": "03S08",
   "title": "Panke-Schule",
   "address": "Galenusstr. 64",
   "zip": 13187,
   "type": "Förderschwerp.\"Geistige Entwicklung\"",
   "icon": "fa-building-o",
   "color": "green",
   "costs": 0,
   "lat": 52.57877,
   "lng": 13.41699,
   "priority": "unbekannte Priorität"
 },
 {
   "id": "03G22",
   "title": "Grundschule am Wasserturm",
   "address": "Tino-Schwierzina-Str. 66",
   "zip": 13089,
   "type": "Grundschule",
   "icon": "fa-building-o",
   "color": "green",
   "costs": 0,
   "lat": 52.56546,
   "lng": 13.43664,
   "priority": "unbekannte Priorität"
 },
 {
   "id": "08G21",
   "title": "Silberstein-Schule (Grundschule)",
   "address": "Silbersteinstr. 42",
   "zip": 12051,
   "type": "Grundschule",
   "icon": "fa-building-o",
   "color": "blue",
   "costs": 3110000,
   "lat": 52.466965,
   "lng": 13.434906,
   "priority": "unbekannte Priorität"
 },
 {
   "id": "03G47",
   "title": "Schule an der Strauchwiese",
   "address": "Mendelstr. 54",
   "zip": 13187,
   "type": "Grundschule",
   "icon": "fa-building-o",
   "color": "green",
   "costs": 0,
   "lat": 52.57805,
   "lng": 13.41782,
   "priority": "unbekannte Priorität"
 },
 {
   "id": "03S09",
   "title": "Schule an der Strauchwiese",
   "address": "Mendelstr. 54",
   "zip": 13187,
   "type": "Übrige Förderschwerpunkte",
   "icon": "fa-building-o",
   "color": "blue",
   "costs": 200000,
   "lat": 52.57805,
   "lng": 13.41782,
   "priority": "unbekannte Priorität"
 },
 {
   "id": "09G01",
   "title": "Bouché-Schule (Grundschule)",
   "address": "Bouchestr. 5-10",
   "zip": 12435,
   "type": "Grundschule",
   "icon": "fa-building-o",
   "color": "blue",
   "costs": 3820000,
   "lat": 52.49327,
   "lng": 13.45252,
   "priority": "unbekannte Priorität"
 },
 {
   "id": "04G25",
   "title": "Cecilien-Schule (Grundschule)",
   "address": "Nikolsburger Platz 5",
   "zip": 10717,
   "type": "Grundschule",
   "icon": "fa-building-o",
   "color": "orange",
   "costs": 6060000,
   "lat": 52.49331,
   "lng": 13.32769,
   "priority": "Priorität 2 oder 3"
 },
 {
   "id": "04G18",
   "title": "Ernst-Habermann-Grundschule",
   "address": "Prinzregentenstr. 33-34",
   "zip": 10715,
   "type": "Grundschule",
   "icon": "fa-building-o",
   "color": "blue",
   "costs": 1720000,
   "lat": 52.48328,
   "lng": 13.33269,
   "priority": "unbekannte Priorität"
 },
 {
   "id": "12K04",
   "title": "Paul-Löbe-Schule",
   "address": "Lindauer Allee 23-25",
   "zip": 13407,
   "type": "Integrierte Sekundarschule",
   "icon": "fa-building-o",
   "color": "red",
   "costs": 10650000,
   "lat": 52.57316,
   "lng": 13.35461,
   "priority": "Priorität 2 oder 3"
 },
 {
   "id": "08G15",
   "title": "Hermann-Sander-Schule (Grundschule)",
   "address": "Mariendorfer Weg 69",
   "zip": 12051,
   "type": "Grundschule",
   "icon": "fa-building-o",
   "color": "orange",
   "costs": 7130000,
   "lat": 52.46416,
   "lng": 13.43005,
   "priority": "Priorität 2 oder 3"
 },
 {
   "id": "07K12",
   "title": "Friedenauer Gemeinschaftsschule",
   "address": "Rubensstr. 63",
   "zip": 12157,
   "type": "Integrierte Sekundarschule",
   "icon": "fa-building-o",
   "color": "green",
   "costs": 0,
   "lat": 52.469784,
   "lng": 13.344068,
   "priority": "unbekannte Priorität"
 },
 {
   "id": "08K09",
   "title": "Röntgen-Schule",
   "address": "Wildenbruchstr. 53",
   "zip": 12435,
   "type": "Integrierte Sekundarschule",
   "icon": "fa-building-o",
   "color": "orange",
   "costs": 8350000,
   "lat": 52.488886,
   "lng": 13.449558,
   "priority": "Priorität 2 oder 3"
 },
 {
   "id": "02Y04",
   "title": "Georg-Friedrich-Händel-Gymnasium",
   "address": "Frankfurter Allee 6A",
   "zip": 10247,
   "type": "Gymnasium",
   "icon": "fa-building-o",
   "color": "blue",
   "costs": 2080000,
   "lat": 52.515331,
   "lng": 13.455796,
   "priority": "unbekannte Priorität"
 },
 {
   "id": "07S01",
   "title": "Prignitz-Schule",
   "address": "Pöppelmannstr. 2",
   "zip": 12157,
   "type": "Förderschwerp.\"Lernen\"",
   "icon": "fa-building-o",
   "color": "orange",
   "costs": 7540000,
   "lat": 52.46884,
   "lng": 13.34519,
   "priority": "Priorität 2 oder 3"
 },
 {
   "id": "02G02",
   "title": "Hausburg-Grundschule",
   "address": "Hausburgstr. 20",
   "zip": 10249,
   "type": "Grundschule",
   "icon": "fa-building-o",
   "color": "orange",
   "costs": 6600000,
   "lat": 52.524208,
   "lng": 13.454324,
   "priority": "Höchste Priorität"
 },
 {
   "id": "07G07",
   "title": "Lindenhof-Grundschule",
   "address": "Reglinstr. 29",
   "zip": 12105,
   "type": "Grundschule",
   "icon": "fa-building-o",
   "color": "blue",
   "costs": 3200000,
   "lat": 52.45809,
   "lng": 13.36325,
   "priority": "unbekannte Priorität"
 },
 {
   "id": "07G22",
   "title": "Paul-Klee-Grundschule",
   "address": "Konradinstr. 15-17",
   "zip": 12105,
   "type": "Grundschule",
   "icon": "fa-building-o",
   "color": "orange",
   "costs": 8260000,
   "lat": 52454,
   "lng": 13.37538,
   "priority": "Höchste Priorität"
 },
 {
   "id": "08G12",
   "title": "Peter-Petersen-Schule (Grundschule)",
   "address": "Jonasstr. 15",
   "zip": 12053,
   "type": "Grundschule",
   "icon": "fa-building-o",
   "color": "blue",
   "costs": 1880000,
   "lat": 52.47189,
   "lng": 13.43548,
   "priority": "unbekannte Priorität"
 },
 {
   "id": "08G14",
   "title": "Konrad-Agahd-Schule (Grundschule)",
   "address": "Thomasstr. 39",
   "zip": 12053,
   "type": "Grundschule",
   "icon": "fa-building-o",
   "color": "blue",
   "costs": 2120000,
   "lat": 52.4725,
   "lng": 13.43556,
   "priority": "unbekannte Priorität"
 },
 {
   "id": "12G05",
   "title": "Kolumbus-Grundschule",
   "address": "Büchsenweg 23A",
   "zip": 13409,
   "type": "Grundschule",
   "icon": "fa-building-o",
   "color": "blue",
   "costs": 4870000,
   "lat": 52.57569,
   "lng": 13.36622,
   "priority": "unbekannte Priorität"
 },
 {
   "id": "03K04",
   "title": "Gustave-Eiffel-Schule",
   "address": "Hanns-Eisler-Str. 78-80",
   "zip": 10409,
   "type": "Integrierte Sekundarschule",
   "icon": "fa-building-o",
   "color": "orange",
   "costs": 7020000,
   "lat": 52.540662,
   "lng": 13.44844,
   "priority": "Höchste Priorität"
 },
 {
   "id": "07G06",
   "title": "Sternberg-Grundschule",
   "address": "Mettestr. 8",
   "zip": 10825,
   "type": "Grundschule",
   "icon": "fa-building-o",
   "color": "blue",
   "costs": 2300000,
   "lat": 52.48047,
   "lng": 13.33924,
   "priority": "unbekannte Priorität"
 },
 {
   "id": "07Y02",
   "title": "Rückert-Gymnasium",
   "address": "Mettestr. 8",
   "zip": 10825,
   "type": "Gymnasium",
   "icon": "fa-building-o",
   "color": "red",
   "costs": 18070000,
   "lat": 52.48047,
   "lng": 13.33924,
   "priority": "Höchste Priorität"
 },
 {
   "id": "03G32",
   "title": "Grundschule an den Buchen",
   "address": "Wilhelm-Wolff-Str. 19",
   "zip": 13156,
   "type": "Grundschule",
   "icon": "fa-building-o",
   "color": "blue",
   "costs": 3000000,
   "lat": 52.579207,
   "lng": 13.394536,
   "priority": "unbekannte Priorität"
 },
 {
   "id": "03G34",
   "title": "Mendel-Grundschule",
   "address": "Stiftsweg 3",
   "zip": 13187,
   "type": "Grundschule",
   "icon": "fa-building-o",
   "color": "blue",
   "costs": 3820000,
   "lat": 52.573478,
   "lng": 13.416325,
   "priority": "unbekannte Priorität"
 },
 {
   "id": "03K05",
   "title": "Heinz-Brandt-Schule",
   "address": "Langhansstr. 120",
   "zip": 13086,
   "type": "Integrierte Sekundarschule",
   "icon": "fa-building-o",
   "color": "blue",
   "costs": 4720000,
   "lat": 52.551192,
   "lng": 13.441808,
   "priority": "unbekannte Priorität"
 },
 {
   "id": "12Y01",
   "title": "Friedrich-Engels-Gymnasium",
   "address": "Emmentaler Str. 67",
   "zip": 13407,
   "type": "Gymnasium",
   "icon": "fa-building-o",
   "color": "red",
   "costs": 12690000,
   "lat": 52.56959,
   "lng": 13.35743,
   "priority": "Höchste Priorität"
 },
 {
   "id": "01Y08",
   "title": "Lessing-Gymnasium",
   "address": "Schöningstr. 17",
   "zip": 13349,
   "type": "Gymnasium",
   "icon": "fa-building-o",
   "color": "orange",
   "costs": 9630000,
   "lat": 52.55734,
   "lng": 13.34371,
   "priority": "Höchste Priorität"
 },
 {
   "id": "03S07",
   "title": "Schule an der Heide",
   "address": "Hermann-Hesse-Str. 48-52",
   "zip": 13156,
   "type": "Förderschwerp.\"Lernen\"",
   "icon": "fa-building-o",
   "color": "blue",
   "costs": 1090000,
   "lat": 52.578097,
   "lng": 13.394472,
   "priority": "unbekannte Priorität"
 },
 {
   "id": "03G12",
   "title": "Paul-Lincke-Grundschule",
   "address": "Pieskower Weg 39",
   "zip": 10409,
   "type": "Grundschule",
   "icon": "fa-building-o",
   "color": "blue",
   "costs": 1350000,
   "lat": 52.54129,
   "lng": 13.44553,
   "priority": "unbekannte Priorität"
 },
 {
   "id": "02K07",
   "title": "Georg-Weerth-Schule",
   "address": "Eckertstr. 16",
   "zip": 10249,
   "type": "Integrierte Sekundarschule",
   "icon": "fa-building-o",
   "color": "blue",
   "costs": 4850000,
   "lat": 52.518996,
   "lng": 13.450401,
   "priority": "unbekannte Priorität"
 },
 {
   "id": "08G05",
   "title": "Elbe-Schule (Grundschule)",
   "address": "Elbestr. 11",
   "zip": 12045,
   "type": "Grundschule",
   "icon": "fa-building-o",
   "color": "green",
   "costs": 0,
   "lat": 52.48442,
   "lng": 13.44062,
   "priority": "unbekannte Priorität"
 },
 {
   "id": "08G09",
   "title": "Regenbogen-Schule (Grundschule)",
   "address": "Morusstr. 32",
   "zip": 12053,
   "type": "Grundschule",
   "icon": "fa-building-o",
   "color": "orange",
   "costs": 5360000,
   "lat": 52.47578,
   "lng": 13.43333,
   "priority": "Priorität 2 oder 3"
 },
 {
   "id": "07S04",
   "title": "Marianne-Cohn-Schule",
   "address": "Holzmannstr. 7",
   "zip": 12099,
   "type": "Förderschwerp.\"Geistige Entwicklung\"",
   "icon": "fa-building-o",
   "color": "orange",
   "costs": 5770000,
   "lat": 52.46433,
   "lng": 13.41815,
   "priority": "Höchste Priorität"
 },
 {
   "id": "03Y17",
   "title": "17. Schule (Gymnasium)",
   "address": "Conrad-Blenkle-Str. 34",
   "zip": 10407,
   "type": "Gymnasium",
   "icon": "fa-building-o",
   "color": "green",
   "costs": 0,
   "lat": 52.534329,
   "lng": 13.447008,
   "priority": "unbekannte Priorität"
 },
 {
   "id": "07G20",
   "title": "Maria-Montessori-Grundschule",
   "address": "Friedrich-Wilhelm-Str. 72-74",
   "zip": 12103,
   "type": "Grundschule",
   "icon": "fa-building-o",
   "color": "blue",
   "costs": 4870000,
   "lat": 52.45817,
   "lng": 13.38069,
   "priority": "unbekannte Priorität"
 },
 {
   "id": "03G01",
   "title": "Schule am Hamburger Platz (Grundschule)",
   "address": "Gustav-Adolf-Str. 21",
   "zip": 13086,
   "type": "Grundschule",
   "icon": "fa-building-o",
   "color": "blue",
   "costs": 3470000,
   "lat": 52.55381,
   "lng": 13.43681,
   "priority": "unbekannte Priorität"
 },
 {
   "id": "01G18",
   "title": "Carl-Bolle-Grundschule",
   "address": "Waldenserstr. 20-21",
   "zip": 10551,
   "type": "Grundschule",
   "icon": "fa-building-o",
   "color": "orange",
   "costs": 9950000,
   "lat": 52.528894,
   "lng": 13.331807,
   "priority": "Höchste Priorität"
 },
 {
   "id": "01K08",
   "title": "Schule am Schillerpark (Integrierte Sekundarschule)",
   "address": "Ofener Str. 6",
   "zip": 13349,
   "type": "Integrierte Sekundarschule",
   "icon": "fa-building-o",
   "color": "orange",
   "costs": 9960000,
   "lat": 52.55628,
   "lng": 13.3457,
   "priority": "Höchste Priorität"
 },
 {
   "id": "02S01",
   "title": "Schule am Friedrichshain",
   "address": "Lasdehner Str. 19",
   "zip": 10243,
   "type": "Integrierte Sekundarschule",
   "icon": "fa-building-o",
   "color": "blue",
   "costs": 1190000,
   "lat": 52.51449,
   "lng": 13.4491,
   "priority": "unbekannte Priorität"
 },
 {
   "id": "02G07",
   "title": "Ludwig-Hoffmann-Grundschule",
   "address": "Lasdehner Str. 21-23",
   "zip": 10243,
   "type": "Grundschule",
   "icon": "fa-building-o",
   "color": "blue",
   "costs": 1710000,
   "lat": 52.514357,
   "lng": 13.448886,
   "priority": "unbekannte Priorität"
 },
 {
   "id": "02G23",
   "title": "Fichtelgebirge-Grundschule",
   "address": "Görlitzer Ufer 2",
   "zip": 10997,
   "type": "Grundschule",
   "icon": "fa-building-o",
   "color": "orange",
   "costs": 6580000,
   "lat": 52.49575,
   "lng": 13.44495,
   "priority": "Höchste Priorität"
 },
 {
   "id": "01G47",
   "title": "Miriam-Makeba-Grundschule",
   "address": "Zinzendorfstr. 15-16",
   "zip": 10555,
   "type": "Grundschule",
   "icon": "fa-building-o",
   "color": "orange",
   "costs": 7250000,
   "lat": 52.52232,
   "lng": 13.331446,
   "priority": "Höchste Priorität"
 },
 {
   "id": "01G42",
   "title": "Anna-Lindh-Schule (Grundschule)",
   "address": "Guineastr. 17-18",
   "zip": 13351,
   "type": "Grundschule",
   "icon": "fa-building-o",
   "color": "red",
   "costs": 10860000,
   "lat": 52.550375,
   "lng": 13.341886,
   "priority": "Priorität 2 oder 3"
 },
 {
   "id": "12Y02",
   "title": "Europäisches Gymnasium Bertha-von-Suttner",
   "address": "Reginhardstr. 172",
   "zip": 13409,
   "type": "Gymnasium",
   "icon": "fa-building-o",
   "color": "red",
   "costs": 10740000,
   "lat": 52.57145,
   "lng": 13.36873,
   "priority": "Priorität 2 oder 3"
 },
 {
   "id": "08K10",
   "title": "Zuckmayer-Schule",
   "address": "Kopfstr. 55",
   "zip": 12053,
   "type": "Integrierte Sekundarschule",
   "icon": "fa-building-o",
   "color": "orange",
   "costs": 8710000,
   "lat": 52.4761,
   "lng": 13.43129,
   "priority": "Priorität 2 oder 3"
 },
 {
   "id": "12K05",
   "title": "Gustav-Freytag-Schule (Integrierte Sekundarschule)",
   "address": "Breitkopfstr. 66-80",
   "zip": 13409,
   "type": "Integrierte Sekundarschule",
   "icon": "fa-building-o",
   "color": "orange",
   "costs": 7980000,
   "lat": 52.56976,
   "lng": 13.36575,
   "priority": "Höchste Priorität"
 },
 {
   "id": "07Y06",
   "title": "Askanisches Gymnasium",
   "address": "Kaiserin-Augusta-Str. 19-20",
   "zip": 12103,
   "type": "Gymnasium",
   "icon": "fa-building-o",
   "color": "red",
   "costs": 12850000,
   "lat": 52.45992,
   "lng": 13.37992,
   "priority": "Höchste Priorität"
 },
 {
   "id": "08Y04",
   "title": "Ernst-Abbe-Gymnasium",
   "address": "Sonnenallee 79",
   "zip": 12045,
   "type": "Gymnasium",
   "icon": "fa-building-o",
   "color": "blue",
   "costs": 680000,
   "lat": 52.48349,
   "lng": 13.43711,
   "priority": "unbekannte Priorität"
 },
 {
   "id": "03Y10",
   "title": "Rosa-Luxemburg-Gymnasium",
   "address": "Kissingenstr. 12",
   "zip": 13189,
   "type": "Gymnasium",
   "icon": "fa-building-o",
   "color": "green",
   "costs": 0,
   "lat": 52.56669,
   "lng": 13.41948,
   "priority": "unbekannte Priorität"
 },
 {
   "id": "03K07",
   "title": "Tesla-Schule (Gemeinschaftsschule)",
   "address": "Rudi-Arndt-Str. 18",
   "zip": 10407,
   "type": "Integrierte Sekundarschule",
   "icon": "fa-building-o",
   "color": "orange",
   "costs": 9900000,
   "lat": 52.529086,
   "lng": 13.446061,
   "priority": "Höchste Priorität"
 },
 {
   "id": "03G39",
   "title": "Grundschule Wolkenstein",
   "address": "Neumannstr. 65",
   "zip": 13189,
   "type": "Grundschule",
   "icon": "fa-building-o",
   "color": "blue",
   "costs": 2010000,
   "lat": 52.56527,
   "lng": 13.42024,
   "priority": "unbekannte Priorität"
 },
 {
   "id": "12G02",
   "title": "Grundschule am Schäfersee",
   "address": "Baseler Str. 2-6",
   "zip": 13407,
   "type": "Grundschule",
   "icon": "fa-building-o",
   "color": "orange",
   "costs": 6650000,
   "lat": 52.5622,
   "lng": 13.3554,
   "priority": "Priorität 2 oder 3"
 },
 {
   "id": "01A04",
   "title": "Berlin-Kolleg",
   "address": "Turmstr. 75",
   "zip": 10551,
   "type": "Berlin-Kolleg",
   "icon": "fa-building-o",
   "color": "orange",
   "costs": 6710000,
   "lat": 52.526574,
   "lng": 13.334076,
   "priority": "Priorität 2 oder 3"
 },
 {
   "id": "02Y05",
   "title": "Dathe-Gymnasium",
   "address": "Helsingforser Str. 11-13",
   "zip": 10243,
   "type": "Gymnasium",
   "icon": "fa-building-o",
   "color": "orange",
   "costs": 6000000,
   "lat": 52.510001,
   "lng": 13.445399,
   "priority": "Priorität 2 oder 3"
 },
 {
   "id": "07G19",
   "title": "Paul-Simmel-Grundschule",
   "address": "Felixstr. 26-58",
   "zip": 12099,
   "type": "Grundschule",
   "icon": "fa-building-o",
   "color": "orange",
   "costs": 7990000,
   "lat": 52.46137,
   "lng": 13.3926,
   "priority": "Höchste Priorität"
 },
 {
   "id": "03G27",
   "title": "Elizabeth-Shaw-Grundschule",
   "address": "Grunowstr. 17",
   "zip": 13187,
   "type": "Grundschule",
   "icon": "fa-building-o",
   "color": "blue",
   "costs": 3040000,
   "lat": 52.56831,
   "lng": 13.41044,
   "priority": "unbekannte Priorität"
 },
 {
   "id": "08G07",
   "title": "Hermann-Boddin-Schule (Grundschule)",
   "address": "Boddinstr. 55",
   "zip": 12053,
   "type": "Grundschule",
   "icon": "fa-building-o",
   "color": "orange",
   "costs": 7800000,
   "lat": 52.480416,
   "lng": 13.431252,
   "priority": "Priorität 2 oder 3"
 },
 {
   "id": "12G06",
   "title": "Hausotter-Grundschule",
   "address": "Hausotterplatz 4",
   "zip": 13409,
   "type": "Grundschule",
   "icon": "fa-building-o",
   "color": "blue",
   "costs": 4660000,
   "lat": 52.56963,
   "lng": 13.375634,
   "priority": "unbekannte Priorität"
 },
 {
   "id": "07G14",
   "title": "Löcknitz-Grundschule",
   "address": "Berchtesgadener Str. 10-11",
   "zip": 10779,
   "type": "Grundschule",
   "icon": "fa-building-o",
   "color": "blue",
   "costs": 3530000,
   "lat": 52.489558,
   "lng": 13.343356,
   "priority": "unbekannte Priorität"
 },
 {
   "id": "08K08",
   "title": "Gemeinschaftsschule auf dem Campus Rütli",
   "address": "Rütlistr. 41",
   "zip": 12045,
   "type": "Integrierte Sekundarschule",
   "icon": "fa-building-o",
   "color": "red",
   "costs": 13070000,
   "lat": 52.487309,
   "lng": 13.434226,
   "priority": "Priorität 2 oder 3"
 },
 {
   "id": "03K06",
   "title": "Reinhold-Burger-Schule",
   "address": "Neue Schönholzer Str. 32",
   "zip": 13187,
   "type": "Integrierte Sekundarschule",
   "icon": "fa-building-o",
   "color": "blue",
   "costs": 2010000,
   "lat": 52.56838,
   "lng": 13.40303,
   "priority": "unbekannte Priorität"
 },
 {
   "id": "03G06",
   "title": "Bötzow-Grundschule",
   "address": "John-Schehr-Str. 38",
   "zip": 10407,
   "type": "Grundschule",
   "icon": "fa-building-o",
   "color": "blue",
   "costs": 1390000,
   "lat": 52.535104,
   "lng": 13.439793,
   "priority": "unbekannte Priorität"
 },
 {
   "id": "03K02",
   "title": "Kurt-Tucholsky-Schule (Integrierte Sekundarschule)",
   "address": "Neumannstr. 9-11",
   "zip": 13189,
   "type": "Integrierte Sekundarschule",
   "icon": "fa-building-o",
   "color": "blue",
   "costs": 3030000,
   "lat": 52.55812,
   "lng": 13.42333,
   "priority": "unbekannte Priorität"
 },
 {
   "id": "08G06",
   "title": "Karl-Weise-Schule (Grundschule)",
   "address": "Weisestr. 20",
   "zip": 12049,
   "type": "Grundschule",
   "icon": "fa-building-o",
   "color": "blue",
   "costs": 3670000,
   "lat": 52.476503,
   "lng": 13.423961,
   "priority": "unbekannte Priorität"
 },
 {
   "id": "08G01",
   "title": "Rixdorfer Schule",
   "address": "Donaustr. 120",
   "zip": 12043,
   "type": "Grundschule",
   "icon": "fa-building-o",
   "color": "orange",
   "costs": 7150000,
   "lat": 52.484904,
   "lng": 13.431792,
   "priority": "Priorität 2 oder 3"
 },
 {
   "id": "07K06",
   "title": "Georg-von-Giesche-Schule",
   "address": "Hohenstaufenstr. 47-48",
   "zip": 10779,
   "type": "Integrierte Sekundarschule",
   "icon": "fa-building-o",
   "color": "orange",
   "costs": 9720000,
   "lat": 52.494144,
   "lng": 13.342529,
   "priority": "Höchste Priorität"
 },
 {
   "id": "03G26",
   "title": "Arnold-Zweig-Grundschule",
   "address": "Wollankstr. 131",
   "zip": 13187,
   "type": "Grundschule",
   "icon": "fa-building-o",
   "color": "blue",
   "costs": 340000,
   "lat": 52.56868,
   "lng": 13.40012,
   "priority": "unbekannte Priorität"
 },
 {
   "id": "07K13",
   "title": "Schule am Berlinickeplatz (Integrierte Sekundarschule)",
   "address": "Alt-Tempelhof 53-57",
   "zip": 12103,
   "type": "Integrierte Sekundarschule",
   "icon": "fa-building-o",
   "color": "red",
   "costs": 10300000,
   "lat": 52.465657,
   "lng": 13.379583,
   "priority": "Priorität 2 oder 3"
 },
 {
   "id": "07G12",
   "title": "Scharmützelsee-Grundschule",
   "address": "Hohenstaufenstr. 49",
   "zip": 10779,
   "type": "Grundschule",
   "icon": "fa-building-o",
   "color": "orange",
   "costs": 6940000,
   "lat": 52.494177,
   "lng": 13.343268,
   "priority": "Priorität 2 oder 3"
 },
 {
   "id": "03Y13",
   "title": "Felix-Mendelssohn-Bartholdy-Gymnasium",
   "address": "Eugen-Schönhaar-Str. 18",
   "zip": 10407,
   "type": "Gymnasium",
   "icon": "fa-building-o",
   "color": "green",
   "costs": 0,
   "lat": 52.537087,
   "lng": 13.437857,
   "priority": "unbekannte Priorität"
 },
 {
   "id": "01G24",
   "title": "Gottfried-Röhl-Grundschule",
   "address": "Ungarnstr. 75",
   "zip": 13349,
   "type": "Grundschule",
   "icon": "fa-building-o",
   "color": "orange",
   "costs": 7110000,
   "lat": 52.55719,
   "lng": 13.35717,
   "priority": "Priorität 2 oder 3"
 },
 {
   "id": "01K02",
   "title": "Ernst-Schering-Schule",
   "address": "Lütticher Str. 47-48",
   "zip": 13353,
   "type": "Integrierte Sekundarschule",
   "icon": "fa-building-o",
   "color": "red",
   "costs": 11020000,
   "lat": 52.54701,
   "lng": 13.34782,
   "priority": "Priorität 2 oder 3"
 },
 {
   "id": "07Y05",
   "title": "Luise-Henriette-Gymnasium",
   "address": "Germaniastr. 4-6",
   "zip": 12099,
   "type": "Gymnasium",
   "icon": "fa-building-o",
   "color": "green",
   "costs": 0,
   "lat": 52.46546,
   "lng": 13.39059,
   "priority": "unbekannte Priorität"
 },
 {
   "id": "07G02",
   "title": "Finow-Grundschule",
   "address": "Welserstr. 16-22",
   "zip": 10777,
   "type": "Grundschule",
   "icon": "fa-building-o",
   "color": "orange",
   "costs": 5750000,
   "lat": 52.49823,
   "lng": 13.34251,
   "priority": "Priorität 2 oder 3"
 },
 {
   "id": "01Y12",
   "title": "Gymnasium Tiergarten",
   "address": "Altonaer Str. 26",
   "zip": 10555,
   "type": "Gymnasium",
   "icon": "fa-building-o",
   "color": "blue",
   "costs": 280000,
   "lat": 52.51935,
   "lng": 13.3394,
   "priority": "unbekannte Priorität"
 },
 {
   "id": "03Y08",
   "title": "Carl-von-Ossietzky-Gymnasium",
   "address": "Görschstr. 42-44",
   "zip": 13187,
   "type": "Gymnasium",
   "icon": "fa-building-o",
   "color": "blue",
   "costs": 520000,
   "lat": 52.566429,
   "lng": 13.40007,
   "priority": "unbekannte Priorität"
 },
 {
   "id": "03G41",
   "title": "Trelleborg-Schule (Grundschule)",
   "address": "Eschengraben 40",
   "zip": 13189,
   "type": "Grundschule",
   "icon": "fa-building-o",
   "color": "orange",
   "costs": 5660000,
   "lat": 52.556012,
   "lng": 13.421818,
   "priority": "Priorität 2 oder 3"
 },
 {
   "id": "12G03",
   "title": "Reginhard-Grundschule",
   "address": "Letteallee 39-41",
   "zip": 13409,
   "type": "Grundschule",
   "icon": "fa-building-o",
   "color": "blue",
   "costs": 2850000,
   "lat": 52.563219,
   "lng": 13.370292,
   "priority": "unbekannte Priorität"
 },
 {
   "id": "07K09",
   "title": "Gustav-Langenscheidt-Schule",
   "address": "Belziger Str. 43-51",
   "zip": 10823,
   "type": "Integrierte Sekundarschule",
   "icon": "fa-building-o",
   "color": "red",
   "costs": 12540000,
   "lat": 52.485997,
   "lng": 13.350718,
   "priority": "Höchste Priorität"
 },
 {
   "id": "01G19",
   "title": "Hansa-Grundschule",
   "address": "Lessingstr. 5",
   "zip": 10555,
   "type": "Grundschule",
   "icon": "fa-building-o",
   "color": "blue",
   "costs": 1480000,
   "lat": 52.5214,
   "lng": 13.34019,
   "priority": "unbekannte Priorität"
 },
 {
   "id": "01S05",
   "title": "Schule in der Charité",
   "address": "Augustenburger Platz 1",
   "zip": 13353,
   "type": "Übrige Förderschwerpunkte",
   "icon": "fa-building-o",
   "color": "green",
   "costs": 0,
   "lat": 52.542216,
   "lng": 13.347104,
   "priority": "unbekannte Priorität"
 },
 {
   "id": "03K09",
   "title": "Janusz-Korczak-Schule (Integrierte Sekundarschule)",
   "address": "Dolomitenstr. 94",
   "zip": 13187,
   "type": "Integrierte Sekundarschule",
   "icon": "fa-building-o",
   "color": "blue",
   "costs": 3820000,
   "lat": 52.562908,
   "lng": 13.407559,
   "priority": "unbekannte Priorität"
 },
 {
   "id": "02K08",
   "title": "Refik-Veseli-Schule (Integrierte Sekundarschule)",
   "address": "Skalitzer Str. 55",
   "zip": 10997,
   "type": "Integrierte Sekundarschule",
   "icon": "fa-building-o",
   "color": "red",
   "costs": 12150000,
   "lat": 52.49962,
   "lng": 13.43555,
   "priority": "Höchste Priorität"
 },
 {
   "id": "01G36",
   "title": "Andersen-Grundschule",
   "address": "Kattegatstr. 26",
   "zip": 13359,
   "type": "Grundschule",
   "icon": "fa-building-o",
   "color": "blue",
   "costs": 3790000,
   "lat": 52.56553,
   "lng": 13.38891,
   "priority": "unbekannte Priorität"
 },
 {
   "id": "08Y02",
   "title": "Albert-Schweitzer-Gymnasium",
   "address": "Karl-Marx-Str. 14",
   "zip": 12043,
   "type": "Gymnasium",
   "icon": "fa-building-o",
   "color": "orange",
   "costs": 9830000,
   "lat": 52.4852,
   "lng": 13.42649,
   "priority": "Priorität 2 oder 3"
 },
 {
   "id": "03G08",
   "title": "Grundschule am Planetarium",
   "address": "Ella-Kay-Str. 47",
   "zip": 10405,
   "type": "Grundschule",
   "icon": "fa-building-o",
   "color": "orange",
   "costs": 5430000,
   "lat": 52.54145,
   "lng": 13.43118,
   "priority": "Priorität 2 oder 3"
 },
 {
   "id": "08G02",
   "title": "Theodor-Storm-Schule (Grundschule)",
   "address": "Hobrechtstr. 76",
   "zip": 12043,
   "type": "Grundschule",
   "icon": "fa-building-o",
   "color": "orange",
   "costs": 5560000,
   "lat": 52.486488,
   "lng": 13.426763,
   "priority": "Priorität 2 oder 3"
 },
 {
   "id": "08G08",
   "title": "Karlsgarten-Schule (Grundschule)",
   "address": "Karlsgartenstr. 7",
   "zip": 12049,
   "type": "Grundschule",
   "icon": "fa-building-o",
   "color": "orange",
   "costs": 8820000,
   "lat": 52.482099,
   "lng": 13.422505,
   "priority": "Priorität 2 oder 3"
 },
 {
   "id": "07G03",
   "title": "Werbellinsee-Grundschule",
   "address": "Luitpoldstr. 38",
   "zip": 10781,
   "type": "Grundschule",
   "icon": "fa-building-o",
   "color": "blue",
   "costs": 1920000,
   "lat": 52.495036,
   "lng": 13.348236,
   "priority": "unbekannte Priorität"
 },
 {
   "id": "07G18",
   "title": "Grundschule am Barbarossaplatz",
   "address": "Barbarossaplatz 5",
   "zip": 10781,
   "type": "Grundschule",
   "icon": "fa-building-o",
   "color": "orange",
   "costs": 6020000,
   "lat": 52.49235,
   "lng": 13.34978,
   "priority": "Höchste Priorität"
 },
 {
   "id": "07G10",
   "title": "Teltow-Grundschule",
   "address": "Feurigstr. 57",
   "zip": 10827,
   "type": "Grundschule",
   "icon": "fa-building-o",
   "color": "orange",
   "costs": 8360000,
   "lat": 52.484327,
   "lng": 13.356154,
   "priority": "Höchste Priorität"
 },
 {
   "id": "02K01",
   "title": "Ellen-Key-Schule",
   "address": "Rüdersdorfer Str. 20-28",
   "zip": 10243,
   "type": "Integrierte Sekundarschule",
   "icon": "fa-building-o",
   "color": "orange",
   "costs": 6230000,
   "lat": 52.5152,
   "lng": 13.43689,
   "priority": "Priorität 2 oder 3"
 },
 {
   "id": "03K11",
   "title": "Wilhelm-von-Humboldt-Schule (Gemeinschaftsschule)",
   "address": "Erich-Weinert-Str. 70",
   "zip": 10439,
   "type": "Integrierte Sekundarschule",
   "icon": "fa-building-o",
   "color": "blue",
   "costs": 2010000,
   "lat": 52.54845,
   "lng": 13.42476,
   "priority": "unbekannte Priorität"
 },
 {
   "id": "01G41",
   "title": "Erika-Mann-Grundschule",
   "address": "Utrechter Str. 25-27",
   "zip": 13347,
   "type": "Grundschule",
   "icon": "fa-building-o",
   "color": "orange",
   "costs": 5520000,
   "lat": 52.55099,
   "lng": 13.35786,
   "priority": "Priorität 2 oder 3"
 },
 {
   "id": "01K09",
   "title": "Hedwig-Dohm-Schule (Integrierte Sekundarschule)",
   "address": "Stephanstr. 27",
   "zip": 10559,
   "type": "Integrierte Sekundarschule",
   "icon": "fa-building-o",
   "color": "orange",
   "costs": 6550000,
   "lat": 52.53367,
   "lng": 13.34651,
   "priority": "Priorität 2 oder 3"
 },
 {
   "id": "03G25",
   "title": "Carl-Humann-Grundschule",
   "address": "Scherenbergstr. 7",
   "zip": 10439,
   "type": "Grundschule",
   "icon": "fa-building-o",
   "color": "blue",
   "costs": 1440000,
   "lat": 52.55101,
   "lng": 13.42173,
   "priority": "unbekannte Priorität"
 },
 {
   "id": "03G37",
   "title": "Klecks-Grundschule",
   "address": "Brixener Str. 40",
   "zip": 13187,
   "type": "Grundschule",
   "icon": "fa-building-o",
   "color": "blue",
   "costs": 490000,
   "lat": 52.55989,
   "lng": 13.40756,
   "priority": "unbekannte Priorität"
 },
 {
   "id": "02G01",
   "title": "Spartacus-Grundschule",
   "address": "Friedenstr. 40-45",
   "zip": 10249,
   "type": "Grundschule",
   "icon": "fa-building-o",
   "color": "blue",
   "costs": 830000,
   "lat": 52.52106,
   "lng": 13.43582,
   "priority": "unbekannte Priorität"
 },
 {
   "id": "02G35",
   "title": "Rosa-Parks-Grundschule",
   "address": "Reichenberger Str. 65",
   "zip": 10999,
   "type": "Grundschule",
   "icon": "fa-building-o",
   "color": "red",
   "costs": 13200000,
   "lat": 52.495472,
   "lng": 13.43052,
   "priority": "Priorität 2 oder 3"
 },
 {
   "id": "03G05",
   "title": "Homer-Grundschule",
   "address": "Pasteurstr. 10-12",
   "zip": 10407,
   "type": "Grundschule",
   "icon": "fa-building-o",
   "color": "blue",
   "costs": 3780000,
   "lat": 52.53371,
   "lng": 13.43237,
   "priority": "unbekannte Priorität"
 },
 {
   "id": "03Y04",
   "title": "Heinrich-Schliemann-Gymnasium",
   "address": "Dunckerstr. 64",
   "zip": 10439,
   "type": "Gymnasium",
   "icon": "fa-building-o",
   "color": "orange",
   "costs": 5300000,
   "lat": 52.54663,
   "lng": 13.42365,
   "priority": "Priorität 2 oder 3"
 },
 {
   "id": "02Y01",
   "title": "Andreas-Oberschule",
   "address": "Koppenstr. 76",
   "zip": 10243,
   "type": "Gymnasium",
   "icon": "fa-building-o",
   "color": "orange",
   "costs": 7280000,
   "lat": 52.514039,
   "lng": 13.434606,
   "priority": "Priorität 2 oder 3"
 },
 {
   "id": "02S03",
   "title": "Margarethe-von-Witzleben-Schule",
   "address": "Palisadenstr. 76-77",
   "zip": 10243,
   "type": "Übrige Förderschwerpunkte",
   "icon": "fa-building-o",
   "color": "blue",
   "costs": 3840000,
   "lat": 52.51984,
   "lng": 13.4346,
   "priority": "unbekannte Priorität"
 },
 {
   "id": "01G32",
   "title": "Carl-Kraemer-Grundschule",
   "address": "Zechliner Str. 4",
   "zip": 13359,
   "type": "Grundschule",
   "icon": "fa-building-o",
   "color": "orange",
   "costs": 7760000,
   "lat": 52.56107,
   "lng": 13.38284,
   "priority": "Höchste Priorität"
 },
 {
   "id": "03Y03",
   "title": "Käthe-Kollwitz-Gymnasium",
   "address": "Dunckerstr. 65-66",
   "zip": 10439,
   "type": "Gymnasium",
   "icon": "fa-building-o",
   "color": "blue",
   "costs": 4700000,
   "lat": 52.5458,
   "lng": 13.42271,
   "priority": "unbekannte Priorität"
 },
 {
   "id": "03G14",
   "title": "Bornholmer Grundschule",
   "address": "Ibsenstr. 17",
   "zip": 10439,
   "type": "Grundschule",
   "icon": "fa-building-o",
   "color": "orange",
   "costs": 9620000,
   "lat": 52.55572,
   "lng": 13.40768,
   "priority": "Höchste Priorität"
 },
 {
   "id": "02G29",
   "title": "Heinrich-Zille-Grundschule",
   "address": "Waldemarstr. 118",
   "zip": 10997,
   "type": "Grundschule",
   "icon": "fa-building-o",
   "color": "blue",
   "costs": 4040000,
   "lat": 52.500729,
   "lng": 13.429182,
   "priority": "unbekannte Priorität"
 },
 {
   "id": "02G36",
   "title": "36. Schule (Grundschule)",
   "address": "Andreasstr. 50",
   "zip": 10243,
   "type": "Übrige Förderschwerpunkte",
   "icon": "fa-building-o",
   "color": "blue",
   "costs": 2960000,
   "lat": 52.51663,
   "lng": 13.43215,
   "priority": "unbekannte Priorität"
 },
 {
   "id": "02G27",
   "title": "Hunsrück-Grundschule",
   "address": "Manteuffelstr. 79",
   "zip": 10999,
   "type": "Grundschule",
   "icon": "fa-building-o",
   "color": "orange",
   "costs": 6650000,
   "lat": 52.497732,
   "lng": 13.426632,
   "priority": "Priorität 2 oder 3"
 },
 {
   "id": "07K01",
   "title": "Sophie-Scholl-Schule",
   "address": "Elßholzstr. 34-37",
   "zip": 10781,
   "type": "Integrierte Sekundarschule",
   "icon": "fa-building-o",
   "color": "red",
   "costs": 16340000,
   "lat": 52.492808,
   "lng": 13.356583,
   "priority": "Priorität 2 oder 3"
 },
 {
   "id": "01G29",
   "title": "Wilhelm-Hauff-Grundschule",
   "address": "Gotenburger Str. 8",
   "zip": 13359,
   "type": "Grundschule",
   "icon": "fa-building-o",
   "color": "blue",
   "costs": 1630000,
   "lat": 52.557813,
   "lng": 13.384347,
   "priority": "unbekannte Priorität"
 },
 {
   "id": "07Y01",
   "title": "Robert-Blum-Gymnasium",
   "address": "Kolonnenstr. 21",
   "zip": 10829,
   "type": "Gymnasium",
   "icon": "fa-building-o",
   "color": "orange",
   "costs": 7560000,
   "lat": 52.48483,
   "lng": 13.36487,
   "priority": "Priorität 2 oder 3"
 },
 {
   "id": "07G24",
   "title": "Tempelherren-Grundschule",
   "address": "Boelckestr. 58-60",
   "zip": 12101,
   "type": "Grundschule",
   "icon": "fa-building-o",
   "color": "red",
   "costs": 11680000,
   "lat": 52.478603,
   "lng": 13.37647,
   "priority": "Höchste Priorität"
 },
 {
   "id": "03K01",
   "title": "Kurt-Schwitters-Schule",
   "address": "Greifswalder Str. 25",
   "zip": 10405,
   "type": "Integrierte Sekundarschule",
   "icon": "fa-building-o",
   "color": "blue",
   "costs": 3560000,
   "lat": 52.5314,
   "lng": 13.42807,
   "priority": "unbekannte Priorität"
 },
 {
   "id": "03G46",
   "title": "Grundschule im Eliashof",
   "address": "Senefelderstr. 6",
   "zip": 10437,
   "type": "Grundschule",
   "icon": "fa-building-o",
   "color": "blue",
   "costs": 1140000,
   "lat": 52.540786,
   "lng": 13.422734,
   "priority": "unbekannte Priorität"
 },
 {
   "id": "03G04",
   "title": "Grundschule an der Marie",
   "address": "Christburger Str. 7",
   "zip": 10405,
   "type": "Grundschule",
   "icon": "fa-building-o",
   "color": "blue",
   "costs": 3580000,
   "lat": 52.536148,
   "lng": 13.42559,
   "priority": "unbekannte Priorität"
 },
 {
   "id": "01G28",
   "title": "Brüder-Grimm-Grundschule",
   "address": "Tegeler Str. 18-19",
   "zip": 13353,
   "type": "Grundschule",
   "icon": "fa-building-o",
   "color": "blue",
   "costs": 2880000,
   "lat": 52.54146,
   "lng": 13.35783,
   "priority": "unbekannte Priorität"
 },
 {
   "id": "01G31",
   "title": "Wedding-Grundschule",
   "address": "Antonstr. 10",
   "zip": 13347,
   "type": "Grundschule",
   "icon": "fa-building-o",
   "color": "orange",
   "costs": 6040000,
   "lat": 52.546206,
   "lng": 13.362468,
   "priority": "Priorität 2 oder 3"
 },
 {
   "id": "01K10",
   "title": "Theodor-Heuss-Schule (Gemeinschaftsschule)",
   "address": "Quitzowstr. 141",
   "zip": 10559,
   "type": "Integrierte Sekundarschule",
   "icon": "fa-building-o",
   "color": "red",
   "costs": 10930000,
   "lat": 52.535722,
   "lng": 13.354875,
   "priority": "Priorität 2 oder 3"
 },
 {
   "id": "01G45",
   "title": "Leo-Lionni-Grundschule",
   "address": "Müllerstr. 158",
   "zip": 13353,
   "type": "Grundschule",
   "icon": "fa-building-o",
   "color": "orange",
   "costs": 9530000,
   "lat": 52.544342,
   "lng": 13.361352,
   "priority": "Höchste Priorität"
 },
 {
   "id": "07G01",
   "title": "Spreewald-Grundschule",
   "address": "Pallasstr. 15",
   "zip": 10781,
   "type": "Grundschule",
   "icon": "fa-building-o",
   "color": "orange",
   "costs": 8500000,
   "lat": 52.49539,
   "lng": 13.35693,
   "priority": "Höchste Priorität"
 },
 {
   "id": "01G11",
   "title": "Kurt-Tucholsky-Grundschule",
   "address": "Rathenower Str. 18",
   "zip": 10559,
   "type": "Grundschule",
   "icon": "fa-building-o",
   "color": "orange",
   "costs": 5810000,
   "lat": 52.53026,
   "lng": 13.35303,
   "priority": "Priorität 2 oder 3"
 },
 {
   "id": "07G05",
   "title": "Havelland-Grundschule",
   "address": "Kolonnenstr. 30",
   "zip": 10829,
   "type": "Grundschule",
   "icon": "fa-building-o",
   "color": "blue",
   "costs": 2910000,
   "lat": 52.484772,
   "lng": 13.367681,
   "priority": "unbekannte Priorität"
 },
 {
   "id": "03G09",
   "title": "Thomas-Mann-Grundschule",
   "address": "Greifenhagener Str. 58-59",
   "zip": 10437,
   "type": "Grundschule",
   "icon": "fa-building-o",
   "color": "blue",
   "costs": 1850000,
   "lat": 52.54663,
   "lng": 13.41479,
   "priority": "unbekannte Priorität"
 },
 {
   "id": "02G18",
   "title": "Nürtingen-Grundschule",
   "address": "Mariannenplatz 28",
   "zip": 10997,
   "type": "Grundschule",
   "icon": "fa-building-o",
   "color": "red",
   "costs": 13480000,
   "lat": 52.505469,
   "lng": 13.426859,
   "priority": "Höchste Priorität"
 },
 {
   "id": "02Y08",
   "title": "Hermann-Hesse-Oberschule",
   "address": "Böckhstr. 16",
   "zip": 10967,
   "type": "Gymnasium",
   "icon": "fa-building-o",
   "color": "red",
   "costs": 10030000,
   "lat": 52.493579,
   "lng": 13.419151,
   "priority": "Höchste Priorität"
 },
 {
   "id": "01Y07",
   "title": "Französisches Gymnasium",
   "address": "Derfflingerstr. 7",
   "zip": 10785,
   "type": "Gymnasium",
   "icon": "fa-building-o",
   "color": "orange",
   "costs": 6130000,
   "lat": 52.50318,
   "lng": 13.35549,
   "priority": "Priorität 2 oder 3"
 },
 {
   "id": "07G21",
   "title": "Grundschule auf dem Tempelhofer Feld",
   "address": "Schulenburgring 7-11",
   "zip": 12101,
   "type": "Grundschule",
   "icon": "fa-building-o",
   "color": "orange",
   "costs": 5380000,
   "lat": 52.48081,
   "lng": 13.38185,
   "priority": "Priorität 2 oder 3"
 },
 {
   "id": "01G27",
   "title": "Gesundbrunnen-Grundschule",
   "address": "Prinzenallee 8",
   "zip": 13357,
   "type": "Grundschule",
   "icon": "fa-building-o",
   "color": "orange",
   "costs": 5270000,
   "lat": 52.55338,
   "lng": 13.38292,
   "priority": "Priorität 2 oder 3"
 },
 {
   "id": "02K05",
   "title": "Schule am Königstor (Integrierte Sekundarschule)",
   "address": "Weinstr. 3",
   "zip": 10249,
   "type": "Integrierte Sekundarschule",
   "icon": "fa-building-o",
   "color": "blue",
   "costs": 200000,
   "lat": 52.525666,
   "lng": 13.425987,
   "priority": "unbekannte Priorität"
 },
 {
   "id": "03G45",
   "title": "Grundschule im Hofgarten",
   "address": "Danziger Str. 50",
   "zip": 10435,
   "type": "Grundschule",
   "icon": "fa-building-o",
   "color": "blue",
   "costs": 680000,
   "lat": 52.53921,
   "lng": 13.41918,
   "priority": "unbekannte Priorität"
 },
 {
   "id": "02K09",
   "title": "Albrecht-von-Graefe-Schule (Integrierte Sekundarschule)",
   "address": "Graefestr. 85-88",
   "zip": 10967,
   "type": "Integrierte Sekundarschule",
   "icon": "fa-building-o",
   "color": "orange",
   "costs": 5000000,
   "lat": 52.494205,
   "lng": 13.418709,
   "priority": "Priorität 2 oder 3"
 },
 {
   "id": "07G13",
   "title": "Neumark-Grundschule",
   "address": "Steinmetzstr. 46-50",
   "zip": 10783,
   "type": "Grundschule",
   "icon": "fa-building-o",
   "color": "orange",
   "costs": 6420000,
   "lat": 52.49282,
   "lng": 13.36249,
   "priority": "Höchste Priorität"
 },
 {
   "id": "01G43",
   "title": "Albert-Gutzmann-Schule (Grundschule)",
   "address": "Orthstr. 1",
   "zip": 13357,
   "type": "Grundschule",
   "icon": "fa-building-o",
   "color": "orange",
   "costs": 7440000,
   "lat": 52.549234,
   "lng": 13.373261,
   "priority": "Priorität 2 oder 3"
 },
 {
   "id": "01S06",
   "title": "Albert-Gutzmann-Schule",
   "address": "Orthstr. 1",
   "zip": 13357,
   "type": "Integrierte Sekundarschule",
   "icon": "fa-building-o",
   "color": "green",
   "costs": 0,
   "lat": 52.549234,
   "lng": 13.373261,
   "priority": "Höchste Priorität"
 },
 {
   "id": "03G02",
   "title": "Heinrich-Roller-Grundschule",
   "address": "Heinrich-Roller-Str. 18",
   "zip": 10405,
   "type": "Grundschule",
   "icon": "fa-building-o",
   "color": "orange",
   "costs": 7620000,
   "lat": 52.53064,
   "lng": 13.42364,
   "priority": "Höchste Priorität"
 },
 {
   "id": "02Y07",
   "title": "Robert-Koch-Gymnasium",
   "address": "Dieffenbachstr. 60",
   "zip": 10967,
   "type": "Gymnasium",
   "icon": "fa-building-o",
   "color": "orange",
   "costs": 6680000,
   "lat": 52.49323,
   "lng": 13.41596,
   "priority": "Priorität 2 oder 3"
 },
 {
   "id": "01G25",
   "title": "Rudolf-Wissell-Grundschule",
   "address": "Ellerbeker Str. 7-8",
   "zip": 13357,
   "type": "Grundschule",
   "icon": "fa-building-o",
   "color": "orange",
   "costs": 7270000,
   "lat": 52.55158,
   "lng": 13.39611,
   "priority": "Höchste Priorität"
 },
 {
   "id": "01Y09",
   "title": "Diesterweg-Schule (Gymnasium)",
   "address": "Böttgerstr. 2-6",
   "zip": 13357,
   "type": "Gymnasium",
   "icon": "fa-building-o",
   "color": "blue",
   "costs": 1080000,
   "lat": 52.550012,
   "lng": 13.378338,
   "priority": "unbekannte Priorität"
 },
 {
   "id": "02G26",
   "title": "Lemgo-Grundschule",
   "address": "Böckhstr. 5",
   "zip": 10967,
   "type": "Grundschule",
   "icon": "fa-building-o",
   "color": "orange",
   "costs": 6020000,
   "lat": 52.494198,
   "lng": 13.416454,
   "priority": "Priorität 2 oder 3"
 },
 {
   "id": "01G15",
   "title": "Anne-Frank-Grundschule",
   "address": "Paulstr. 20B",
   "zip": 10557,
   "type": "Grundschule",
   "icon": "fa-building-o",
   "color": "blue",
   "costs": 2120000,
   "lat": 52.51827,
   "lng": 13.35527,
   "priority": "unbekannte Priorität"
 },
 {
   "id": "01K01",
   "title": "Willy-Brandt-Schule",
   "address": "Grüntaler Str. 5",
   "zip": 13357,
   "type": "Integrierte Sekundarschule",
   "icon": "fa-building-o",
   "color": "orange",
   "costs": 5280000,
   "lat": 52.55101,
   "lng": 13.386048,
   "priority": "unbekannte Priorität"
 },
 {
   "id": "03G11",
   "title": "Schule am Falkplatz (Grundschule)",
   "address": "Gleimstr. 49",
   "zip": 10437,
   "type": "Grundschule",
   "icon": "fa-building-o",
   "color": "orange",
   "costs": 7880000,
   "lat": 52.54749,
   "lng": 13.40538,
   "priority": "Höchste Priorität"
 },
 {
   "id": "01G07",
   "title": "GutsMuths-Grundschule",
   "address": "Singerstr. 8",
   "zip": 10179,
   "type": "Grundschule",
   "icon": "fa-building-o",
   "color": "blue",
   "costs": 4250000,
   "lat": 52.516365,
   "lng": 13.42412,
   "priority": "unbekannte Priorität"
 },
 {
   "id": "01Y11",
   "title": "Max-Planck-Schule (Gymnasium)",
   "address": "Singerstr. 8A",
   "zip": 10179,
   "type": "Gymnasium",
   "icon": "fa-building-o",
   "color": "blue",
   "costs": 1560000,
   "lat": 52.516365,
   "lng": 13.42412,
   "priority": "unbekannte Priorität"
 },
 {
   "id": "01G16",
   "title": "Moabiter Grundschule",
   "address": "Paulstr. 28",
   "zip": 10557,
   "type": "Grundschule",
   "icon": "fa-building-o",
   "color": "orange",
   "costs": 7560000,
   "lat": 52.521974,
   "lng": 13.35657,
   "priority": "Priorität 2 oder 3"
 },
 {
   "id": "01K06",
   "title": "Herbert-Hoover-Schule (Integrierte Sekundarschule)",
   "address": "Pankstr. 18-19",
   "zip": 13357,
   "type": "Integrierte Sekundarschule",
   "icon": "fa-building-o",
   "color": "blue",
   "costs": 820000,
   "lat": 52.546324,
   "lng": 13.373398,
   "priority": "unbekannte Priorität"
 },
 {
   "id": "01S07",
   "title": "Charlotte-Pfeffer-Schule",
   "address": "Berolinastr. 8",
   "zip": 10178,
   "type": "Förderschwerp.\"Geistige Entwicklung\"",
   "icon": "fa-building-o",
   "color": "green",
   "costs": 0,
   "lat": 52.52226,
   "lng": 13.42328,
   "priority": "unbekannte Priorität"
 },
 {
   "id": "02S02",
   "title": "Gustav-Meyer-Schule",
   "address": "Kohlfurter Str. 22",
   "zip": 10999,
   "type": "Förderschwerp.\"Geistige Entwicklung\"",
   "icon": "fa-building-o",
   "color": "orange",
   "costs": 9190000,
   "lat": 52.497102,
   "lng": 13.416721,
   "priority": "Höchste Priorität"
 },
 {
   "id": "02G22",
   "title": "Jens-Nydahl-Grundschule",
   "address": "Kohlfurter Str. 20",
   "zip": 10999,
   "type": "Grundschule",
   "icon": "fa-building-o",
   "color": "orange",
   "costs": 8080000,
   "lat": 52.497294,
   "lng": 13.41619,
   "priority": "Höchste Priorität"
 },
 {
   "id": "03G03",
   "title": "Grundschule am Kollwitzplatz",
   "address": "Knaackstr. 67",
   "zip": 10435,
   "type": "Grundschule",
   "icon": "fa-building-o",
   "color": "blue",
   "costs": 1880000,
   "lat": 52.53768,
   "lng": 13.41489,
   "priority": "unbekannte Priorität"
 },
 {
   "id": "03S03",
   "title": "Helene-Haeusler-Schule",
   "address": "Mendelssohnstr. 10",
   "zip": 10405,
   "type": "Förderschwerp.\"Geistige Entwicklung\"",
   "icon": "fa-building-o",
   "color": "blue",
   "costs": 2300000,
   "lat": 52.5267,
   "lng": 13.42002,
   "priority": "unbekannte Priorität"
 },
 {
   "id": "01S01",
   "title": "Schule am Zille-Park",
   "address": "Ravenéstr. 10-12",
   "zip": 13347,
   "type": "Integrierte Sekundarschule",
   "icon": "fa-building-o",
   "color": "orange",
   "costs": 5420000,
   "lat": 52.542859,
   "lng": 13.372782,
   "priority": "Priorität 2 oder 3"
 },
 {
   "id": "02K10",
   "title": "Ferdinand-Freiligrath-Schule (Integrierte Sekundarschule)",
   "address": "Bergmannstr. 64",
   "zip": 10961,
   "type": "Integrierte Sekundarschule",
   "icon": "fa-building-o",
   "color": "orange",
   "costs": 5920000,
   "lat": 52.488798,
   "lng": 13.40149,
   "priority": "Höchste Priorität"
 },
 {
   "id": "01G37",
   "title": "Heinrich-Seidel-Grundschule",
   "address": "Ramlerstr. 9-10",
   "zip": 13355,
   "type": "Grundschule",
   "icon": "fa-building-o",
   "color": "orange",
   "costs": 8940000,
   "lat": 52.54695,
   "lng": 13.39407,
   "priority": "Höchste Priorität"
 },
 {
   "id": "01G44",
   "title": "Allegro-Grundschule",
   "address": "Lützowstr. 83-85",
   "zip": 10785,
   "type": "Grundschule",
   "icon": "fa-building-o",
   "color": "blue",
   "costs": 3900000,
   "lat": 52.503571,
   "lng": 13.363001,
   "priority": "unbekannte Priorität"
 },
 {
   "id": "02K02",
   "title": "Carl-von-Ossietzky-Schule (Gemeinschaftsschule)",
   "address": "Blücherstr. 46",
   "zip": 10961,
   "type": "Integrierte Sekundarschule",
   "icon": "fa-building-o",
   "color": "orange",
   "costs": 6460000,
   "lat": 52.491647,
   "lng": 13.404491,
   "priority": "Höchste Priorität"
 },
 {
   "id": "02G33",
   "title": "Aziz-Nesin-Grundschule",
   "address": "Urbanstr. 15",
   "zip": 10961,
   "type": "Grundschule",
   "icon": "fa-building-o",
   "color": "blue",
   "costs": 4510000,
   "lat": 52.49312,
   "lng": 13.40611,
   "priority": "unbekannte Priorität"
 },
 {
   "id": "02Y06",
   "title": "Leibniz-Gymnasium",
   "address": "Schleiermacherstr. 23",
   "zip": 10961,
   "type": "Gymnasium",
   "icon": "fa-building-o",
   "color": "orange",
   "costs": 6880000,
   "lat": 52.48978,
   "lng": 13.39747,
   "priority": "Höchste Priorität"
 },
 {
   "id": "02G21",
   "title": "Reinhardswald-Grundschule",
   "address": "Gneisenaustr. 73-74",
   "zip": 10961,
   "type": "Grundschule",
   "icon": "fa-building-o",
   "color": "orange",
   "costs": 9380000,
   "lat": 52.49059,
   "lng": 13.3999,
   "priority": "Höchste Priorität"
 },
 {
   "id": "03S01",
   "title": "Schule am Senefelderplatz",
   "address": "Schönhauser Allee 165",
   "zip": 10435,
   "type": "Förderschwerp.\"Lernen\"",
   "icon": "fa-building-o",
   "color": "blue",
   "costs": 3080000,
   "lat": 52.53452,
   "lng": 13.41187,
   "priority": "unbekannte Priorität"
 },
 {
   "id": "01G35",
   "title": "Humboldthain-Grundschule",
   "address": "Grenzstr. 7",
   "zip": 13355,
   "type": "Grundschule",
   "icon": "fa-building-o",
   "color": "orange",
   "costs": 5150000,
   "lat": 52.54323,
   "lng": 13.380143,
   "priority": "Priorität 2 oder 3"
 },
 {
   "id": "02G13",
   "title": "Charlotte-Salomon-Grundschule",
   "address": "Großbeerenstr. 40",
   "zip": 10965,
   "type": "Grundschule",
   "icon": "fa-building-o",
   "color": "blue",
   "costs": 4510000,
   "lat": 52.49041,
   "lng": 13.38183,
   "priority": "unbekannte Priorität"
 },
 {
   "id": "02G31",
   "title": "Adolf-Glaßbrenner-Grundschule",
   "address": "Hagelberger Str. 34",
   "zip": 10965,
   "type": "Grundschule",
   "icon": "fa-building-o",
   "color": "blue",
   "costs": 3570000,
   "lat": 52.49085,
   "lng": 13.38065,
   "priority": "unbekannte Priorität"
 },
 {
   "id": "02G20",
   "title": "Bürgermeister-Herz-Grundschule",
   "address": "Wilmsstr. 10",
   "zip": 10961,
   "type": "Grundschule",
   "icon": "fa-building-o",
   "color": "blue",
   "costs": 3380000,
   "lat": 52.49488,
   "lng": 13.40516,
   "priority": "unbekannte Priorität"
 },
 {
   "id": "01G39",
   "title": "Vineta-Grundschule",
   "address": "Demminer Str. 27",
   "zip": 13355,
   "type": "Grundschule",
   "icon": "fa-building-o",
   "color": "blue",
   "costs": 2150000,
   "lat": 52.54222,
   "lng": 13.3969,
   "priority": "unbekannte Priorität"
 },
 {
   "id": "02K04",
   "title": "Lina-Morgenstern-Schule (Gemeinschaftsschule)",
   "address": "Gneisenaustr. 7",
   "zip": 10961,
   "type": "Integrierte Sekundarschule",
   "icon": "fa-building-o",
   "color": "red",
   "costs": 10910000,
   "lat": 52.49178,
   "lng": 13.38971,
   "priority": "Höchste Priorität"
 },
 {
   "id": "03G16",
   "title": "Grundschule am Teutoburger Platz",
   "address": "Templiner Str. 1-3",
   "zip": 10119,
   "type": "Grundschule",
   "icon": "fa-building-o",
   "color": "blue",
   "costs": 80000,
   "lat": 52.533635,
   "lng": 13.408651,
   "priority": "unbekannte Priorität"
 },
 {
   "id": "02G16",
   "title": "Lenau-Grundschule",
   "address": "Nostitzstr. 60",
   "zip": 10961,
   "type": "Grundschule",
   "icon": "fa-building-o",
   "color": "red",
   "costs": 11630000,
   "lat": 52.49381,
   "lng": 13.39154,
   "priority": "Höchste Priorität"
 },
 {
   "id": "01G01",
   "title": "Grundschule am Arkonaplatz",
   "address": "Ruppiner Str. 47-48",
   "zip": 10115,
   "type": "Grundschule",
   "icon": "fa-building-o",
   "color": "blue",
   "costs": 2450000,
   "lat": 52.53684,
   "lng": 13.40039,
   "priority": "unbekannte Priorität"
 },
 {
   "id": "01K03",
   "title": "Ernst-Reuter-Schule",
   "address": "Stralsunder Str. 57",
   "zip": 13355,
   "type": "Integrierte Sekundarschule",
   "icon": "fa-building-o",
   "color": "red",
   "costs": 16740000,
   "lat": 52.538896,
   "lng": 13.394373,
   "priority": "Höchste Priorität"
 },
 {
   "id": "01G10",
   "title": "City-Grundschule",
   "address": "Sebastianstr. 57",
   "zip": 10179,
   "type": "Grundschule",
   "icon": "fa-building-o",
   "color": "blue",
   "costs": 90000,
   "lat": 52.50737,
   "lng": 13.40892,
   "priority": "unbekannte Priorität"
 },
 {
   "id": "01G38",
   "title": "Gustav-Falke-Grundschule",
   "address": "Strelitzer Str. 42",
   "zip": 13355,
   "type": "Grundschule",
   "icon": "fa-building-o",
   "color": "blue",
   "costs": 4260000,
   "lat": 52.53795,
   "lng": 13.39162,
   "priority": "unbekannte Priorität"
 },
 {
   "id": "02G24",
   "title": "Otto-Wels-Grundschule",
   "address": "Alexandrinenstr. 12",
   "zip": 10969,
   "type": "Grundschule",
   "icon": "fa-building-o",
   "color": "orange",
   "costs": 6240000,
   "lat": 52.499923,
   "lng": 13.401623,
   "priority": "Höchste Priorität"
 },
 {
   "id": "01Y02",
   "title": "John-Lennon-Gymnasium",
   "address": "Zehdenicker Str. 17",
   "zip": 10119,
   "type": "Gymnasium",
   "icon": "fa-building-o",
   "color": "blue",
   "costs": 4950000,
   "lat": 52.530923,
   "lng": 13.404105,
   "priority": "unbekannte Priorität"
 },
 {
   "id": "02K03",
   "title": "Hector-Peterson-Schule",
   "address": "Tempelhofer Ufer 15",
   "zip": 10963,
   "type": "Integrierte Sekundarschule",
   "icon": "fa-building-o",
   "color": "red",
   "costs": 10060000,
   "lat": 52.49832,
   "lng": 13.3841,
   "priority": "Priorität 2 oder 3"
 },
 {
   "id": "02G32",
   "title": "Clara-Grunwald-Grundschule",
   "address": "Hallesche Str. 24",
   "zip": 10963,
   "type": "Grundschule",
   "icon": "fa-building-o",
   "color": "blue",
   "costs": 3580000,
   "lat": 52.50077,
   "lng": 13.38313,
   "priority": "unbekannte Priorität"
 },
 {
   "id": "02G19",
   "title": "Fanny-Hensel-Grundschule",
   "address": "Schöneberger Str. 23",
   "zip": 10963,
   "type": "Grundschule",
   "icon": "fa-building-o",
   "color": "blue",
   "costs": 2180000,
   "lat": 52.50303,
   "lng": 13.38014,
   "priority": "unbekannte Priorität"
 },
 {
   "id": "01G02",
   "title": "Papageno-Grundschule",
   "address": "Bergstr. 58",
   "zip": 10115,
   "type": "Grundschule",
   "icon": "fa-building-o",
   "color": "blue",
   "costs": 2080000,
   "lat": 52.532833,
   "lng": 13.391048,
   "priority": "unbekannte Priorität"
 },
 {
   "id": "01G04",
   "title": "Kastanienbaum-Grundschule",
   "address": "Gipsstr. 23A",
   "zip": 10119,
   "type": "Grundschule",
   "icon": "fa-building-o",
   "color": "orange",
   "costs": 5360000,
   "lat": 52.52678,
   "lng": 13.4018,
   "priority": "Priorität 2 oder 3"
 },
 {
   "id": "02G14",
   "title": "Galilei-Grundschule",
   "address": "Friedrichstr. 13",
   "zip": 10969,
   "type": "Grundschule",
   "icon": "fa-building-o",
   "color": "blue",
   "costs": 4850000,
   "lat": 52.501885,
   "lng": 13.391531,
   "priority": "unbekannte Priorität"
 },
 {
   "id": "02S06",
   "title": "Liebmann-Schule",
   "address": "Friedrichstr. 13",
   "zip": 10969,
   "type": "Übrige Förderschwerpunkte",
   "icon": "fa-building-o",
   "color": "green",
   "costs": 0,
   "lat": 52.501885,
   "lng": 13.391531,
   "priority": "unbekannte Priorität"
 },
 {
   "id": "01G05",
   "title": "Grundschule Neues Tor",
   "address": "Hannoversche Str. 20",
   "zip": 10115,
   "type": "Grundschule",
   "icon": "fa-building-o",
   "color": "blue",
   "costs": 4100000,
   "lat": 52.52759,
   "lng": 13.38033,
   "priority": "unbekannte Priorität"
 },
 {
   "id": "01K07",
   "title": "Hemingway-Schule",
   "address": "Gartenstr. 10-17",
   "zip": 10115,
   "type": "Integrierte Sekundarschule",
   "icon": "fa-building-o",
   "color": "blue",
   "costs": 2880000,
   "lat": 52.530483,
   "lng": 13.391682,
   "priority": "unbekannte Priorität"
 },
 {
   "id": "01G46",
   "title": "Grundschule am Koppenplatz",
   "address": "Koppenplatz 12",
   "zip": 10115,
   "type": "Grundschule",
   "icon": "fa-building-o",
   "color": "orange",
   "costs": 5280000,
   "lat": 52.52778,
   "lng": 13.39745,
   "priority": "Priorität 2 oder 3"
 },
 {
   "id": "02G12",
   "title": "Kurt-Schumacher-Grundschule",
   "address": "Puttkamerstr. 19",
   "zip": 10969,
   "type": "Grundschule",
   "icon": "fa-building-o",
   "color": "orange",
   "costs": 9640000,
   "lat": 52.504384,
   "lng": 13.388493,
   "priority": "Höchste Priorität"
 },
 {
   "id": "01G08",
   "title": "Grundschule am Brandenburger Tor",
   "address": "Wilhelmstr. 52",
   "zip": 10117,
   "type": "Grundschule",
   "icon": "fa-building-o",
   "color": "orange",
   "costs": 5230000,
   "lat": 52.51318,
   "lng": 13.38276,
   "priority": "Priorität 2 oder 3"
 }
]