official_id;name;address;lat;lng;school_type;icon;color
5818;Abendschule St. Georg;Rostocker Straße 41, 20099 Hamburg;53.557215;10.015731;Abendgymnasiuym;fa-building-o;green
5819;Abendschule Vor dem Holstentor;Holstenglacis 6, 20355 Hamburg;53.558032;9.977063;Abendgymnasiuym;fa-building-o;green
5616;Adolph-Diesterweg-Schule;Felix-Jud-Ring 29, 21035 Hamburg;53.48722;10.147817;Grundschule;fa-building-o;green
5430;Adolph-Schönfelder-Schule;Zeisigstraße 3, 22081 Hamburg;53.577639;10.047449;Grundschule;fa-building-o;green
5810;Albert-Schweitzer-Gymnasium;Struckholt 27, 22337 Hamburg;53.628066;10.031383;Gymnasium;fa-building-o;green
5053;Albert-Schweitzer-Schule;Schluchtweg 1, 22337 Hamburg;53.632579;10.047345;Stadtteilschule;fa-building-o;green
5860;Albrecht-Thaer-Gymnasium;Wegenkamp 3, 22527 Hamburg;53.600474;9.925237;Gymnasium;fa-building-o;green
5840;Alexander-von-Humboldt-Gymnasium;Rönneburger Straße 50, 21079 Hamburg;53.438785;9.993343;Gymnasium;fa-building-o;green
7915;Alsterring Gymnasium;Wittenkamp 15, 22307 Hamburg;53.597049;10.048367;Gymnasium;fa-building-o;green
5603;Anton-Rée-Schule Allermöhe;Von-Haeften-Straße 1, 21035 Hamburg;53.487769;10.16727;Grundschule;fa-building-o;green
5100;Aueschule Finkenwerder;Ostfrieslandstraße 91, 21129 Hamburg;53.526983;9.884702;Grundschule;fa-building-o;green
8014;August-Hermann-Francke-Schule Bahrenfeld;Händelstraße 11, 22761 Hamburg;53.561996;9.907671;Grundschule;fa-building-o;green
8016;August-Hermann-Francke-Schule Bergedorf;Glasbläserhöfe 2, 21035 Hamburg;53.4829374;10.202108;Grundschule;fa-building-o;green
8015;August-Hermann-Francke-Schule Berne;Berner Allee 20, 22159 Hamburg;53.628827;10.133725;Grundschule;fa-building-o;green
8008;August-Hermann-Francke-Schule Farmsen;August-Krogmann-Straße 115, 22159 Hamburg;53.61493;10.114133;Grundschule;fa-building-o;green
8012;August-Hermann-Francke-Schule Uhlenhorst;Bachstraße 13, 22083 Hamburg;53.573279;10.028938;Stadtteilschule;fa-building-o;green
5418;Bildungszentrum für Blinde und Sehbehinderte;Carl-Cohn-Straße 2, 22303 Hamburg;53.601392;10.01186;Sonderschule;fa-building-o;green
7918;Bilinguale Grundschule PHORMS Hamburg;Wendenstraße 35, 20097 Hamburg;53.547458;10.02699;Grundschule;fa-building-o;green
8302;Bilinguales Gymnasium Phorms Hamburg;Wendenstraße 35, 20097 Hamburg;53.547458;10.02699;Gymnasium;fa-building-o;green
5097;Brüder-Grimm-Schule;Steinadlerweg 26, 22119 Hamburg;53.551606;10.106824;Stadtteilschule;fa-building-o;green
3229;Bugenhagen-Schule Alsterdorf (Grundschule);Alsterdorfer Straße 506, 22337 Hamburg;53.616453;10.027866;Grundschule;fa-building-o;green
3223;Bugenhagen-Schule Alsterdorf (Stadtteilschule);Alsterdorfer Straße 506, 22337 Hamburg;53.616453;10.027866;Stadtteilschule;fa-building-o;green
3218;Bugenhagen-Schule Alsterdorf, Schule für Kinder mit besonderem Förderbedarf;Alsterdorfer Straße 506, 22337 Hamburg;53.616453;10.027866;Sonderschule;fa-building-o;green
3231;Bugenhagen-Schule Groß Flottbek;Bei der Flottbeker Mühle 28, 22607 Hamburg;53.573012;9.869074;Grundschule;fa-building-o;green
3232;Bugenhagen-Schule Hamm, Evangelische Grundschule Paulus;Quellenweg 10, 20535 Hamburg;53.561475;10.059502;Grundschule;fa-building-o;green
3225;Bugenhagen-Schule im Hessepark (Grundschule);Oesterleystraße 22, 22587 Hamburg;53.562148;9.807543;Grundschule;fa-building-o;green
3233;Bugenhagen-Schule im Hessepark (Stadtteilschule);Oesterleystraße 22, 22587 Hamburg;53.562148;9.807543;Stadtteilschule;fa-building-o;green
7911;Bugenhagen-Schule Ottensen, Evangelische Grundschule an der Osterkirche;Bei der Osterkirche 17, 22765 Hamburg;53.555101;9.932323;Grundschule;fa-building-o;green
5462;Carl-Cohn-Schule;Carl-Cohn-Straße 2, 22297 Hamburg;53.601392;10.01186;Grundschule;fa-building-o;green
5463;Carl-Götze-Schule;Brödermannsweg 2, 22453 Hamburg;53.606962;9.977931;Grundschule;fa-building-o;green
5849;Carl-von-Ossietzky-Gymnasium;Müssenredder 59, 22399 Hamburg;53.655215;10.068211;Gymnasium;fa-building-o;green
5862;Charlotte-Paulsen-Gymnasium;Neumann-Reichardt-Straße 20, 22041 Hamburg;53.57252;10.078481;Gymnasium;fa-building-o;green
8501;Christian- Morgenstern- Schule (Stadtteilschule);Heinrichstraße 14, 22769 Hamburg;53.566061;9.957599;Stadtteilschule;fa-building-o;green
7909;Christian-Morgenstern-Schule (Grundschule);Heinrichstraße 14, 22769 Hamburg;53.566061;9.957599;Grundschule;fa-building-o;green
5813;Christianeum;Otto-Ernst-Straße 34, 22605 Hamburg;53.55805;9.874134;Gymnasium;fa-building-o;green
7706;Christophorus-Schule;Bergstedter Chaussee 205, 22395 Hamburg;53.675663;10.13557;Sonderschule;fa-building-o;green
5615;Clara-Grunwald-Schule;Walter-Rothenburg-Weg 37, 21035 Hamburg;53.485665;10.152028;Grundschule;fa-building-o;green
3230;Domschule St. Marien (Grundschule);Schmilinskystraße 70, 20099 Hamburg;53.557881;10.014614;Grundschule;fa-building-o;green
3202;Domschule St. Marien (Stadtteilschule);Schmilinskystraße 70, 20099 Hamburg;53.557881;10.014614;Stadtteilschule;fa-building-o;green
5742;Elbinselschule;Rahmwerder Straße 3, 21109 Hamburg;53.512144;10.019359;Grundschule;fa-building-o;green
5158;Elbkinder Grundschule;Grotefendweg 20, 22589 Hamburg;53.56673;9.829594;Grundschule;fa-building-o;green
5145;Elbschule Bildungszentrum Hören und Kommunikation;Holmbrook 20, 22605 Hamburg;53.552854;9.899005;Sonderschule;fa-building-o;green
5863;Emilie-Wüstenfeld-Gymnasium;Bundesstraße 78, 20144 Hamburg;53.570918;9.972009;Gymnasium;fa-building-o;green
5064;Erich Kästner Schule;An der Berner Au 12, 22159 Hamburg;53.619607;10.120114;Stadtteilschule;fa-building-o;green
3210;Franz-von-Assisi-Schule;Lämmersieth 38, 22305 Hamburg;53.585269;10.054826;Stadtteilschule;fa-building-o;green
5264;Fridtjof-Nansen-Schule;Swatten Weg 10, 22547 Hamburg;53.59945;9.858029;Grundschule;fa-building-o;green
5801;Friedrich-Ebert-Gymnasium;Alter Postweg 30, 21075 Hamburg;53.464992;9.965082;Gymnasium;fa-building-o;green
8106;Friedrich-Robbe-Institut;Bärenallee 15, 22041 Hamburg;53.569672;10.063457;Sonderschule;fa-building-o;green
5134;Fritz-Köhne-Schule;Marckmannstraße 61, 20539 Hamburg;53.535801;10.039874;Grundschule;fa-building-o;green
5065;Fritz-Schumacher-Schule;Foorthkamp 42, 22417 Hamburg;53.660023;10.012487;Stadtteilschule;fa-building-o;green
5747;Ganztagsgrundschule Am Johannisland;Am Johannisland 4, 21147 Hamburg;53.475995;9.854173;Grundschule;fa-building-o;green
5167;Ganztagsgrundschule Sternschanze;Ludwigstraße 7, 20357 Hamburg;53.559763;9.966051;Grundschule;fa-building-o;green
5212;Ganztagsschule an der Elbe;Struenseestraße 32, 22767 Hamburg;53.547502;9.945191;Grundschule;fa-building-o;green
5744;Ganztagsschule Fährstraße;Fährstraße 90, 21107 Hamburg;53.517166;9.98147;Grundschule;fa-building-o;green
5886;Gelehrtenschule des Johanneums;Maria-Louisen-Straße 114, 22301 Hamburg;53.589963;10.006038;Gymnasium;fa-building-o;green
5066;Geschwister-Scholl-Stadtteilschule;Böttcherkamp 181, 22549 Hamburg;53.591429;9.855568;Stadtteilschule;fa-building-o;green
5824;Goethe-Gymnasium;Rispenweg 28, 22547 Hamburg;53.598487;9.892536;Gymnasium;fa-building-o;green
5070;Goethe-Schule-Harburg;Bunatwiete 20, 21073 Hamburg;53.45631;9.982271;Stadtteilschule;fa-building-o;green
5127;Goldbek-Schule;Imstedt 18, 22083 Hamburg;53.579475;10.02837;Grundschule;fa-building-o;green
5232;Gorch-Fock-Schule;Karstenstraße 22, 22587 Hamburg;53.564438;9.801212;Grundschule;fa-building-o;green
5084;Gretel-Bergmann-Schule;Von-Moltke-Bogen 40, 21035 Hamburg;53.486129;10.160935;Stadtteilschule;fa-building-o;green
5501;Grundschule Altrahlstedt;Brockdorffstraße 64, 22149 Hamburg;53.595968;10.163651;Grundschule;fa-building-o;green
5111;Grundschule Am Heidberg;Tangstedter Landstraße 300, 22417 Hamburg;53.670945;10.028731;Grundschule;fa-building-o;green
5719;Grundschule am Kiefernberg;Weusthoffstraße 95, 21075 Hamburg;53.461274;9.957321;Grundschule;fa-building-o;green
5749;Grundschule An der Haake;Lange Striepen 51, 21147 Hamburg;53.476962;9.886229;Grundschule;fa-building-o;green
5118;Grundschule Archenholzstraße;Archenholzstraße 55, 22117 Hamburg;53.54374;10.119649;Grundschule;fa-building-o;green
5137;Grundschule Arnkielstraße;Arnkielstraße 2, 22769 Hamburg;53.564073;9.952837;Grundschule;fa-building-o;green
5331;Grundschule Bindfeldweg;Bindfeldweg 37, 22459 Hamburg;53.622937;9.946712;Grundschule;fa-building-o;green
5205;Grundschule Bramfeld;Bramfelder Dorfplatz 5, 22179 Hamburg;53.614126;10.077605;Grundschule;fa-building-o;green
5102;Grundschule Eckerkoppel;Berner Heerweg 99, 22159 Hamburg;53.598866;10.115957;Grundschule;fa-building-o;green
5074;Grundschule Edwin-Scharff-Ring;Edwin-Scharff-Ring 56, 22309 Hamburg;53.615419;10.047782;Grundschule;fa-building-o;green
5263;Grundschule Franzosenkoppel;Franzosenkoppel 118, 22547 Hamburg;53.608217;9.871529;Grundschule;fa-building-o;green
5231;Grundschule Goosacker;Goosacker 41, 22549 Hamburg;53.570968;9.849501;Grundschule;fa-building-o;green
5239;Grundschule Groß Flottbek;Osdorfer Weg 24, 22607 Hamburg;53.567321;9.894137;Grundschule;fa-building-o;green
5506;Grundschule Großlohering;Großlohering 11, 22143 Hamburg;53.600624;10.178152;Grundschule;fa-building-o;green
5136;Grundschule Hasenweg;Hasenweg 40, 22393 Hamburg;53.638285;10.118698;Grundschule;fa-building-o;green
5612;Grundschule Heidhorst;Heidhorst 16, 21031 Hamburg;53.516513;10.168694;Grundschule;fa-building-o;green
5304;Grundschule Hoheluft;Wrangelstraße 80, 20253 Hamburg;53.581466;9.967513;Grundschule;fa-building-o;green
5250;Grundschule Horn;Rhiemsweg 61, 22111 Hamburg;53.558812;10.075143;Grundschule;fa-building-o;green
5538;Grundschule Islandstraße;Islandstraße 25, 22145 Hamburg;53.629043;10.159966;Grundschule;fa-building-o;green
5208;Grundschule Karlshöhe mit Zweigstellen;Lienaustraße 32, 22175 Hamburg;53.629151;10.125543;Grundschule;fa-building-o;green
5117;Grundschule Kirchdorf;Prassekstraße 5, 21109 Hamburg;53.492697;10.009719;Grundschule;fa-building-o;green
5104;Grundschule Lohkampstraße;Lohkampstraße 145, 22523 Hamburg;53.613058;9.888585;Grundschule;fa-building-o;green
5270;Grundschule Luruper Hauptstraße;Luruper Hauptstraße 131, 22547 Hamburg;53.5983057;9.8542541;Grundschule;fa-building-o;green
5611;Grundschule Mendelstraße;Mendelstraße 6, 21031 Hamburg;53.506356;10.192654;Grundschule;fa-building-o;green
5058;Grundschule Mümmelmannsberg;Mümmelmannsberg 54, 22115 Hamburg;53.529506;10.140067;Grundschule;fa-building-o;green
5755;Grundschule Neugraben - Offene Ganztagsgrundschule (GBS);Francoper Straße 32, 21147 Hamburg;53.474585;9.864352;Grundschule;fa-building-o;green
5508;Grundschule Neurahlstedt;Stapelfelder Straße 7, 22143 Hamburg;53.605883;10.168621;Grundschule;fa-building-o;green
5252;Grundschule Nydamer Weg;Nydamer Weg 44, 22145 Hamburg;53.617305;10.154537;Grundschule;fa-building-o;green
5139;Grundschule Osterbrook;Osterbrook 17, 20537 Hamburg;53.549008;10.056307;Grundschule;fa-building-o;green
5143;Grundschule Poppenbüttel;Schulbergredder 21, 22399 Hamburg;53.658997;10.080423;Grundschule;fa-building-o;green
5059;Grundschule Rahewinkel;Rahewinkel 9, 22115 Hamburg;53.526622;10.154793;Grundschule;fa-building-o;green
5348;Grundschule Sachsenweg;Sachsenweg 74, 22455 Hamburg;53.641946;9.96027;Grundschule;fa-building-o;green
5220;Grundschule Schimmelmannstraße;Schimmelmannstraße 70, 22043 Hamburg;53.571551;10.102693;Grundschule;fa-building-o;green
5124;Grundschule St. Nikolai;Robert-Koch-Straße 15, 20249 Hamburg;53.588932;9.983726;Grundschule;fa-building-o;green
5103;Grundschule St.Pauli;Friedrichstraße 55, 20359 Hamburg;53.547707;9.958599;Grundschule;fa-building-o;green
5763;Grundschule Stübenhofer Weg;Stübenhofer Weg 20, 21109 Hamburg;53.483074;10.014632;Grundschule;fa-building-o;green
5214;Grundschule Thadenstraße;Thadenstraße 147, 22767 Hamburg;53.557082;9.954912;Grundschule;fa-building-o;green
5514;Grundschule Tonndorf;Rahlaukamp 1, 22045 Hamburg;53.58588;10.128393;Grundschule;fa-building-o;green
5881;Gymnasium Allee;Max-Brauer-Allee 83, 22765 Hamburg;53.554851;9.940882;Gymnasium;fa-building-o;green
5832;Gymnasium Allermöhe;Walter-Rothenburg-Weg 41, 21035 Hamburg;53.485845;10.153092;Gymnasium;fa-building-o;green
5811;Gymnasium Alstertal;Erdkampsweg 89, 22335 Hamburg;53.632737;10.018569;Gymnasium;fa-building-o;green
5830;Gymnasium Altona;Bleickenallee 5, 22763 Hamburg;53.550615;9.921174;Gymnasium;fa-building-o;green
5831;Gymnasium Blankenese;Oesterleystraße 27, 22587 Hamburg;53.562704;9.807773;Gymnasium;fa-building-o;green
5882;Gymnasium Bondenwald;Bondenwald 14, 22453 Hamburg;53.622366;9.938782;Gymnasium;fa-building-o;green
5838;Gymnasium Bornbrook;Schulenburgring 4, 21031 Hamburg;53.50786;10.194434;Gymnasium;fa-building-o;green
5812;Gymnasium Buckhorn;Im Regestall 25, 22359 Hamburg;53.66452;10.151184;Gymnasium;fa-building-o;green
5823;Gymnasium Corveystraße;Corveystraße 6, 22529 Hamburg;53.596781;9.969265;Gymnasium;fa-building-o;green
5859;Gymnasium Dörpsweg;Dörpsweg 10, 22527 Hamburg;53.607876;9.911962;Gymnasium;fa-building-o;green
5844;Gymnasium Eppendorf;Hegestraße 35, 20249 Hamburg;53.584888;9.9844;Gymnasium;fa-building-o;green
5885;Gymnasium Farmsen;Swebenhöhe 50, 22159 Hamburg;53.612011;10.109818;Gymnasium;fa-building-o;green
5856;Gymnasium Finkenwerder;Norderschulweg 18, 21129 Hamburg;53.531603;9.874973;Gymnasium;fa-building-o;green
5895;Gymnasium Grootmoor;Am Damm 47, 22175 Hamburg;53.630031;10.097457;Gymnasium;fa-building-o;green
5853;Gymnasium Hamm;Ebelingplatz 8, 20537 Hamburg;53.554569;10.046999;Gymnasium;fa-building-o;green
5835;Gymnasium Heidberg;Fritz-Schumacher-Allee 200, 22417 Hamburg;53.669934;10.030969;Gymnasium;fa-building-o;green
5887;Gymnasium Hochrad;Hochrad 2, 22605 Hamburg;53.554025;9.876215;Gymnasium;fa-building-o;green
5842;Gymnasium Hoheluft;Christian-Förster-Straße 19, 20253 Hamburg;53.582732;9.963209;Gymnasium;fa-building-o;green
5899;Gymnasium Hummelsbüttel;Hummelsbüttler Hauptstraße 107, 22339 Hamburg;53.647333;10.040988;Gymnasium;fa-building-o;green
5846;Gymnasium Kaiser-Friedrich-Ufer;Kaiser-Friedrich-Ufer 6, 20259 Hamburg;53.573406;9.966373;Gymnasium;fa-building-o;green
5866;Gymnasium Klosterschule;Westphalensweg 7, 20099 Hamburg;53.555768;10.025142;Gymnasium;fa-building-o;green
5868;Gymnasium Lerchenfeld;Finkenau 42, 22081 Hamburg;53.5684;10.032816;Gymnasium;fa-building-o;green
5847;Gymnasium Lohbrügge;An der Twiete 23, 21031 Hamburg;53.502654;10.203271;Gymnasium;fa-building-o;green
5898;Gymnasium Marienthal;Holstenhofweg 86, 22043 Hamburg;53.566721;10.1066;Gymnasium;fa-building-o;green
5890;Gymnasium Meiendorf;Schierenberg 60, 22145 Hamburg;53.624881;10.150905;Gymnasium;fa-building-o;green
5850;Gymnasium Oberalster;Alsterredder 26, 22395 Hamburg;53.658849;10.101151;Gymnasium;fa-building-o;green
5896;Gymnasium Ohlstedt;Sthamerstraße 55, 22397 Hamburg;53.693403;10.140887;Gymnasium;fa-building-o;green
5829;Gymnasium Ohmoor;Sachsenweg 76, 22455 Hamburg;53.642079;9.960346;Gymnasium;fa-building-o;green
5837;Gymnasium Oldenfelde;Birrenkovenallee 12, 22143 Hamburg;53.610609;10.159506;Gymnasium;fa-building-o;green
5897;Gymnasium Osterbek;Turnierstieg 24, 22179 Hamburg;53.600184;10.093516;Gymnasium;fa-building-o;green
5891;Gymnasium Othmarschen;Walderseestraße 99, 22605 Hamburg;53.554719;9.883955;Gymnasium;fa-building-o;green
5869;Gymnasium Rahlstedt;Scharbeutzer Straße 36, 22147 Hamburg;53.600743;10.145879;Gymnasium;fa-building-o;green
5809;Gymnasium Rissen;Voßhagen 15, 22559 Hamburg;53.580404;9.752433;Gymnasium;fa-building-o;green
5803;Gymnasium Süderelbe;Falkenbergsweg 5, 21149 Hamburg;53.470083;9.863995;Gymnasium;fa-building-o;green
5046;Gyula Trebitsch Schule Tonndorf;Barenkrug 16, 22159 Hamburg;53.59469;10.124487;Stadtteilschule;fa-building-o;green
5845;Hansa-Gymnasium Bergedorf;Hermann-Distel-Straße 25, 21029 Hamburg;53.49337;10.220179;Gymnasium;fa-building-o;green
8118;Haus des Lernens;Lienaustraße 14, 22159 Hamburg;53.627908;10.124184;Stadtteilschule;fa-building-o;green
5888;Heilwig-Gymnasium;Wilhelm-Metzger-Straße 4, 22297 Hamburg;53.604958;9.998888;Gymnasium;fa-building-o;green
5894;Heinrich-Heine-Gymnasium;Harksheider Straße 70, 22399 Hamburg;53.665243;10.073511;Gymnasium;fa-building-o;green
5062;Heinrich-Hertz-Schule;Grasweg 72, 22303 Hamburg;53.592979;10.010512;Stadtteilschule;fa-building-o;green
5105;Heinrich-Wolgast-Schule;Greifswalder Straße 40, 20099 Hamburg;53.556448;10.010887;Grundschule;fa-building-o;green
5814;Heisenberg-Gymnasium;Triftstraße 43, 21075 Hamburg;53.457194;9.944168;Gymnasium;fa-building-o;green
5864;Helene Lange Gymnasium;Bogenstraße 32, 20144 Hamburg;53.57365;9.974617;Gymnasium;fa-building-o;green
5807;Helmut-Schmidt-Gymnasium;Krieterstraße 5, 21109 Hamburg;53.499773;10.01352;Gymnasium;fa-building-o;green
5071;Ida Ehre Schule;Lehmweg 14, 20144 Hamburg;53.574695;9.979121;Stadtteilschule;fa-building-o;green
5052;Ilse-Löwenstein-Schule;Humboldtstraße 89, 22083 Hamburg;53.576682;10.022011;Stadtteilschule;fa-building-o;green
5839;Immanuel-Kant-Gymnasium;Am Pavillon 15, 21077 Hamburg;53.431565;9.967041;Gymnasium;fa-building-o;green
5069;Irena-Sendler-Schule;Am Pfeilshof 20, 22393 Hamburg;53.639928;10.103514;Stadtteilschule;fa-building-o;green
8301;Jenisch-Gymnasium;Jenischstraße 48, 22609 Hamburg;53.562519;9.854583;Gymnasium;fa-building-o;green
5822;Johannes-Brahms-Gymnasium;Höhnkoppelort 24, 22179 Hamburg;53.612768;10.082888;Gymnasium;fa-building-o;green
8004;Joseph-Carlebach-Schule (Grundschule);Grindelhof 30, 20146 Hamburg;53.568649;9.983728;Grundschule;fa-building-o;green
8007;Joseph-Carlebach-Schule (Stadtteilschule);Grindelhof 30, 20146 Hamburg;53.568649;9.983728;Stadtteilschule;fa-building-o;green
5067;Julius-Leber-Schule;Halstenbeker Straße 41, 22457 Hamburg;53.625006;9.903745;Stadtteilschule;fa-building-o;green
3212;Katharina-von-Siena-Schule;Eberhofweg 75, 22415 Hamburg;53.651919;10.014873;Grundschule;fa-building-o;green
5101;Katharinenschule in der Hafencity;Am Dalmannkai 18, 20457 Hamburg;53.542065;9.994563;Grundschule;fa-building-o;green
3217;Katholische Bonifatiusschule;Bonifatiusstraße 2, 21107 Hamburg;53.504744;9.98662;Stadtteilschule;fa-building-o;green
3204;Katholische Schule Altona;Dohrnweg 6, 22767 Hamburg;53.559409;9.956165;Stadtteilschule;fa-building-o;green
3207;Katholische Schule Am Weiher - St. Bonifatius;Am Weiher 29, 20255 Hamburg;53.577956;9.957578;Grundschule;fa-building-o;green
3215;Katholische Schule Bergedorf;Chrysanderstraße 40, 21029 Hamburg;53.49182;10.215631;Grundschule;fa-building-o;green
3206;Katholische Schule Blankenese;Mörikestraße 16, 22587 Hamburg;53.561828;9.822509;Grundschule;fa-building-o;green
3213;Katholische Schule Farmsen;Rahlstedter Weg 15, 22159 Hamburg;53.606716;10.12183;Grundschule;fa-building-o;green
3201;Katholische Schule Hammer Kirche;Bei der Hammer Kirche 10, 20535 Hamburg;53.556728;10.054931;Grundschule;fa-building-o;green
3216;Katholische Schule Harburg;Reeseberg 8, 21073 Hamburg;53.449812;9.988358;Stadtteilschule;fa-building-o;green
3208;Katholische Schule Hochallee;Hochallee 9, 20149 Hamburg;53.573465;9.985793;Grundschule;fa-building-o;green
3222;Katholische Schule Neugraben;Cuxhavener Straße 379, 21149 Hamburg;53.472025;9.8446;Stadtteilschule;fa-building-o;green
3211;Katholische Schule St. Antonius;Alsterdorfer Straße 71, 22299 Hamburg;53.59872;9.996569;Grundschule;fa-building-o;green
3214;Katholische Schule St. Joseph - Wandsbek;Böhmestraße 3, 22041 Hamburg;53.573872;10.076326;Grundschule;fa-building-o;green
3205;Katholische Schule St. Marien - Eulenstraße;Eulenstraße 68, 22763 Hamburg;53.551142;9.924064;Grundschule;fa-building-o;green
3203;Katholische Schule St. Paulus;Öjendorfer Weg 14, 22111 Hamburg;53.540571;10.107749;Stadtteilschule;fa-building-o;green
3209;Katholische Sophienschule;Elsastraße 46, 22083 Hamburg;53.579224;10.034378;Grundschule;fa-building-o;green
5417;Kurt-Juster-Schule;Alsterdorfer Straße 420, 22297 Hamburg;53.613954;10.020571;Sonderschule;fa-building-o;green
5800;Kurt-Körber-Gymnasium;Pergamentweg 1, 22117 Hamburg;53.541154;10.12098;Gymnasium;fa-building-o;green
5654;Kurt-Tucholsky-Schule;Eckernförder Straße 70, 22769 Hamburg;53.566655;9.946527;Stadtteilschule;fa-building-o;green
5664;Lessing-Stadtteilschule;Am Soldatenfriedhof 21, 21073 Hamburg;53.462811;9.976362;Stadtteilschule;fa-building-o;green
5825;Lise-Meitner-Gymnasium;Knabeweg 3, 22549 Hamburg;53.573042;9.856687;Gymnasium;fa-building-o;green
5210;Loki-Schmidt-Schule;Othmarscher Kirchenweg 145, 22763 Hamburg;53.553462;9.900346;Grundschule;fa-building-o;green
5206;Louise Schroeder Schule;Thedestraße 100, 22767 Hamburg;53.553685;9.949814;Grundschule;fa-building-o;green
5848;Luisen-Gymnasium Bergedorf;Reinbeker Weg 76, 21029 Hamburg;53.49231;10.228069;Gymnasium;fa-building-o;green
8013;Lycée Français de Hambourg 'Antoine de St. Exupéry' (Grundschule);Hartsprung 23, 22529 Hamburg;53.604141;9.958474;Grundschule;fa-building-o;green
8003;Lycée Français de Hambourg 'Antoine de St. Exupéry' (Gymnasium);Hartsprung 23, 22529 Hamburg;53.604141;9.958474;Gymnasium;fa-building-o;green
5834;Margaretha-Rothe-Gymnasium;Langenfort 5, 22307 Hamburg;53.599295;10.042722;Gymnasium;fa-building-o;green
5413;Marie-Beschütz-Schule;Schottmüllerstraße 23, 20251 Hamburg;53.591812;9.98564;Grundschule;fa-building-o;green
5841;Marion Dönhoff Gymnasium;Willhöden 74, 22587 Hamburg;53.57141;9.806883;Gymnasium;fa-building-o;green
5802;Matthias-Claudius-Gymnasium;Witthöfftstraße 8, 22041 Hamburg;53.57298;10.072872;Gymnasium;fa-building-o;green
5076;Max-Brauer-Schule;Daimlerstraße 40, 22761 Hamburg;53.570314;9.912774;Stadtteilschule;fa-building-o;green
5054;Max-Schmeling-Stadtteilschule;Oktaviostraße 143, 22043 Hamburg;53.567124;10.1038;Stadtteilschule;fa-building-o;green
5271;Max-Traeger-Schule;Baumacker 10, 22523 Hamburg;53.616075;9.898091;Grundschule;fa-building-o;green
8117;Michael Schule;Woellmerstraße 1, 21075 Hamburg;53.46531;9.959604;Sonderschule;fa-building-o;green
7920;Moderne Schule Hamburg (Grundschule);Brödermannsweg 17, 22453 Hamburg;53.605886;9.978596;Grundschule;fa-building-o;green
7921;Moderne Schule Hamburg (Gymnasium);Brödermannsweg 17, 22453 Hamburg;53.605886;9.978596;Gymnasium;fa-building-o;green
7916;Monaddrei-Schule Hamburg;Schäferkampsallee 27, 20357 Hamburg;53.568261;9.967796;Grundschule;fa-building-o;green
7708;Montessorischule Hamburg-Bergedorf;August-Bebel-Straße 196, 21029 Hamburg;53.480937;10.241404;Grundschule;fa-building-o;green
5072;Nelson-Mandela-Schule im Stadtteil Kirchdorf;Neuenfelder Straße 106, 21109 Hamburg;53.493162;10.013895;Stadtteilschule;fa-building-o;green
7910;Neue Schule Hamburg;Schimmelreiterweg 11, 22149 Hamburg;53.591862;10.181015;Stadtteilschule;fa-building-o;green
3224;Niels-Stensen-Gymnasium;Barlachstraße 16, 21073 Hamburg;53.45789;9.971421;Gymnasium;fa-building-o;green
7924;OKO Private School Talent-Schule Hamburg;Saarlandstraße 30, 22303 Hamburg;53.587594;10.033718;Gymnasium;fa-building-o;green
5670;Otto-Hahn-Schule;Jenfelder Allee 53, 22043 Hamburg;53.580364;10.126154;Stadtteilschule;fa-building-o;green
7715;Private Grundschule Brecht;Norderstraße 163, 20097 Hamburg;53.551065;10.018207;Grundschule;fa-building-o;green
7714;Private Stadtteilschule Brecht;Norderstraße 163, 20097 Hamburg;53.551065;10.018207;Stadtteilschule;fa-building-o;green
7703;Privates Gymnasium Brecht;Norderstraße 163, 20097 Hamburg;53.551065;10.018207;Gymnasium;fa-building-o;green
7707;Raphael-Schule;Quellental 25, 22609 Hamburg;53.552359;9.861204;Sonderschule;fa-building-o;green
5350;ReBBZ Altona;Sommerhuder Straße 18, 22767 Hamburg;53.562862;9.954003;Sonderschule;fa-building-o;green
5351;ReBBZ Altona-West;Böttcherkamp 144, 22549 Hamburg;53.592406;9.861976;Sonderschule;fa-building-o;green
5352;ReBBZ Bergedorf;Billwerder Billdeich 648 a, 21031 Hamburg;53.492724;10.185275;Sonderschule;fa-building-o;green
5356;ReBBZ Billstedt;Steinfeldtstraße 1, 22119 Hamburg;53.546881;10.101296;Sonderschule;fa-building-o;green
5353;ReBBZ Eimsbüttel;Bindfeldweg 37, 22459 Hamburg;53.622937;9.946712;Sonderschule;fa-building-o;green
5355;ReBBZ Harburg;Kapellenweg 63, 21073 Hamburg;53.45816;9.972548;Sonderschule;fa-building-o;green
5358;ReBBZ Mitte;Laeiszstraße 12, 20537 Hamburg;53.547164;10.04937;Sonderschule;fa-building-o;green
5360;ReBBZ Nord;Sengelmannstraße 50, 22297 Hamburg;53.614531;10.020026;Sonderschule;fa-building-o;green
5354;ReBBZ Süderelbe;Neumoorstück 2, 21147 Hamburg;53.478904;9.868113;Sonderschule;fa-building-o;green
5361;ReBBZ Wandsbek-Nord;Wildschwanbrook 9, 22175 Hamburg;53.627634;10.17108;Sonderschule;fa-building-o;green
5362;ReBBZ Wandsbek-Süd;Hammer Straße 124, 22043 Hamburg;53.563018;10.066009;Sonderschule;fa-building-o;green
5357;ReBBZ Wilhelmsburg;Krieterstraße 2 a, 21109 Hamburg;53.500272;10.013108;Sonderschule;fa-building-o;green
5359;ReBBZ Winterhude;Winterhuder Weg 11, 22335 Hamburg;53.631369;10.004938;Sonderschule;fa-building-o;green
5248;Rudolf-Roß-Grundschule;Kurze Straße 30, 20355 Hamburg;53.553031;9.978766;Grundschule;fa-building-o;green
8113;Rudolf-Steiner-Schule Altona;Bleickenallee 1, 22763 Hamburg;53.55055;9.922053;Stadtteilschule;fa-building-o;green
8115;Rudolf-Steiner-Schule Bergedorf;Am Brink 7, 21029 Hamburg;53.485116;10.216802;Stadtteilschule;fa-building-o;green
8112;Rudolf-Steiner-Schule Bergstedt;Bergstedter Chaussee 207, 22395 Hamburg;53.676324;10.135846;Stadtteilschule;fa-building-o;green
8114;Rudolf-Steiner-Schule Harburg;Ehestorfer Heuweg 82, 21149 Hamburg;53.461212;9.891795;Stadtteilschule;fa-building-o;green
8102;Rudolf-Steiner-Schule Nienstedten;Elbchaussee 366, 22609 Hamburg;53.549041;9.855735;Stadtteilschule;fa-building-o;green
8101;Rudolf-Steiner-Schule Wandsbek;Rahlstedter Weg 60, 22159 Hamburg;53.602838;10.127174;Stadtteilschule;fa-building-o;green
3219;Sankt-Ansgar-Schule;Bürgerweide 33, 20535 Hamburg;53.557509;10.031605;Gymnasium;fa-building-o;green
5532;Schule Ahrensburger Weg;Ahrensburger Weg 12, 22359 Hamburg;53.652032;10.170362;Grundschule;fa-building-o;green
5400;Schule Alsterdorfer Straße;Alsterdorfer Straße 39, 22299 Hamburg;53.596324;9.995858;Grundschule;fa-building-o;green
5520;Schule Alsterredder;Alsterredder 28, 22395 Hamburg;53.658655;10.099555;Grundschule;fa-building-o;green
5631;Schule Altengamme-Deich;Kirchenstegel 12, 21039 Hamburg;53.428618;10.27047;Grundschule;fa-building-o;green
5587;Schule am Eichtalpark;Walddörferstraße 243, 22047 Hamburg;53.58216;10.095787;Grundschule;fa-building-o;green
5172;Schule am Schleemer Park;Oberschleems 9, 22117 Hamburg;53.537435;10.119312;Grundschule;fa-building-o;green
5075;Schule am See;Gropiusring 43, 22309 Hamburg;53.61435;10.057353;Stadtteilschule;fa-building-o;green
5502;Schule Am Sooren;Brunskamp 17, 22149 Hamburg;53.592678;10.181092;Grundschule;fa-building-o;green
5522;Schule Am Walde;Kupferredder 12, 22397 Hamburg;53.697582;10.136258;Grundschule;fa-building-o;green
5525;Schule An den Teichwiesen;Saseler Weg 30, 22359 Hamburg;53.649383;10.148515;Grundschule;fa-building-o;green
5773;Schule an der Burgweide;Karl-Arnold-Ring 13, 21109 Hamburg;53.486789;10.023942;Grundschule;fa-building-o;green
5575;Schule An der Gartenstadt;Stephanstraße 103, 22047 Hamburg;53.589398;10.085903;Grundschule;fa-building-o;green
5160;Schule An der Glinder Au;Sonnenland 27, 22115 Hamburg;53.534304;10.131631;Grundschule;fa-building-o;green
5301;Schule An der Isebek;Bismarckstraße 83, 20253 Hamburg;53.575539;9.967867;Grundschule;fa-building-o;green
5557;Schule An der Seebek;Fabriciusstraße 150, 22177 Hamburg;53.605009;10.067146;Grundschule;fa-building-o;green
5330;Schule Anna-Susanna-Stieg;Anna-Susanna-Stieg 3, 22457 Hamburg;53.642336;9.918993;Grundschule;fa-building-o;green
5564;Schule Appelhoff;Appelhoff 2, 22309 Hamburg;53.607404;10.05896;Grundschule;fa-building-o;green
5753;Schule Arp-Schnitger-Stieg;Arp-Schnitger-Stieg 19, 21129 Hamburg;53.516199;9.810992;Grundschule;fa-building-o;green
5416;Schule auf der Uhlenhorst;Winterhuder Weg 126, 22085 Hamburg;53.577806;10.017883;Grundschule;fa-building-o;green
5099;Schule auf der Veddel;Slomanstieg 1, 20539 Hamburg;53.526857;10.019837;Stadtteilschule;fa-building-o;green
5202;Schule Bahrenfelder Straße;Gaußstraße 171, 22765 Hamburg;53.558542;9.926885;Grundschule;fa-building-o;green
5577;Schule Bandwirkerstraße;Bandwirkerstraße 56, 22041 Hamburg;53.576671;10.067148;Grundschule;fa-building-o;green
5280;Schule Barlsheide;Bornheide 2, 22549 Hamburg;53.583164;9.856698;Grundschule;fa-building-o;green
5130;Schule Beim Pachthof;Beim Pachthof 15, 22111 Hamburg;53.551564;10.082137;Grundschule;fa-building-o;green
5503;Schule Bekassinenau;Bekassinenau 32, 22147 Hamburg;53.611906;10.13694;Grundschule;fa-building-o;green
5515;Schule Bekkamp;Bekkamp 52, 22045 Hamburg;53.575188;10.142655;Sonderschule;fa-building-o;green
5526;Schule Bergstedt;Bergstedter Alte Landstraße 12, 22395 Hamburg;53.671962;10.132439;Grundschule;fa-building-o;green
5174;Schule Bonhoefferstraße;Bonhoefferstraße 13, 22117 Hamburg;53.54497;10.136732;Grundschule;fa-building-o;green
5578;Schule Bovestraße;Bovestraße 10, 22041 Hamburg;53.571996;10.080291;Grundschule;fa-building-o;green
5309;Schule Brehmweg;Brehmweg 62, 22527 Hamburg;53.584798;9.941182;Grundschule;fa-building-o;green
5504;Schule Brockdorffstraße;Brockdorffstraße 64, 22149 Hamburg;53.595968;10.163651;Grundschule;fa-building-o;green
5529;Schule Buckhorn;Volksdorfer Damm 74, 22359 Hamburg;53.664645;10.148661;Grundschule;fa-building-o;green
5332;Schule Burgunderweg;Burgunderweg 2, 22453 Hamburg;53.628338;9.96395;Grundschule;fa-building-o;green
5505;Schule Charlottenburger Straße;Charlottenburger Straße 84, 22045 Hamburg;53.586844;10.141767;Grundschule;fa-building-o;green
5743;Schule Cranz;Estebogen 3, 21129 Hamburg;53.529856;9.773472;Grundschule;fa-building-o;green
5634;Schule Curslack-Neuengamme;Gramkowweg 5, 21039 Hamburg;53.448569;10.219731;Grundschule;fa-building-o;green
5701;Schule Dempwolffstraße;Dempwolffstraße 7, 21073 Hamburg;53.458836;9.965013;Grundschule;fa-building-o;green
5334;Schule Döhrnstraße;Döhrnstraße 42, 22529 Hamburg;53.595995;9.956046;Grundschule;fa-building-o;green
5523;Schule Duvenstedter Markt;Duvenstedter Markt 12, 22397 Hamburg;53.703318;10.108214;Grundschule;fa-building-o;green
5464;Schule Eberhofweg;Eberhofweg 63, 22415 Hamburg;53.650781;10.013936;Grundschule;fa-building-o;green
5305;Schule Eduardstraße;Eduardstraße 28, 20257 Hamburg;53.571975;9.947138;Grundschule;fa-building-o;green
5551;Schule Eenstock;Eenstock 15, 22179 Hamburg;53.605332;10.094531;Grundschule;fa-building-o;green
5722;Schule Elfenwiese;Elfenwiese 3, 21077 Hamburg;53.439854;9.970486;Sonderschule;fa-building-o;green
5604;Schule Ernst-Henning-Straße;Ernst-Henning-Straße 20, 21029 Hamburg;53.484161;10.226782;Grundschule;fa-building-o;green
5533;Schule Eulenkrugstraße;Eulenkrugstraße 166, 22359 Hamburg;53.64436;10.183688;Grundschule;fa-building-o;green
5558;Schule Fahrenkrön;Fahrenkrön 115, 22179 Hamburg;53.616266;10.097775;Grundschule;fa-building-o;green
5404;Schule Forsmannstraße;Forsmannstraße 32, 22303 Hamburg;53.584468;10.013911;Grundschule;fa-building-o;green
5614;Schule Friedrich-Frank-Bogen;Friedrich-Frank-Bogen 25, 21033 Hamburg;53.492058;10.178256;Grundschule;fa-building-o;green
5335;Schule Frohmestraße;Frohmestraße 42, 22457 Hamburg;53.632555;9.920325;Grundschule;fa-building-o;green
5175;Schule Fuchsbergredder;Dringsheide 10, 22119 Hamburg;53.561538;10.121536;Grundschule;fa-building-o;green
5635;Schule Fünfhausen-Warwisch;Durchdeich 108, 21037 Hamburg;53.448519;10.133582;Grundschule;fa-building-o;green
5265;Schule Furtweg;Furtweg 56, 22523 Hamburg;53.605139;9.899997;Grundschule;fa-building-o;green
5437;Schule Genslerstraße;Ballerstaedtweg 1, 22307 Hamburg;53.611667;10.034489;Grundschule;fa-building-o;green
5704;Schule Grumbrechtstraße;Grumbrechtstraße 63, 21075 Hamburg;53.468524;9.955276;Grundschule;fa-building-o;green
5540;Schule Grützmühlenweg;Grützmühlenweg 38, 22339 Hamburg;53.64583;10.040549;Grundschule;fa-building-o;green
5581;Schule Hasselbrook;Ritterstraße 44, 22089 Hamburg;53.564476;10.045177;Grundschule;fa-building-o;green
5333;Schule Heidacker;Heidacker 13, 22523 Hamburg;53.619831;9.890048;Grundschule;fa-building-o;green
5530;Schule Hinsbleek;Hinsbleek 14, 22391 Hamburg;53.650404;10.07398;Grundschule;fa-building-o;green
5336;Schule Hinter der Lieth;Hinter der Lieth 61, 22529 Hamburg;53.60323;9.945369;Grundschule;fa-building-o;green
5219;Schule Hirtenweg;Holmbrook 10, 22605 Hamburg;53.55188;9.900276;Sonderschule;fa-building-o;green
5106;Schule Hohe Landwehr;Hohe Landwehr 19, 20535 Hamburg;53.557559;10.041138;Grundschule;fa-building-o;green
5405;Schule Humboldtstraße;Humboldtstraße 30, 22083 Hamburg;53.57346;10.027026;Grundschule;fa-building-o;green
5706;Schule In der Alten Forst;In der Alten Forst 1, 21077 Hamburg;53.449069;9.93533;Grundschule;fa-building-o;green
5234;Schule Iserbarg;Iserbarg 2, 22559 Hamburg;53.57503;9.760988;Grundschule;fa-building-o;green
5238;Schule Iserbrook;Musäusstraße 29, 22589 Hamburg;53.580445;9.812345;Grundschule;fa-building-o;green
5594;Schule Jenfelder Straße;Jenfelder Straße 252, 22045 Hamburg;53.576143;10.132927;Grundschule;fa-building-o;green
5507;Schule Kamminer Straße;Kamminer Straße 4, 22147 Hamburg;53.61829;10.141331;Grundschule;fa-building-o;green
5708;Schule Kapellenweg;Kapellenweg 63, 21077 Hamburg;53.445538;9.988124;Grundschule;fa-building-o;green
5710;Schule Kerschensteinerstraße;Kerschensteinerstraße 16, 21073 Hamburg;53.461707;9.973429;Grundschule;fa-building-o;green
5245;Schule Kielkamp;Kielkamp 16, 22761 Hamburg;53.573351;9.899402;Sonderschule;fa-building-o;green
5308;Schule Kielortallee;Bundesstraße 94, 20144 Hamburg;53.574695;9.979121;Grundschule;fa-building-o;green
5209;Schule Klein Flottbeker Weg;Klein Flottbeker Weg 64, 22605 Hamburg;53.553344;9.883931;Grundschule;fa-building-o;green
5409;Schule Knauerstraße;Knauerstraße 22, 20249 Hamburg;53.590139;9.990382;Grundschule;fa-building-o;green
5469;Schule Krohnstieg;Krohnstieg 107, 22415 Hamburg;53.647912;10.000299;Grundschule;fa-building-o;green
5278;Schule Kroonhorst;Kroonhorst 25, 22549 Hamburg;53.588594;9.846499;Grundschule;fa-building-o;green
5439;Schule Lämmersieth;Lämmersieth 72, 22305 Hamburg;53.588096;10.060373;Grundschule;fa-building-o;green
5267;Schule Langbargheide;Langbargheide 40, 22547 Hamburg;53.59633;9.88961;Grundschule;fa-building-o;green
5235;Schule Lehmkuhlenweg;Lehmkuhlenweg 19, 22589 Hamburg;53.584986;9.790668;Grundschule;fa-building-o;green
5535;Schule Lemsahl-Mellingstedt;Redderbarg 46, 22397 Hamburg;53.681422;10.103497;Grundschule;fa-building-o;green
5605;Schule Leuschnerstraße;Leuschnerstraße 13, 21031 Hamburg;53.49608;10.20698;Grundschule;fa-building-o;green
5346;Schule Lokstedter Damm;Lokstedter Damm 38, 22453 Hamburg;53.607202;9.971772;Sonderschule;fa-building-o;green
5310;Schule Lutterothstraße;Lutterothstraße 34, 20255 Hamburg;53.580956;9.953304;Grundschule;fa-building-o;green
5121;Schule Marckmannstraße;Marckmannstraße 60, 20539 Hamburg;53.535523;10.039775;Sonderschule;fa-building-o;green
5703;Schule Maretstraße;Maretstraße 50, 21073 Hamburg;53.453706;9.982173;Stadtteilschule;fa-building-o;green
5713;Schule Marmstorf;Ernst-Bergeest-Weg 54, 21077 Hamburg;53.438472;9.963522;Grundschule;fa-building-o;green
5236;Schule Marschweg;Marschweg 10, 22559 Hamburg;53.584595;9.761606;Grundschule;fa-building-o;green
5607;Schule Max-Eichholz-Ring;Max-Eichholz-Ring 25, 21031 Hamburg;53.506608;10.216842;Grundschule;fa-building-o;green
5237;Schule Mendelssohnstraße;Mendelssohnstraße 86, 22761 Hamburg;53.563704;9.905849;Grundschule;fa-building-o;green
5630;Schule Mittlerer Landweg;Mittlerer Landweg 48, 21033 Hamburg;53.498522;10.132803;Grundschule;fa-building-o;green
5339;Schule Molkenbuhrstraße;Molkenbuhrstraße 2, 22525 Hamburg;53.589222;9.925685;Grundschule;fa-building-o;green
5347;Schule Moorflagen;Wagrierweg 18, 22455 Hamburg;53.641941;9.944246;Grundschule;fa-building-o;green
5537;Schule Müssenredder;Müssenredder 61, 22399 Hamburg;53.654962;10.066364;Grundschule;fa-building-o;green
5610;Schule Nettelnburg;Fiddigshagen 11, 21035 Hamburg;53.480334;10.195053;Grundschule;fa-building-o;green
5472;Schule Neubergerweg;Neubergerweg 2, 22419 Hamburg;53.667588;10.002786;Grundschule;fa-building-o;green
5714;Schule Neuland;Neuländer Elbdeich 241, 21079 Hamburg;53.468637;10.03751;Grundschule;fa-building-o;green
5723;Schule Nymphenweg;Hausbrucher Bahnhofstraße 19, 21077 Hamburg;53.474398;9.893733;Sonderschule;fa-building-o;green
5644;Schule Ochsenwerder;Elversweg 44, 21037 Hamburg;53.471909;10.073588;Grundschule;fa-building-o;green
5473;Schule Ohkamp;Ohkampring 13, 22339 Hamburg;53.637005;10.022017;Grundschule;fa-building-o;green
5768;Schule Ohrnsweg;Ohrnsweg 52, 21149 Hamburg;53.471494;9.817175;Grundschule;fa-building-o;green
5586;Schule Öjendorfer Damm;Öjendorfer Damm 8, 22043 Hamburg;53.568011;10.135676;Grundschule;fa-building-o;green
5592;Schule Oppelner Straße;Oppelner Straße 45, 22045 Hamburg;53.573179;10.14442;Grundschule;fa-building-o;green
5447;Schule Paracelsusstraße;Paracelsusstraße 30, 22147 Hamburg;53.597654;10.136442;Sonderschule;fa-building-o;green
5510;Schule Potsdamer Straße;Potsdamer Straße 6, 22149 Hamburg;53.58408;10.150715;Grundschule;fa-building-o;green
5544;Schule Rahlstedter Höhe;Ahrenshooper Straße 1, 22147 Hamburg;53.600364;10.132015;Grundschule;fa-building-o;green
5480;Schule Ratsmühlendamm;Ratsmühlendamm 39, 22335 Hamburg;53.626234;10.020957;Grundschule;fa-building-o;green
5534;Schule Redder;Redder 4, 22393 Hamburg;53.651331;10.109241;Grundschule;fa-building-o;green
5312;Schule Rellinger Straße;Rellinger Straße 13, 20257 Hamburg;53.57414;9.942389;Grundschule;fa-building-o;green
5588;Schule Richardstraße;Richardstraße 85, 22089 Hamburg;53.568004;10.039956;Grundschule;fa-building-o;green
5707;Schule Rönneburg;Kanzlerstraße 25, 21079 Hamburg;53.439055;10.00758;Grundschule;fa-building-o;green
5328;Schule Rönnkamp;Rönnkamp 3, 22457 Hamburg;53.646856;9.920023;Grundschule;fa-building-o;green
5761;Schule Rotenhäuser Damm;Rotenhäuser Damm 45, 21107 Hamburg;53.511335;9.991511;Grundschule;fa-building-o;green
5211;Schule Rothestraße;Rothestraße 22, 22765 Hamburg;53.548568;9.928908;Grundschule;fa-building-o;green
5349;Schule Röthmoorweg;Röthmoorweg 9, 22459 Hamburg;53.627136;9.924784;Grundschule;fa-building-o;green
5274;Schule Rungwisch;Rungwisch 23, 22523 Hamburg;53.61131;9.911209;Grundschule;fa-building-o;green
5602;Schule Sander Straße;Sander Straße 11, 21029 Hamburg;53.49532;10.217435;Grundschule;fa-building-o;green
5718;Schule Scheeßeler Kehre;Scheeßeler Kehre 2, 21079 Hamburg;53.426707;9.987142;Grundschule;fa-building-o;green
5240;Schule Schenefelder Landstraße;Schenefelder Landstraße 206, 22589 Hamburg;53.577725;9.824234;Grundschule;fa-building-o;green
5762;Schule Schnuckendrift;Schnuckendrift 21, 21149 Hamburg;53.467194;9.838566;Grundschule;fa-building-o;green
5243;Schule Schulkamp;Schulkamp 1, 22609 Hamburg;53.553106;9.847219;Grundschule;fa-building-o;green
5342;Schule Sethweg;Sethweg 56, 22455 Hamburg;53.633267;9.943231;Grundschule;fa-building-o;green
5169;Schule Speckenreye;Speckenreye 11, 22119 Hamburg;53.554455;10.095461;Grundschule;fa-building-o;green
5171;Schule Stengelestraße;Hermannstal 82, 22111 Hamburg;53.550884;10.094971;Grundschule;fa-building-o;green
5173;Schule Sterntalerstraße;Sterntalerstraße 42, 22119 Hamburg;53.560032;10.112743;Grundschule;fa-building-o;green
5476;Schule Stockflethweg;Stockflethweg 160, 22417 Hamburg;53.679417;10.018655;Grundschule;fa-building-o;green
5541;Schule Strenge;Strenge 5, 22391 Hamburg;53.637098;10.078586;Grundschule;fa-building-o;green
5565;Schule Surenland;Bramfelder Weg 121, 22159 Hamburg;53.614164;10.106627;Grundschule;fa-building-o;green
5419;Schule Tegelweg;Turnierstieg 16, 22159 Hamburg;53.600861;10.095317;Sonderschule;fa-building-o;green
5315;Schule Tornquiststraße;Tornquiststraße 60, 20259 Hamburg;53.573549;9.95349;Grundschule;fa-building-o;green
5550;Schule Traberweg;Eckerkoppel 125, 22159 Hamburg;53.597263;10.101421;Grundschule;fa-building-o;green
5217;Schule Trenknerweg;Trenknerweg 136, 22605 Hamburg;53.548381;9.910484;Grundschule;fa-building-o;green
5316;Schule Turmweg;Turmweg 33, 20148 Hamburg;53.571372;9.991885;Grundschule;fa-building-o;green
5344;Schule Vizelinstraße;Vizelinstraße 50, 22529 Hamburg;53.588628;9.950638;Grundschule;fa-building-o;green
5345;Schule Wegenkamp;Wegenkamp 9, 22527 Hamburg;53.602844;9.924162;Grundschule;fa-building-o;green
5613;Schule Weidemoor;Weidemoor 1, 21033 Hamburg;53.512588;10.160052;Sonderschule;fa-building-o;green
5277;Schule Wesperloh;Wesperloh 19, 22549 Hamburg;53.575808;9.862337;Grundschule;fa-building-o;green
5591;Schule Wielandstraße;Wielandstraße 9, 22089 Hamburg;53.569992;10.054226;Grundschule;fa-building-o;green
5542;Schule Wildschwanbrook;Wildschwanbrook 9, 22145 Hamburg;53.627634;10.17108;Grundschule;fa-building-o;green
5244;Schule Windmühlenweg;Windmühlenweg 17, 22607 Hamburg;53.566878;9.870938;Grundschule;fa-building-o;green
5648;Schule Zollenspieker;Kirchenheerweg 223, 21037 Hamburg;53.400947;10.183876;Grundschule;fa-building-o;green
3220;Sophie-Barat-Schule;Warburgstraße 39, 20354 Hamburg;53.561991;9.995477;Gymnasium;fa-building-o;green
5056;Stadtteilschule Alter Teichweg;Alter Teichweg 200, 22049 Hamburg;53.587514;10.069987;Stadtteilschule;fa-building-o;green
5650;Stadtteilschule Altrahlstedt;Kielkoppelstraße 16 d, 22149 Hamburg;53.587823;10.16932;Stadtteilschule;fa-building-o;green
5667;Stadtteilschule Am Hafen;Struenseestraße 20, 20355 Hamburg;53.54791;9.947586;Stadtteilschule;fa-building-o;green
5049;Stadtteilschule Am Heidberg;Tangstedter Landstraße 300, 22417 Hamburg;53.670945;10.028731;Stadtteilschule;fa-building-o;green
5081;Stadtteilschule Bahrenfeld;Regerstraße 21, 22761 Hamburg;53.568163;9.908377;Stadtteilschule;fa-building-o;green
5662;Stadtteilschule Barmbek;Tieloh 28, 22049 Hamburg;53.592879;10.051575;Stadtteilschule;fa-building-o;green
5061;Stadtteilschule Bergedorf;Ladenbeker Weg 13, 21033 Hamburg;53.492832;10.187098;Stadtteilschule;fa-building-o;green
5048;Stadtteilschule Bergstedt;Volksdorfer Damm 218, 22395 Hamburg;53.671707;10.137188;Stadtteilschule;fa-building-o;green
5077;Stadtteilschule Blankenese;Frahmstraße 15, 22587 Hamburg;53.563791;9.822318;Stadtteilschule;fa-building-o;green
5656;Stadtteilschule Bramfeld;Hegholt 44, 22179 Hamburg;53.605936;10.081316;Stadtteilschule;fa-building-o;green
5651;Stadtteilschule Ehestorfer Weg;Ehestorfer Weg 14, 21075 Hamburg;53.455744;9.951632;Stadtteilschule;fa-building-o;green
5083;Stadtteilschule Eidelstedt;Niekampsweg 25, 22523 Hamburg;53.608656;9.896823;Stadtteilschule;fa-building-o;green
5090;Stadtteilschule Eppendorf;Löwenstraße 58, 20251 Hamburg;53.587233;9.973802;Stadtteilschule;fa-building-o;green
5080;Stadtteilschule Finkenwerder;Norderschulweg 14, 21129 Hamburg;53.532133;9.875982;Stadtteilschule;fa-building-o;green
5669;Stadtteilschule Fischbek/Falkenberg;Heidrand 5, 21149 Hamburg;53.46497;9.862042;Stadtteilschule;fa-building-o;green
5659;Stadtteilschule Flottbek;Goosacker 41, 22549 Hamburg;53.570968;9.849501;Stadtteilschule;fa-building-o;green
5663;Stadtteilschule Hamburg-Mitte;Griesstraße 101, 20099 Hamburg;53.564459;10.061234;Stadtteilschule;fa-building-o;green
5043;Stadtteilschule Helmuth Hübener;Langenfort 68, 22307 Hamburg;53.599413;10.048417;Stadtteilschule;fa-building-o;green
5063;Stadtteilschule Horn;Horner Weg 89, 22111 Hamburg;53.555403;10.069951;Stadtteilschule;fa-building-o;green
5087;Stadtteilschule Kirchwerder;Kirchwerder Hausdeich 341, 21037 Hamburg;53.419911;10.202118;Stadtteilschule;fa-building-o;green
5094;Stadtteilschule Lohbrügge;Binnenfeldredder 7, 21031 Hamburg;53.503794;10.207916;Stadtteilschule;fa-building-o;green
5661;Stadtteilschule Lurup;Veermoor 4, 22547 Hamburg;53.606741;9.874372;Stadtteilschule;fa-building-o;green
5098;Stadtteilschule Meiendorf;Deepenhorn 1, 22145 Hamburg;53.629096;10.164427;Stadtteilschule;fa-building-o;green
5057;Stadtteilschule Mümmelmannsberg;Mümmelmannsberg 75, 22115 Hamburg;53.52989;10.148621;Stadtteilschule;fa-building-o;green
5665;Stadtteilschule Niendorf;Sachsenweg 74, 22455 Hamburg;53.641946;9.96027;Stadtteilschule;fa-building-o;green
5089;Stadtteilschule Öjendorf;Pergamentweg 1, 22117 Hamburg;53.541154;10.12098;Stadtteilschule;fa-building-o;green
5660;Stadtteilschule Oldenfelde;Delingsdorfer Weg 6, 22143 Hamburg;53.612642;10.15806;Stadtteilschule;fa-building-o;green
5079;Stadtteilschule Poppenbüttel;Poppenbüttler Stieg 7, 22399 Hamburg;53.64515;10.05067;Stadtteilschule;fa-building-o;green
5657;Stadtteilschule Richard-Linde-Weg;Richard-Linde-Weg 49, 21033 Hamburg;53.500786;10.188463;Stadtteilschule;fa-building-o;green
5649;Stadtteilschule Rissen;Voßhagen 15, 22559 Hamburg;53.580404;9.752433;Stadtteilschule;fa-building-o;green
7801;Stadtteilschule St. Georg;Rostocker Straße 62, 20099 Hamburg;53.5577;10.016922;Stadtteilschule;fa-building-o;green
5655;Stadtteilschule Stellingen;Sportplatzring 73, 22527 Hamburg;53.594201;9.930022;Stadtteilschule;fa-building-o;green
5658;Stadtteilschule Stübenhofer Weg;Stübenhofer Weg 20, 21109 Hamburg;53.483074;10.014632;Stadtteilschule;fa-building-o;green
5093;Stadtteilschule Süderelbe;Neumoorstück 1, 21147 Hamburg;53.477901;9.867307;Stadtteilschule;fa-building-o;green
5085;Stadtteilschule Walddörfer;Vörn Barkholt 6, 22359 Hamburg;53.652119;10.166554;Stadtteilschule;fa-building-o;green
5095;Stadtteilschule Wilhelmsburg;Perlstieg 1, 21107 Hamburg;53.50428;9.993633;Stadtteilschule;fa-building-o;green
5088;Stadtteilschule Winterhude;Meerweinstraße 26, 22303 Hamburg;53.586985;10.026975;Stadtteilschule;fa-building-o;green
5216;Theodor-Haubach-Schule;Haubachstraße 55, 22765 Hamburg;53.559364;9.941483;Grundschule;fa-building-o;green
5816;Walddörfer-Gymnasium;Im Allhorn 45, 22359 Hamburg;53.65189;10.175431;Gymnasium;fa-building-o;green
5119;Westerschule Finkenwerder;Finkenwerder Landscheideweg 180, 21129 Hamburg;53.527914;9.863057;Grundschule;fa-building-o;green
8204;Wichern-Schule (Grundschule);Horner Weg 164, 22111 Hamburg;53.555078;10.069796;Grundschule;fa-building-o;green
8202;Wichern-Schule (Gymnasium);Horner Weg 164, 22111 Hamburg;53.555078;10.069796;Gymnasium;fa-building-o;green
8201;Wichern-Schule (Stadtteilschule);Horner Weg 164, 22111 Hamburg;53.555078;10.069796;Stadtteilschule;fa-building-o;green
5872;Wilhelm-Gymnasium;Klosterstieg 17, 20149 Hamburg;53.573991;9.99661;Gymnasium;fa-building-o;green
7917;Zukunftsschule Alsterpalais (Grundschule);Alsterdorfer Straße 523, 22337 Hamburg;53.618202;10.027869;Grundschule;fa-building-o;green
8502;Zukunftsschule Alsterpalais (Stadtteilschule);Alsterdorfer Straße 523, 22337 Hamburg;53.618202;10.027869;Stadtteilschule;fa-building-o;green