[
{"Schulnummer":"09G26","Schulname":"Schule an den Püttbergen (Grundschule)","PLZ":"12589","Strasse":"Fürstenwalder Allee 182","Kosten":5660000,"lat":52.43385,"lng":13.70158,"Schulart":"Grundschule","Prio":23},
{"Schulnummer":"09G20","Schulname":"Müggelheimer Schule (Grundschule)","PLZ":"12559","Strasse":"Odernheimer Str. 28","Kosten":4080000,"lat":52.41469,"lng":13.66739,"Schulart":"Grundschule","Prio":23},
{"Schulnummer":"09G29","Schulname":"Schmöckwitzer Insel-Schule (Grundschule)","PLZ":"12527","Strasse":"Adlergestell 776","Kosten":4640000,"lat":52.376769,"lng":13.647546,"Schulart":"Grundschule","Prio":23},
{"Schulnummer":"05G29","Schulname":"Mary-Poppins-Grundschule","PLZ":"14089","Strasse":"Am Flugplatz Gatow 20","Kosten":340000,"lat":52.472209,"lng":13.127426,"Schulart":"Grundschule","Prio":23},
{"Schulnummer":"06G05","Schulname":"Conrad-Schule (Grundschule)","PLZ":"14109","Strasse":"Schulstr. 4","Kosten":6180000,"lat":52.415181,"lng":13.146695,"Schulart":"Grundschule","Prio":23},
{"Schulnummer":"05Y03","Schulname":"Hans-Carossa-Gymnasium","PLZ":"14089","Strasse":"Am Landschaftspark Gatow 40","Kosten":3100000,"lat":52.47244,"lng":13.13028,"Schulart":"Gymnasium","Prio":23},
{"Schulnummer":"05G19","Schulname":"Grundschule am Ritterfeld","PLZ":"14089","Strasse":"Schallweg 31","Kosten":2560000,"lat":52.455239,"lng":13.138357,"Schulart":"Grundschule","Prio":23},
{"Schulnummer":"05K09","Schulname":"Schule am Staakener Kleeblatt (Integrierte Sekundarschule)","PLZ":"13591","Strasse":"Brunsbütteler Damm 431-437","Kosten":4840000,"lat":52.5349,"lng":13.13491,"Schulart":"Integrierte Sekundarschule","Prio":23},
{"Schulnummer":"09Y06","Schulname":"Gerhart-Hauptmann-Gymnasium","PLZ":"12587","Strasse":"Bruno-Wille-Str. 37-45","Kosten":6340000,"lat":52.45227,"lng":13.63269,"Schulart":"Gymnasium","Prio":23},
{"Schulnummer":"05G14","Schulname":"Linden-Grundschule","PLZ":"13591","Strasse":"Staakener Feldstr. 6-8","Kosten":4040000,"lat":52.53517,"lng":13.14081,"Schulart":"Grundschule","Prio":23},
{"Schulnummer":"09G24","Schulname":"Müggelsee-Schule (Grundschule)","PLZ":"12587","Strasse":"Aßmannstr. 63","Kosten":2870000,"lat":52.45072,"lng":13.62746,"Schulart":"Grundschule","Prio":23},
{"Schulnummer":"05G16","Schulname":"Zeppelin-Grundschule","PLZ":"13591","Strasse":"Heidebergplan 3-4","Kosten":3840000,"lat":52.5409,"lng":13.14635,"Schulart":"Grundschule","Prio":23},
{"Schulnummer":"10S08","Schulname":"Schule am Mummelsoll","PLZ":"12627","Strasse":"Eilenburger Str. 4","Kosten":0,"lat":52.540282,"lng":13.629414,"Schulart":"Förderschwerp.\"Geistige Entwicklung\"","Prio":23},
{"Schulnummer":"10G19","Schulname":"Bücherwurm-Schule am Weiher (Grundschule)","PLZ":"12627","Strasse":"Eilenburger Str. 1","Kosten":5930000,"lat":52.54068,"lng":13.62913,"Schulart":"Grundschule","Prio":23},
{"Schulnummer":"09S04","Schulname":"Ahorn-Schule","PLZ":"12587","Strasse":"Peter-Hille-Str. 118","Kosten":4020000,"lat":52.44782,"lng":13.61966,"Schulart":"Übrige Förderschwerpunkte","Prio":23},
{"Schulnummer":"09G27","Schulname":"Friedrichshagener Schule (Grundschule)","PLZ":"12587","Strasse":"Peter-Hille-Str. 7","Kosten":5030000,"lat":52.454606,"lng":13.621399,"Schulart":"Grundschule","Prio":23},
{"Schulnummer":"10G30","Schulname":"Mahlsdorfer Grundschule","PLZ":"12623","Strasse":"Feldrain 47","Kosten":3970000,"lat":52.522102,"lng":13.628787,"Schulart":"Grundschule","Prio":23},
{"Schulnummer":"09K05","Schulname":"Wilhelm-Bölsche-Schule (Integrierte Sekundarschule)","PLZ":"12587","Strasse":"Aßmannstr. 11","Kosten":6300000,"lat":52.45109,"lng":13.61894,"Schulart":"Integrierte Sekundarschule","Prio":23},
{"Schulnummer":"05G23","Schulname":"Grundschule am Brandwerder","PLZ":"13591","Strasse":"Spandauer Str. 86","Kosten":4010000,"lat":52.53595,"lng":13.15293,"Schulart":"Grundschule","Prio":23},
{"Schulnummer":"05G18","Schulname":"Grundschule im Beerwinkel","PLZ":"13589","Strasse":"Im Spektefeld 31","Kosten":7500000,"prio1":5160000,"lat":52.549023,"lng":13.154969,"Schulart":"Grundschule","Prio":1},
{"Schulnummer":"05K01","Schulname":"Martin-Buber-Oberschule (Integrierte Sekundarschule)","PLZ":"13589","Strasse":"Im Spektefeld 33","Kosten":12140000,"prio1":12140000,"lat":52.54895,"lng":13.1565,"Schulart":"Integrierte Sekundarschule","Prio":1},
{"Schulnummer":"05G17","Schulname":"Astrid-Lindgren-Grundschule","PLZ":"13591","Strasse":"Südekumzeile 5","Kosten":5090000,"lat":52.5311,"lng":13.15652,"Schulart":"Grundschule","Prio":23},
{"Schulnummer":"10K09","Schulname":"Konrad-Wachsmann-Schule","PLZ":"12627","Strasse":"Geithainer Str. 12","Kosten":3320000,"lat":52.529047,"lng":13.622082,"Schulart":"Integrierte Sekundarschule","Prio":23},
{"Schulnummer":"09G25","Schulname":"Müggelschlößchen-Schule (Grundschule)","PLZ":"12559","Strasse":"Alfred-Randt-Str. 56","Kosten":6960000,"prio1":5360000,"lat":52.43884,"lng":13.6059,"Schulart":"Grundschule","Prio":1},
{"Schulnummer":"10Y11","Schulname":"Melanchthon-Gymnasium","PLZ":"12627","Strasse":"Adele-Sandrock-Str. 73-75","Kosten":8090000,"lat":52.534367,"lng":13.618584,"Schulart":"Gymnasium","Prio":23},
{"Schulnummer":"10G22","Schulname":"Kolibri-Grundschule","PLZ":"12627","Strasse":"Schönewalder Str. 9","Kosten":0,"lat":52.532527,"lng":13.618558,"Schulart":"Grundschule","Prio":23},
{"Schulnummer":"05G25","Schulname":"Grundschule am Wasserwerk","PLZ":"13589","Strasse":"Pionierstr. 197","Kosten":3240000,"lat":52.55625,"lng":13.16467,"Schulart":"Grundschule","Prio":23},
{"Schulnummer":"05S04","Schulname":"Schule am Stadtrand","PLZ":"13589","Strasse":"Pionierstr. 197","Kosten":0,"lat":52.55625,"lng":13.16467,"Schulart":"Übrige Förderschwerpunkte","Prio":23},
{"Schulnummer":"06G09","Schulname":"Dreilinden-Grundschule","PLZ":"14109","Strasse":"Dreilindenstr. 65","Kosten":400000,"lat":52.4205,"lng":13.18369,"Schulart":"Grundschule","Prio":23},
{"Schulnummer":"10G26","Schulname":"Friedrich-Schiller-Grundschule","PLZ":"12623","Strasse":"An der Schule 13-17","Kosten":3690000,"lat":52.5115,"lng":13.614782,"Schulart":"Grundschule","Prio":23},
{"Schulnummer":"06Y04","Schulname":"Dreilinden-Gymnasium","PLZ":"14109","Strasse":"Dreilindenstr. 49","Kosten":9320000,"prio1":9320000,"lat":52.42057,"lng":13.18778,"Schulart":"Gymnasium","Prio":1},
{"Schulnummer":"09G16","Schulname":"Wendenschloß-Schule (Grundschule)","PLZ":"12557","Strasse":"Köpenzeile 123","Kosten":4470000,"lat":52.42845,"lng":13.5953,"Schulart":"Grundschule","Prio":23},
{"Schulnummer":"05G26","Schulname":"Grundschule am Amalienhof","PLZ":"13593","Strasse":"Weinmeisterhornweg 122","Kosten":3650000,"lat":52.51289,"lng":13.1667,"Schulart":"Grundschule","Prio":23},
{"Schulnummer":"05G22","Schulname":"Christian-Morgenstern-Grundschule","PLZ":"13593","Strasse":"Räcknitzer Steig 12","Kosten":1800000,"lat":52.5227,"lng":13.16816,"Schulart":"Grundschule","Prio":23},
{"Schulnummer":"10G32","Schulname":"Kiekemal-Schule (Grundschule)","PLZ":"12623","Strasse":"Hultschiner Damm 219","Kosten":330000,"lat":52.49407,"lng":13.60915,"Schulart":"Grundschule","Prio":23},
{"Schulnummer":"10G25","Schulname":"Grundschule am Schleipfuhl","PLZ":"12627","Strasse":"Nossener Str. 85","Kosten":4130000,"lat":52.52913,"lng":13.6081,"Schulart":"Grundschule","Prio":23},
{"Schulnummer":"05K05","Schulname":"B.-Traven-Gemeinschaftsschule","PLZ":"13583","Strasse":"Recklinghauser Weg 26-32","Kosten":10320000,"prio1":10320000,"lat":52.5469,"lng":13.17403,"Schulart":"Integrierte Sekundarschule","Prio":1},
{"Schulnummer":"05G24","Schulname":"Grundschule am Windmühlenberg","PLZ":"14089","Strasse":"Am Kinderdorf 23-37","Kosten":3300000,"lat":52.48547,"lng":13.17431,"Schulart":"Grundschule","Prio":23},
{"Schulnummer":"05G06","Schulname":"Siegerland-Grundschule","PLZ":"13589","Strasse":"Hermann-Schmidt-Weg 4","Kosten":5410000,"lat":52.55125,"lng":13.175203,"Schulart":"Grundschule","Prio":23},
{"Schulnummer":"05G12","Schulname":"Grundschule am Weinmeisterhorn","PLZ":"13593","Strasse":"Daberkowstr. 27","Kosten":4240000,"lat":52.50825,"lng":13.1742,"Schulart":"Grundschule","Prio":23},
{"Schulnummer":"05K02","Schulname":"Carlo-Schmid-Oberschule (Integrierte Sekundarschule)","PLZ":"13581","Strasse":"Lutoner Str. 15-19","Kosten":12710000,"prio1":12710000,"lat":52.5259,"lng":13.17464,"Schulart":"Integrierte Sekundarschule","Prio":1},
{"Schulnummer":"09G14","Schulname":"Schule am Buntzelberg (Grundschule)","PLZ":"12526","Strasse":"Schulzendorfer Str. 112","Kosten":4500000,"lat":52.40671,"lng":13.57427,"Schulart":"Grundschule","Prio":23},
{"Schulnummer":"10S07","Schulname":"Schule am Rosenhain","PLZ":"12627","Strasse":"Klingenthaler Str. 32","Kosten":2630000,"lat":52.53,"lng":13.60199,"Schulart":"Integrierte Sekundarschule","Prio":23},
{"Schulnummer":"09G19","Schulname":"Amtsfeld-Schule (Grundschule)","PLZ":"12559","Strasse":"Pablo-Neruda-Str. 8","Kosten":2980000,"lat":52.44262,"lng":13.58891,"Schulart":"Grundschule","Prio":23},
{"Schulnummer":"09Y11","Schulname":"Emmy-Noether-Gymnasium","PLZ":"12559","Strasse":"Pablo-Neruda-Str. 6-7","Kosten":6250000,"lat":52.44275,"lng":13.588735,"Schulart":"Gymnasium","Prio":23},
{"Schulnummer":"10G18","Schulname":"Pusteblume-Grundschule","PLZ":"12627","Strasse":"Kastanienallee 118","Kosten":0,"lat":52.54256,"lng":13.6001,"Schulart":"Grundschule","Prio":23},
{"Schulnummer":"05G04","Schulname":"Klosterfeld-Grundschule","PLZ":"13583","Strasse":"Seegefelder Str. 125","Kosten":2480000,"lat":52.53861,"lng":13.17968,"Schulart":"Grundschule","Prio":23},
{"Schulnummer":"09K09","Schulname":"Grünauer Schule (Gemeinschaftsschule)","PLZ":"12527","Strasse":"Walchenseestr. 40","Kosten":6330000,"lat":52.419368,"lng":13.576124,"Schulart":"Integrierte Sekundarschule","Prio":23},
{"Schulnummer":"05G10","Schulname":"Grundschule am Birkenhain","PLZ":"13581","Strasse":"Seeburger Str. 59","Kosten":2580000,"lat":52.52596,"lng":13.180519,"Schulart":"Grundschule","Prio":23},
{"Schulnummer":"09K03","Schulname":"Fritz-Kühn-Schule (Integrierte Sekundarschule)","PLZ":"12526","Strasse":"Dahmestr. 45","Kosten":3380000,"lat":52.40141,"lng":13.5647,"Schulart":"Integrierte Sekundarschule","Prio":23},
{"Schulnummer":"10K05","Schulname":"Jean-Piaget-Schule","PLZ":"12629","Strasse":"Mittenwalder Str. 5","Kosten":7390000,"lat":52.54542,"lng":13.59615,"Schulart":"Integrierte Sekundarschule","Prio":23},
{"Schulnummer":"10K10","Schulname":"Wolfgang-Amadeus-Mozart-Schule (Gemeinschaftsschule)","PLZ":"12627","Strasse":"Cottbusser Str. 23","Kosten":6290000,"lat":52.53699,"lng":13.59663,"Schulart":"Integrierte Sekundarschule","Prio":23},
{"Schulnummer":"10G28","Schulname":"Grundschule am Hollerbusch","PLZ":"12619","Strasse":"Erich-Kästner-Str. 64","Kosten":7280000,"lat":52.52593,"lng":13.59512,"Schulart":"Grundschule","Prio":23},
{"Schulnummer":"05K08","Schulname":"Schule an der Haveldüne (Integrierte Sekundarschule)","PLZ":"13595","Strasse":"Jaczostr. 53-67","Kosten":14500000,"prio1":7830000,"lat":52.51098,"lng":13.18567,"Schulart":"Integrierte Sekundarschule","Prio":1},
{"Schulnummer":"09A01","Schulname":"1. Schulpraktisches Seminar Treptow-Köpenick","PLZ":"12557","Strasse":"Luisenstr. 16","Kosten":0,"lat":52.44107,"lng":13.57814,"Schulart":"Schulpraktisches Seminar","Prio":23},
{"Schulnummer":"10Y08","Schulname":"Sartre-Gymnasium","PLZ":"12629","Strasse":"Kyritzer Str. 103","Kosten":540000,"lat":52.54332,"lng":13.59106,"Schulart":"Gymnasium","Prio":23},
{"Schulnummer":"10K07","Schulname":"Caspar-David-Friedrich-Schule","PLZ":"12629","Strasse":"Alte Hellersdorfer Str. 7","Kosten":1130000,"lat":52.535223,"lng":13.591017,"Schulart":"Integrierte Sekundarschule","Prio":23},
{"Schulnummer":"10G17","Schulname":"Beatrix-Potter-Grundschule","PLZ":"12629","Strasse":"Ludwigsfelder Str. 7","Kosten":5630000,"lat":52.54682,"lng":13.58926,"Schulart":"Grundschule","Prio":23},
{"Schulnummer":"09G23","Schulname":"Hauptmann-von-Köpenick-Schule (Grundschule)","PLZ":"12555","Strasse":"Borgmannstr. 2","Kosten":1490000,"lat":52.45624,"lng":13.58095,"Schulart":"Grundschule","Prio":23},
{"Schulnummer":"05G21","Schulname":"Paul Moor Schule","PLZ":"13595","Strasse":"Adamstr. 24-25","Kosten":0,"lat":52.521,"lng":13.19029,"Schulart":"Grundschule","Prio":23},
{"Schulnummer":"05S02","Schulname":"Paul-Moor-Schule","PLZ":"13595","Strasse":"Adamstr. 24-25","Kosten":3890000,"lat":52.521,"lng":13.19029,"Schulart":"Förderschwerp.\"Lernen\"","Prio":23},
{"Schulnummer":"05G09","Schulname":"Schule am Grüngürtel","PLZ":"13585","Strasse":"Askanierring 42","Kosten":0,"lat":52.549099,"lng":13.1934,"Schulart":"Grundschule","Prio":23},
{"Schulnummer":"05S01","Schulname":"Schule am Grüngürtel","PLZ":"13585","Strasse":"Askanierring 42","Kosten":2780000,"lat":52.549099,"lng":13.1934,"Schulart":"Förderschwerp.\"Lernen\"","Prio":23},
{"Schulnummer":"05G15","Schulname":"Askanier-Grundschule","PLZ":"13583","Strasse":"Borkzeile 34","Kosten":6390000,"prio1":5880000,"lat":52.54049,"lng":13.19242,"Schulart":"Grundschule","Prio":1},
{"Schulnummer":"05G08","Schulname":"Konkordia-Grundschule","PLZ":"13581","Strasse":"Elsflether Weg 26","Kosten":4880000,"lat":52.53018,"lng":13.19202,"Schulart":"Grundschule","Prio":23},
{"Schulnummer":"06Y05","Schulname":"Werner-von-Siemens-Oberschule","PLZ":"14129","Strasse":"Beskidenstr. 3","Kosten":9310000,"prio1":9310000,"lat":52.43194,"lng":13.21159,"Schulart":"Gymnasium","Prio":1},
{"Schulnummer":"05G20","Schulname":"Carl-Schurz-Grundschule","PLZ":"13587","Strasse":"Hakenfelder Str. 32","Kosten":4310000,"lat":52.56751,"lng":13.199061,"Schulart":"Grundschule","Prio":23},
{"Schulnummer":"10K02","Schulname":"Ernst-Haeckel-Schule","PLZ":"12629","Strasse":"Luckenwalder Str. 53","Kosten":10250000,"lat":52.54322,"lng":13.58574,"Schulart":"Integrierte Sekundarschule","Prio":23},
{"Schulnummer":"05K03","Schulname":"Bertolt-Brecht-Oberschule (Integrierte Sekundarschule)","PLZ":"13595","Strasse":"Wilhelmstr. 10","Kosten":10580000,"prio1":10580000,"lat":52.525308,"lng":13.192692,"Schulart":"Integrierte Sekundarschule","Prio":1},
{"Schulnummer":"05K04","Schulname":"Heinrich-Böll-Oberschule (Integrierte Sekundarschule)","PLZ":"13587","Strasse":"Am Forstacker 9-11","Kosten":1600000,"lat":52.565166,"lng":13.199033,"Schulart":"Integrierte Sekundarschule","Prio":23},
{"Schulnummer":"06G03","Schulname":"Johannes-Tews-Grundschule","PLZ":"14129","Strasse":"Wasgenstr. 50","Kosten":9540000,"prio1":7440000,"lat":52.43162,"lng":13.21262,"Schulart":"Grundschule","Prio":1},
{"Schulnummer":"05G05","Schulname":"Christoph-Földerich-Grundschule","PLZ":"13595","Strasse":"Földerichplatz 5","Kosten":7860000,"lat":52.51986,"lng":13.193276,"Schulart":"Grundschule","Prio":23},
{"Schulnummer":"10K08","Schulname":"Johann-Julius-Hecker-Schule","PLZ":"12689","Strasse":"Hohenwalder Str. 2","Kosten":360000,"lat":52.56993,"lng":13.57866,"Schulart":"Integrierte Sekundarschule","Prio":23},
{"Schulnummer":"10K03","Schulname":"Kerschensteiner-Schule","PLZ":"12689","Strasse":"Golliner Str. 2","Kosten":5130000,"lat":52.56681,"lng":13.579505,"Schulart":"Integrierte Sekundarschule","Prio":23},
{"Schulnummer":"09G17","Schulname":"Uhlenhorst-Grundschule","PLZ":"12555","Strasse":"Wongrowitzer Steig 37","Kosten":1360000,"lat":52.467512,"lng":13.579352,"Schulart":"Grundschule","Prio":23},
{"Schulnummer":"09G13","Schulname":"Schule am Altglienicker Wasserturm (Grundschule)","PLZ":"12524","Strasse":"Sachsenstr. 22","Kosten":4440000,"lat":52.41079,"lng":13.55406,"Schulart":"Grundschule","Prio":23},
{"Schulnummer":"09S05","Schulname":"Schule am Altglienicker Wasserturm (Förderzentrum)","PLZ":"12524","Strasse":"Sachsenstr. 22","Kosten":0,"lat":52.41079,"lng":13.55406,"Schulart":"Förderschwerp.\"Lernen\"","Prio":23},
{"Schulnummer":"05K06","Schulname":"Wolfgang-Borchert-Schule (Integrierte Sekundarschule)","PLZ":"13585","Strasse":"Blumenstr. 13","Kosten":4160000,"lat":52.54571,"lng":13.1967,"Schulart":"Integrierte Sekundarschule","Prio":23},
{"Schulnummer":"05G02","Schulname":"Grundschule am Eichenwald","PLZ":"13587","Strasse":"Gaismannshofer Weg 2","Kosten":6710000,"lat":52.558423,"lng":13.199146,"Schulart":"Grundschule","Prio":23},
{"Schulnummer":"05G03","Schulname":"Birken-Grundschule","PLZ":"13585","Strasse":"Hügelschanze 8-9","Kosten":7950000,"prio1":6600000,"lat":52.54863,"lng":13.19756,"Schulart":"Grundschule"},
{"Schulnummer":"05G30","Schulname":"30. Schule","PLZ":"13585","Strasse":"Hügelschanze 8-9","Kosten":0,"lat":52.54863,"lng":13.19756,"Schulart":"Grundschule","Prio":23,"Prio":1},
{"Schulnummer":"10G08","Schulname":"Wilhelm-Busch-Grundschule","PLZ":"12679","Strasse":"Parsteiner Ring 24","Kosten":3470000,"lat":52.55325,"lng":13.58137,"Schulart":"Grundschule","Prio":23},
{"Schulnummer":"09K01","Schulname":"Merian-Schule (Integrierte Sekundarschule)","PLZ":"12555","Strasse":"Hoernlestr. 80","Kosten":12080000,"lat":52.46431,"lng":13.57643,"Schulart":"Integrierte Sekundarschule","Prio":23},
{"Schulnummer":"09K08","Schulname":"Schule an der Dahme (Integrierte Sekundarschule)","PLZ":"12557","Strasse":"Glienicker Str. 24 -30","Kosten":5240000,"lat":52.44056,"lng":13.56727,"Schulart":"Integrierte Sekundarschule","Prio":23},
{"Schulnummer":"05Y01","Schulname":"Freiherr-vom-Stein-Gymnasium","PLZ":"13597","Strasse":"Galenstr. 40-44","Kosten":0,"lat":52.539684,"lng":13.198479,"Schulart":"Gymnasium","Prio":23},
{"Schulnummer":"10G33","Schulname":"Ulmen-Grundschule","PLZ":"12621","Strasse":"Ulmenstr. 79-85","Kosten":4350000,"lat":52.48584,"lng":13.58006,"Schulart":"Grundschule","Prio":23},
{"Schulnummer":"05G27","Schulname":"Charlie-Rivel-Grundschule","PLZ":"13585","Strasse":"Flankenschanze 20","Kosten":670000,"lat":52.543893,"lng":13.1996,"Schulart":"Grundschule","Prio":23},
{"Schulnummer":"05Y05","Schulname":"Lily-Braun-Gymnasium","PLZ":"13597","Strasse":"Münsingerstr. 2","Kosten":20000,"lat":52.538567,"lng":13.199029,"Schulart":"Gymnasium","Prio":23},
{"Schulnummer":"12K11","Schulname":"Albrecht-Haushofer-Schule","PLZ":"13503","Strasse":"Kurzebracker Weg 40-46","Kosten":11870000,"lat":52.61914,"lng":13.22771,"Schulart":"Integrierte Sekundarschule","Prio":23},
{"Schulnummer":"09Y05","Schulname":"Alexander-von-Humboldt-Gymnasium","PLZ":"12555","Strasse":"Oberspreestr. 173","Kosten":7520000,"lat":52.445252,"lng":13.566972,"Schulart":"Gymnasium","Prio":23},
{"Schulnummer":"09G18","Schulname":"Schule in der Köllnischen Vorstadt (Grundschule)","PLZ":"12557","Strasse":"Rudower Str. 201","Kosten":3010000,"lat":52.43946,"lng":13.56429,"Schulart":"Grundschule","Prio":23},
{"Schulnummer":"05Y02","Schulname":"Kant-Gymnasium","PLZ":"13585","Strasse":"Bismarckstr. 54","Kosten":14620000,"prio1":10120000,"lat":52.54286,"lng":13.20115,"Schulart":"Gymnasium","Prio":1},
{"Schulnummer":"10G29","Schulname":"Grundschule an der Wuhle","PLZ":"12619","Strasse":"Teterower Ring 79","Kosten":1330000,"lat":52.52118,"lng":13.58041,"Schulart":"Grundschule","Prio":23},
{"Schulnummer":"10K01","Schulname":"Rudolf-Virchow-Schule","PLZ":"12679","Strasse":"Glambecker Ring 90","Kosten":3520000,"lat":52.5555,"lng":13.57573,"Schulart":"Integrierte Sekundarschule","Prio":23},
{"Schulnummer":"12G34","Schulname":"Otfried-Preußler-Grundschule","PLZ":"13503","Strasse":"Schulzendorfer Str. 99","Kosten":5210000,"lat":52.613129,"lng":13.227141,"Schulart":"Grundschule","Prio":23},
{"Schulnummer":"10G05","Schulname":"Ebereschen-Grundschule","PLZ":"12689","Strasse":"Borkheider Str. 27","Kosten":3510000,"lat":52.56407,"lng":13.57294,"Schulart":"Grundschule","Prio":23},
{"Schulnummer":"06G11","Schulname":"Grundschule Am Rohrgarten (Gemeinschaftsschule)","PLZ":"14163","Strasse":"Am Rohrgarten 9","Kosten":730000,"lat":52.425776,"lng":13.224983,"Schulart":"Grundschule","Prio":23},
{"Schulnummer":"10G03","Schulname":"Selma-Lagerlöf-Grundschule","PLZ":"12689","Strasse":"Wörlitzer Str. 31","Kosten":3960000,"lat":52.56767,"lng":13.57023,"Schulart":"Marzahn-Hellersdorf","Prio":23},
{"Schulnummer":"05G07","Schulname":"Lynar-Grundschule","PLZ":"13585","Strasse":"Lutherstr. 19-20","Kosten":1030000,"lat":52.54766,"lng":13.20683,"Schulart":"Grundschule","Prio":23},
{"Schulnummer":"05G01","Schulname":"Ernst-Ludwig-Heim-Grundschule","PLZ":"13597","Strasse":"Grunewaldstr. 8","Kosten":4450000,"lat":52.5304,"lng":13.20672,"Schulart":"Grundschule","Prio":23},
{"Schulnummer":"09G15","Schulname":"Schule am Mohnweg (Grundschule)","PLZ":"12524","Strasse":"Mohnweg 20","Kosten":3340000,"lat":52.40733,"lng":13.53679,"Schulart":"Grundschule","Prio":23},
{"Schulnummer":"12G17","Schulname":"Ellef-Ringnes-Grundschule","PLZ":"13503","Strasse":"Im Erpelgrund 11-17","Kosten":4780000,"lat":52.60802,"lng":13.23202,"Schulart":"Grundschule","Prio":23},
{"Schulnummer":"10G31","Schulname":"Franz-Carl-Achard-Grundschule","PLZ":"12689","Strasse":"Flämingstr. 16-18","Kosten":1370000,"lat":52.56382,"lng":13.56592,"Schulart":"Grundschule","Prio":23},
{"Schulnummer":"10K11","Schulname":"Marcana-Schule (Gemeinschaftsschule)","PLZ":"12689","Strasse":"Flämingstr. 16-18","Kosten":2100000,"lat":52.56382,"lng":13.56592,"Schulart":"Integrierte Sekundarschule","Prio":23},
{"Schulnummer":"10G34","Schulname":"Schule am grünen Stadtrand","PLZ":"12689","Strasse":"Geraer Ring 54","Kosten":7440000,"lat":52.56973,"lng":13.56193,"Schulart":"Förderschwerp.\"Lernen\"","Prio":23},
{"Schulnummer":"09Y04","Schulname":"Anne-Frank-Gymnasium","PLZ":"12524","Strasse":"Uranusstr. 15 -17","Kosten":2040000,"lat":52.399327,"lng":13.525296,"Schulart":"Gymnasium","Prio":23},
{"Schulnummer":"10G09","Schulname":"Grundschule am Bürgerpark","PLZ":"12679","Strasse":"Jan-Petersen-Str. 18B","Kosten":2100000,"lat":52.55062,"lng":13.56569,"Schulart":"Grundschule","Prio":23},
{"Schulnummer":"09K02","Schulname":"Anna-Seghers-Schule (Gemeinschaftsschule)","PLZ":"12489","Strasse":"Radickestr. 43","Kosten":8100000,"lat":52.435416,"lng":13.548246,"Schulart":"Integrierte Sekundarschule","Prio":23},
{"Schulnummer":"09G11","Schulname":"Schule am Pegasuseck (Grundschule)","PLZ":"12524","Strasse":"Pegasuseck 5","Kosten":3060000,"lat":52.40638,"lng":13.5294,"Schulart":"Grundschule","Prio":23},
{"Schulnummer":"10G07","Schulname":"Karl-Friedrich-Friesen-Grundschule","PLZ":"12687","Strasse":"Max-Herrmann-Str. 5","Kosten":0,"lat":52.55335,"lng":13.56415,"Schulart":"Grundschule","Prio":23},
{"Schulnummer":"09G10","Schulname":"Schule am Berg (Grundschule)","PLZ":"12524","Strasse":"Köpenicker Str. 31","Kosten":3230000,"lat":52.41866,"lng":13.538044,"Schulart":"Grundschule","Prio":23},
{"Schulnummer":"10G11","Schulname":"Grundschule an der Mühle","PLZ":"12685","Strasse":"Kienbergstr. 59","Kosten":4060000,"lat":52.53976,"lng":13.5657,"Schulart":"Grundschule","Prio":23},
{"Schulnummer":"10G01","Schulname":"Paavo-Nurmi-Grundschule","PLZ":"12689","Strasse":"Schorfheidestr. 42","Kosten":5940000,"lat":52.54728,"lng":13.56405,"Schulart":"Grundschule","Prio":23},
{"Schulnummer":"10G06","Schulname":"Bruno-Bettelheim-Grundschule (Gemeinschaftsschule)","PLZ":"12687","Strasse":"Schleusinger Str. 17","Kosten":0,"lat":52.557763,"lng":13.561873,"Schulart":"Grundschule","Prio":23},
{"Schulnummer":"06G10","Schulname":"Grundschule am Buschgraben","PLZ":"14165","Strasse":"Ludwigsfelder Str. 43-47","Kosten":1460000,"lat":52.42192,"lng":13.242834,"Schulart":"Grundschule","Prio":23},
{"Schulnummer":"10K04","Schulname":"Thüringen-Schule (Gemeinschaftsschule)","PLZ":"12687","Strasse":"Liebensteiner Str. 24","Kosten":3620000,"lat":52.55821,"lng":13.5601,"Schulart":"Integrierte Sekundarschule","Prio":23},
{"Schulnummer":"10G04","Schulname":"Falken-Grundschule","PLZ":"12689","Strasse":"Geraer Ring 2","Kosten":5440000,"lat":52.56593,"lng":13.5564,"Schulart":"Grundschule","Prio":23},
{"Schulnummer":"09G09","Schulname":"Heide-Schule (Grundschule)","PLZ":"12489","Strasse":"Florian-Geyer-Str. 87","Kosten":6510000,"lat":52.438648,"lng":13.543713,"Schulart":"Grundschule","Prio":23},
{"Schulnummer":"12G18","Schulname":"Grundschule am Tegelschen Ort","PLZ":"13505","Strasse":"Gerlindeweg 11-23","Kosten":4910000,"lat":52.576181,"lng":13.228007,"Schulart":"Grundschule","Prio":23},
{"Schulnummer":"10Y01","Schulname":"Tagore-Gymnasium","PLZ":"12687","Strasse":"Sella-Hasse-Str. 25","Kosten":3560000,"lat":52.55271,"lng":13.55658,"Schulart":"Gymnasium","Prio":23},
{"Schulnummer":"10G13","Schulname":"Johann-Strauss-Grundschule","PLZ":"12683","Strasse":"Cecilienstr. 81","Kosten":0,"lat":52.52982,"lng":13.55966,"Schulart":"Grundschule","Prio":23},
{"Schulnummer":"10K06","Schulname":"Georg-Klingenberg-Schule","PLZ":"12683","Strasse":"Alberichstr. 24","Kosten":4560000,"lat":52.49015,"lng":13.55783,"Schulart":"Integrierte Sekundarschule","Prio":23},
{"Schulnummer":"12G24","Schulname":"Renée-Sintenis-Grundschule","PLZ":"13465","Strasse":"Laurinsteig 39-45","Kosten":4630000,"lat":52.63695,"lng":13.27237,"Schulart":"Grundschule","Prio":23},
{"Schulnummer":"11Y09","Schulname":"Barnim-Gymnasium","PLZ":"13057","Strasse":"Ahrensfelder Chaussee 41","Kosten":300000,"lat":52.569201,"lng":13.549303,"Schulart":"Gymnasium","Prio":23},
{"Schulnummer":"10G10","Schulname":"Peter-Pan-Grundschule","PLZ":"12679","Strasse":"Stolzenhagener Str. 9","Kosten":2640000,"lat":52.548156,"lng":13.551672,"Schulart":"Grundschule","Prio":23},
{"Schulnummer":"06G02","Schulname":"Süd-Grundschule","PLZ":"14165","Strasse":"Claszeile 56","Kosten":9290000,"prio1":9290000,"lat":52.4189,"lng":13.25839,"Schulart":"Grundschule","Prio":1},
{"Schulnummer":"10S04","Schulname":"Schule am Pappelhof","PLZ":"12683","Strasse":"Ketschendorfer Weg 21","Kosten":3160000,"lat":52.531157,"lng":13.553338,"Schulart":"Förderschwerp.\"Geistige Entwicklung\"","Prio":23},
{"Schulnummer":"05G28","Schulname":"Grundschule an der Pulvermühle","PLZ":"13599","Strasse":"Grützmacherweg 7","Kosten":630000,"lat":52.544061,"lng":13.228327,"Schulart":"Grundschule","Prio":23},
{"Schulnummer":"08Y06","Schulname":"Hannah-Arendt-Gymnasium","PLZ":"12355","Strasse":"Elfriede-Kuhr-Str. 17","Kosten":3800000,"lat":52.40411,"lng":13.508639,"Schulart":"Gymnasium","Prio":23},
{"Schulnummer":"10G16","Schulname":"Grundschule am Fuchsberg","PLZ":"12683","Strasse":"Dankratweg 19","Kosten":3120000,"lat":52.49039,"lng":13.551484,"Schulart":"Grundschule","Prio":23},
{"Schulnummer":"10G12","Schulname":"Grundschule an der Geißenweide","PLZ":"12685","Strasse":"Amanlisweg 40","Kosten":2960000,"lat":52.537783,"lng":13.551797,"Schulart":"Grundschule","Prio":23},
{"Schulnummer":"10Y03","Schulname":"Wilhelm-von-Siemens-Gymnasium","PLZ":"12683","Strasse":"Allee der Kosmonauten 134","Kosten":450000,"lat":52.533571,"lng":13.551106,"Schulart":"Gymnasium","Prio":23},
{"Schulnummer":"08G37","Schulname":"Rose-Oehmichen-Schule (Grundschule)","PLZ":"12355","Strasse":"Lieselotte-Berger-Str. 65","Kosten":1330000,"lat":52.401126,"lng":13.501995,"Schulart":"Grundschule","Prio":23},
{"Schulnummer":"06G07","Schulname":"Zinnowwald-Grundschule","PLZ":"14163","Strasse":"Wilskistr. 78","Kosten":9090000,"prio1":9090000,"lat":52.44543,"lng":13.246529,"Schulart":"Grundschule","Prio":1},
{"Schulnummer":"06Y01","Schulname":"Schadow-Gymnasium","PLZ":"14163","Strasse":"Beuckestr. 27-29","Kosten":20090000,"prio1":20090000,"lat":52.43149,"lng":13.25463,"Schulart":"Gymnasium","Prio":1},
{"Schulnummer":"06Y02","Schulname":"Droste-Hülshoff-Oberschule","PLZ":"14165","Strasse":"Schönower Str. 8","Kosten":13340000,"prio1":13340000,"lat":52.42846,"lng":13.25673,"Schulart":"Gymnasium","Prio":1},
{"Schulnummer":"05G13","Schulname":"Bernd-Ryke-Grundschule","PLZ":"13599","Strasse":"Daumstr. 12","Kosten":5310000,"prio1":5310000,"lat":52.54494,"lng":13.2325,"Schulart":"Grundschule","Prio":1},
{"Schulnummer":"06S01","Schulname":"Pestalozzi-Schule","PLZ":"14163","Strasse":"Hartmannsweilerweg 47","Kosten":3630000,"lat":52.44346,"lng":13.24838,"Schulart":"Integrierte Sekundarschule","Prio":23},
{"Schulnummer":"10Y02","Schulname":"Otto-Nagel-Gymnasium","PLZ":"12683","Strasse":"Schulstr. 11","Kosten":2670000,"lat":52.511922,"lng":13.549199,"Schulart":"Gymnasium","Prio":23},
{"Schulnummer":"12G23","Schulname":"Victor-Gollancz-Grundschule","PLZ":"13465","Strasse":"Gollanczstr. 18-24","Kosten":6060000,"lat":52.63826,"lng":13.28757,"Schulart":"Grundschule","Prio":23},
{"Schulnummer":"08G25","Schulname":"Michael-Ende-Schule (Grundschule)","PLZ":"12355","Strasse":"Neuhofer Str. 41","Kosten":4280000,"lat":52.41346,"lng":13.50984,"Schulart":"Grundschule","Prio":23},
{"Schulnummer":"03G29","Schulname":"Grundschule Am Sandhaus","PLZ":"13125","Strasse":"Wiltbergstr. 37-39","Kosten":770000,"lat":52.637343,"lng":13.490967,"Schulart":"Grundschule","Prio":23},
{"Schulnummer":"06G01","Schulname":"Nord-Grundschule","PLZ":"14163","Strasse":"Potsdamer Str. 7","Kosten":6260000,"lat":52.435951,"lng":13.25558,"Schulart":"Grundschule","Prio":23},
{"Schulnummer":"06K01","Schulname":"John-F.-Kennedy-Schule","PLZ":"14167","Strasse":"Teltower Damm 87-93","Kosten":28540000,"prio1":15540000,"lat":52.42589,"lng":13.26273,"Schulart":"Integrierte Sekundarschule","Prio":1},
{"Schulnummer":"06G08","Schulname":"Schweizerhof-Grundschule","PLZ":"14167","Strasse":"Leo-Baeck-Str. 28-30","Kosten":3930000,"lat":52.42278,"lng":13.26571,"Schulart":"Grundschule","Prio":23},
{"Schulnummer":"03K10","Schulname":"Hufeland-Schule (Integrierte Sekundarschule)","PLZ":"13125","Strasse":"Walter-Friedrich-Str. 16-18","Kosten":16420000,"prio1":16420000,"lat":52.63325,"lng":13.49373,"Schulart":"Integrierte Sekundarschule","Prio":1},
{"Schulnummer":"04G15","Schulname":"Charles-Dickens-Grundschule","PLZ":"14055","Strasse":"Dickensweg 15","Kosten":3230000,"lat":52.508946,"lng":13.236971,"Schulart":"Grundschule","Prio":23},
{"Schulnummer":"10G14","Schulname":"Grundschule unter dem Regenbogen","PLZ":"12681","Strasse":"Murtzaner Ring 37","Kosten":5940000,"lat":52.5301,"lng":13.54212,"Schulart":"Grundschule","Prio":23},
{"Schulnummer":"03S10","Schulname":"Marianne-Buggenhagen-Schule","PLZ":"13125","Strasse":"Ernst-Busch-Str. 29","Kosten":1060000,"lat":52.62953,"lng":13.49149,"Schulart":"Übrige Förderschwerpunkte","Prio":23},
{"Schulnummer":"11G28","Schulname":"Feldmark-Schule (Grundschule)","PLZ":"13057","Strasse":"Wartiner Str. 23","Kosten":2670000,"lat":52.569161,"lng":13.531731,"Schulart":"Grundschule","Prio":23},
{"Schulnummer":"10A04","Schulname":"Victor-Klemperer-Kolleg","PLZ":"12681","Strasse":"Martha-Arendsee-Str. 15","Kosten":3010000,"lat":52.5363,"lng":13.53885,"Schulart":"Volkshochschul-Kolleg","Prio":23},
{"Schulnummer":"05S03","Schulname":"Schule am Gartenfeld","PLZ":"13599","Strasse":"Gartenfelder Str. 81","Kosten":9050000,"lat":52.543211,"lng":13.24234,"Schulart":"Förderschwerp.\"Geistige Entwicklung\"","Prio":23},
{"Schulnummer":"11G14","Schulname":"Richard-Wagner-Grundschule","PLZ":"10318","Strasse":"Ehrenfelsstr. 36","Kosten":3700000,"lat":52.479326,"lng":13.53427,"Schulart":"Grundschule","Prio":23},
{"Schulnummer":"11G12","Schulname":"Lew-Tolstoi-Grundschule","PLZ":"10318","Strasse":"Römerweg 120","Kosten":1180000,"lat":52.49199,"lng":13.53678,"Schulart":"Grundschule","Prio":23},
{"Schulnummer":"09Y03","Schulname":"Archenhold-Gymnasium","PLZ":"12439","Strasse":"Rudower Str. 7","Kosten":4530000,"lat":52.4514,"lng":13.52271,"Schulart":"Gymnasium","Prio":23},
{"Schulnummer":"08G28","Schulname":"Matthias-Claudius-Schule (Grundschule)","PLZ":"12355","Strasse":"Köpenicker Str. 148","Kosten":5390000,"lat":52.420381,"lng":13.501675,"Schulart":"Grundschule","Prio":23},
{"Schulnummer":"09G22","Schulname":"Schule an der Wuhlheide (Grundschule)","PLZ":"12459","Strasse":"Kottmeierstr. 2","Kosten":3420000,"lat":52.462579,"lng":13.524106,"Schulart":"Grundschule","Prio":23},
{"Schulnummer":"03G10","Schulname":"Grundschule am Hohen Feld","PLZ":"13125","Strasse":"Bedeweg 1","Kosten":1820000,"lat":52.61492,"lng":13.49606,"Schulart":"Grundschule","Prio":23},
{"Schulnummer":"12K10","Schulname":"Carl-Bosch-Schule","PLZ":"13467","Strasse":"Frohnauer Str. 74-80","Kosten":8440000,"lat":52.62349,"lng":13.29375,"Schulart":"Integrierte Sekundarschule","Prio":23},
{"Schulnummer":"12S05","Schulname":"Wiesengrund-Schule","PLZ":"13467","Strasse":"Frohnauer Str. 74-80","Kosten":0,"lat":52.62349,"lng":13.29375,"Schulart":"Übrige Förderschwerpunkte","Prio":23},
{"Schulnummer":"03Y16","Schulname":"Robert-Havemann-Gymnasium","PLZ":"13125","Strasse":"Achillesstr. 79","Kosten":7260000,"lat":52.615393,"lng":13.494218,"Schulart":"Gymnasium","Prio":23},
{"Schulnummer":"06K02","Schulname":"Wilma-Rudolph-Schule (Integrierte Sekundarschule)","PLZ":"14169","Strasse":"Am Hegewinkel 2A","Kosten":13210000,"prio1":13210000,"lat":52.45479,"lng":13.26097,"Schulart":"Integrierte Sekundarschule","Prio":1},
{"Schulnummer":"11G29","Schulname":"Matibi-Grundschule","PLZ":"13059","Strasse":"Prendener Str. 15","Kosten":1870000,"lat":52.5724,"lng":13.52072,"Schulart":"Grundschule","Prio":23},
{"Schulnummer":"08G11","Schulname":"Schliemann-Schule (Grundschule)","PLZ":"12355","Strasse":"Groß-Ziethener Chaussee 73","Kosten":3740000,"lat":52.41198,"lng":13.48526,"Schulart":"Grundschule","Prio":23},
{"Schulnummer":"11K05","Schulname":"Fritz-Reuter-Schule","PLZ":"13059","Strasse":"Prendener Str. 29","Kosten":400000,"lat":52.570237,"lng":13.52104,"Schulart":"Integrierte Sekundarschule","Prio":23},
{"Schulnummer":"11G06","Schulname":"Adam-Ries-Grundschule","PLZ":"10315","Strasse":"Alt-Friedrichsfelde 66","Kosten":5130000,"lat":52.5114,"lng":13.53125,"Schulart":"Grundschule","Prio":23},
{"Schulnummer":"03G24","Schulname":"Grundschule im Panketal","PLZ":"13125","Strasse":"Achillesstr. 31","Kosten":4140000,"lat":52.61986,"lng":13.486729,"Schulart":"Grundschule","Prio":23},
{"Schulnummer":"08K05","Schulname":"Clay-Schule","PLZ":"12355","Strasse":"Bildhauerweg 9","Kosten":4580000,"lat":52.41759,"lng":13.48999,"Schulart":"Integrierte Sekundarschule","Prio":23},
{"Schulnummer":"09G06","Schulname":"Melli-Beese-Schule (Grundschule)","PLZ":"12487","Strasse":"Engelhardstr. 18","Kosten":2790000,"lat":52.44696,"lng":13.51031,"Schulart":"Grundschule","Prio":23},
{"Schulnummer":"09G07","Schulname":"Schule an der alten Feuerwache (Grundschule)","PLZ":"12439","Strasse":"Schnellerstr. 31","Kosten":3830000,"lat":52.45459,"lng":13.51379,"Schulart":"Grundschule","Prio":23},
{"Schulnummer":"09K04","Schulname":"Isaac-Newton-Schule (Integrierte Sekundarschule)","PLZ":"12459","Strasse":"Zeppelinstr. 76-80","Kosten":6470000,"lat":52.4659,"lng":13.51817,"Schulart":"Integrierte Sekundarschule","Prio":23},
{"Schulnummer":"11G26","Schulname":"Randow-Grundschule","PLZ":"13057","Strasse":"Randowstr. 45","Kosten":1430000,"lat":52.56405,"lng":13.51904,"Schulart":"Grundschule","Prio":23},
{"Schulnummer":"06G06","Schulname":"Mühlenau-Grundschule","PLZ":"14195","Strasse":"Molsheimer Str. 7","Kosten":5870000,"lat":52.443206,"lng":13.276002,"Schulart":"Grundschule","Prio":23},
{"Schulnummer":"11Y05","Schulname":"Hans-und-Hilde-Coppi-Oberschule","PLZ":"10318","Strasse":"Römerweg 30-32","Kosten":10340000,"lat":52.4918,"lng":13.52343,"Schulart":"Gymnasium","Prio":23},
{"Schulnummer":"06G12","Schulname":"Quentin-Blake-Grundschule","PLZ":"14195","Strasse":"Hüttenweg 40","Kosten":4760000,"lat":52.454097,"lng":13.27055,"Schulart":"Grundschule","Prio":23},
{"Schulnummer":"06S02","Schulname":"Biesalski-Schule","PLZ":"14195","Strasse":"Hüttenweg 40","Kosten":7170000,"prio1":7170000,"lat":52.454097,"lng":13.27055,"Schulart":"Übrige Förderschwerpunkte","Prio":1},
{"Schulnummer":"12K09","Schulname":"Carl-Benz-Schule (Integrierte Sekundarschule)","PLZ":"13467","Strasse":"Heidenheimer Str. 53-54","Kosten":8980000,"lat":52.615646,"lng":13.298748,"Schulart":"Integrierte Sekundarschule","Prio":23},
{"Schulnummer":"09S03","Schulname":"Albatros-Schule","PLZ":"12459","Strasse":"Treskowallee 222","Kosten":1110000,"lat":52.471245,"lng":13.516154,"Schulart":"Förderschwerp.\"Geistige Entwicklung\"","Prio":23},
{"Schulnummer":"08G33","Schulname":"Schule am Fliederbusch (Grundschule)","PLZ":"12357","Strasse":"Kornradenstr. 2","Kosten":2730000,"lat":52.42424,"lng":13.48673,"Schulart":"Grundschule","Prio":23},
{"Schulnummer":"04Y02","Schulname":"Wald-Gymnasium","PLZ":"14055","Strasse":"Waldschulallee 95","Kosten":5230000,"lat":52.50343,"lng":13.25701,"Schulart":"Gymnasium","Prio":23},
{"Schulnummer":"08S04","Schulname":"Schule am Zwickauer Damm","PLZ":"12353","Strasse":"Zwickauer Damm 17-22","Kosten":3770000,"lat":52.422,"lng":13.48315,"Schulart":"Integrierte Sekundarschule","Prio":23},
{"Schulnummer":"09Y10","Schulname":"Gebrüder-Montgolfier-Gymnasium","PLZ":"12487","Strasse":"Ellernweg 20-22","Kosten":1460000,"lat":52.44833,"lng":13.50379,"Schulart":"Gymnasium","Prio":23},
{"Schulnummer":"11G13","Schulname":"Karlshorster Grundschule","PLZ":"10318","Strasse":"Lisztstr. 6","Kosten":230000,"lat":52.48925,"lng":13.51994,"Schulart":"Grundschule","Prio":23},
{"Schulnummer":"09G05","Schulname":"Schule am Ginkobaum (Grundschule)","PLZ":"12487","Strasse":"Springbornstr. 250","Kosten":1040000,"lat":52.44014,"lng":13.4979,"Schulart":"Grundschule","Prio":23},
{"Schulnummer":"04Y05","Schulname":"Herder-Gymnasium","PLZ":"14052","Strasse":"Westendallee 45-46","Kosten":5030000,"lat":52.510663,"lng":13.257932,"Schulart":"Gymnasium","Prio":23},
{"Schulnummer":"12Y05","Schulname":"Georg-Herwegh-Gymnasium","PLZ":"13467","Strasse":"Fellbacher Str. 18-19","Kosten":7670000,"lat":52.616834,"lng":13.303382,"Schulart":"Gymnasium","Prio":23},
{"Schulnummer":"07Y08","Schulname":"Ulrich-von-Hutten-Gymnasium","PLZ":"12307","Strasse":"Rehagener Str. 35-37","Kosten":630000,"lat":52.38563,"lng":13.40388,"Schulart":"Gymnasium","Prio":23},
{"Schulnummer":"12S02","Schulname":"Richard-Keller-Schule","PLZ":"13467","Strasse":"Olafstr. 32-34","Kosten":2840000,"lat":52.62034,"lng":13.30794,"Schulart":"Förderschwerp.\"Lernen\"","Prio":23},
{"Schulnummer":"04G06","Schulname":"Wald-Grundschule","PLZ":"14055","Strasse":"Waldschulallee 83-93","Kosten":3850000,"lat":52.50259,"lng":13.259,"Schulart":"Grundschule","Prio":23},
{"Schulnummer":"11S08","Schulname":"Schule Am Breiten Luch","PLZ":"13053","Strasse":"Am Breiten Luch 19","Kosten":5430000,"lat":52.5627,"lng":13.5136,"Schulart":"Grundschule","Prio":23},
{"Schulnummer":"07G29","Schulname":"Käthe-Kollwitz-Grundschule","PLZ":"12307","Strasse":"Mellener Str. 38-42","Kosten":2840000,"lat":52.3862,"lng":13.40487,"Schulart":"Grundschule","Prio":23},
{"Schulnummer":"11K12","Schulname":"Paul-und-Charlotte-Kniese-Schule (Gemeinschaftsschule)","PLZ":"10319","Strasse":"Erich-Kurz-Str. 6-10","Kosten":0,"lat":52.498846,"lng":13.519748,"Schulart":"Förderschwerp.\"Geistige Entwicklung\"","Prio":23},
{"Schulnummer":"11S04","Schulname":"Paul-und-Charlotte-Kniese-Schule","PLZ":"10319","Strasse":"Erich-Kurz-Str. 6-10","Kosten":1480000,"lat":52.498846,"lng":13.519748,"Schulart":"Übrige Förderschwerpunkte","Prio":23},
{"Schulnummer":"09K06","Schulname":"Hans-Grade-Schule (Integrierte Sekundarschule)","PLZ":"12487","Strasse":"Heubergerweg 37","Kosten":0,"lat":52.444484,"lng":13.499022,"Schulart":"Integrierte Sekundarschule","Prio":23},
{"Schulnummer":"11G22","Schulname":"Martin-Niemöller-Grundschule","PLZ":"13053","Strasse":"Am Breiten Luch 5","Kosten":4610000,"lat":52.56339,"lng":13.51209,"Schulart":"Grundschule","Prio":23},
{"Schulnummer":"07G35","Schulname":"Nahariya-Grundschule","PLZ":"12309","Strasse":"Nahariyastr. 13-17","Kosten":570000,"lat":52.39085,"lng":13.41943,"Schulart":"Grundschule","Prio":23},
{"Schulnummer":"09G21","Schulname":"Edison-Grundschule","PLZ":"12459","Strasse":"Wattstr. 69-70","Kosten":3360000,"lat":52.46607,"lng":13.50886,"Schulart":"Grundschule","Prio":23},
{"Schulnummer":"12G22","Schulname":"Gustav-Dreyer-Grundschule","PLZ":"13467","Strasse":"Freiherr-vom-Stein-Str. 31","Kosten":6220000,"prio1":5560000,"lat":52.61309,"lng":13.30379,"Schulart":"Grundschule","Prio":1},
{"Schulnummer":"03G23","Schulname":"Grundschule Alt-Karow","PLZ":"13125","Strasse":"Bahnhofstr. 32","Kosten":3270000,"lat":52.609682,"lng":13.479743,"Schulart":"Grundschule","Prio":23},
{"Schulnummer":"12G13","Schulname":"Franz-Marc-Grundschule","PLZ":"13507","Strasse":"Treskowstr. 26-31","Kosten":7770000,"lat":52.58822,"lng":13.2828,"Schulart":"Grundschule","Prio":23},
{"Schulnummer":"12K01","Schulname":"Julius-Leber-Schule","PLZ":"13507","Strasse":"Treskowstr. 26-31","Kosten":0,"lat":52.58822,"lng":13.2828,"Schulart":"Integrierte Sekundarschule","Prio":23},
{"Schulnummer":"04G05","Schulname":"Dietrich-Bonhoeffer-Grundschule","PLZ":"14050","Strasse":"Spandauer Damm 205-215","Kosten":1100000,"lat":52.521371,"lng":13.26202,"Schulart":"Grundschule","Prio":23},
{"Schulnummer":"06G25","Schulname":"Clemens-Brentano-Grundschule","PLZ":"12205","Strasse":"Kommandantenstr. 83-84","Kosten":10800000,"prio1":10780000,"lat":52.433511,"lng":13.29316,"Schulart":"Grundschule","Prio":1},
{"Schulnummer":"04S04","Schulname":"Reinfelder-Schule","PLZ":"14055","Strasse":"Maikäferpfad 30","Kosten":6230000,"lat":52.49693,"lng":13.26373,"Schulart":"Grundschule","Prio":23},
{"Schulnummer":"11K07","Schulname":"Vincent-van-Gogh-Schule (Integrierte Sekundarschule)","PLZ":"13051","Strasse":"Wustrower Str. 26","Kosten":6790000,"lat":52.5678,"lng":13.50702,"Schulart":"Integrierte Sekundarschule","Prio":23},
{"Schulnummer":"06G30","Schulname":"Mercator-Grundschule","PLZ":"12207","Strasse":"Mercatorweg 8-10","Kosten":5860000,"lat":52.41225,"lng":13.317376,"Schulart":"Grundschule","Prio":23},
{"Schulnummer":"11G25","Schulname":"Grundschule am Wäldchen","PLZ":"13051","Strasse":"Wustrower Str. 28","Kosten":1560000,"lat":52.56846,"lng":13.50628,"Schulart":"Grundschule","Prio":23},
{"Schulnummer":"11G09","Schulname":"Bürgermeister-Ziethen-Grundschule","PLZ":"10315","Strasse":"Massower Str. 39","Kosten":2150000,"lat":52.50818,"lng":13.51665,"Schulart":"Grundschule","Prio":23},
{"Schulnummer":"11K08","Schulname":"George-Orwell-Schule","PLZ":"10319","Strasse":"Sewanstr. 223","Kosten":2610000,"lat":52.496354,"lng":13.514933,"Schulart":"Integrierte Sekundarschule","Prio":23},
{"Schulnummer":"08K02","Schulname":"Hermann-von-Helmholtz-Schule","PLZ":"12353","Strasse":"Wutzkyallee 68","Kosten":14400000,"lat":52.421823,"lng":13.472974,"Schulart":"Integrierte Sekundarschule","Prio":23},
{"Schulnummer":"07Y09","Schulname":"Georg-Büchner-Gymnasium","PLZ":"12305","Strasse":"Lichtenrader Damm 224","Kosten":13650000,"prio1":13330000,"lat":52.39186,"lng":13.406604,"Schulart":"Gymnasium","Prio":1},
{"Schulnummer":"04S05","Schulname":"Ernst-Adolf-Eschke-Schule für Gehörlose","PLZ":"14055","Strasse":"Waldschulallee 29","Kosten":650000,"lat":52.4989,"lng":13.26508,"Schulart":"Fachschule","Prio":23},
{"Schulnummer":"11K01","Schulname":"Alexander-Puschkin-Schule","PLZ":"10315","Strasse":"Massower Str. 37","Kosten":7250000,"lat":52.50795,"lng":13.51556,"Schulart":"Integrierte Sekundarschule","Prio":23},
{"Schulnummer":"12Y03","Schulname":"Humboldt-Gymnasium","PLZ":"13509","Strasse":"Hatzfeldtallee 2-4","Kosten":11560000,"lat":52.59176,"lng":13.28891,"Schulart":"Gymnasium","Prio":23},
{"Schulnummer":"06G18","Schulname":"Athene-Grundschule","PLZ":"12205","Strasse":"Curtiusstr. 37","Kosten":4500000,"lat":52.440565,"lng":13.290632,"Schulart":"Grundschule","Prio":23},
{"Schulnummer":"05K07","Schulname":"Schule an der Jungfernheide (Integrierte Sekundarschule)","PLZ":"13629","Strasse":"Lenther Steig 1-3","Kosten":1770000,"lat":52.53843,"lng":13.26697,"Schulart":"Integrierte Sekundarschule","Prio":23},
{"Schulnummer":"06Y03","Schulname":"Arndt-Gymnasium Dahlem","PLZ":"14195","Strasse":"Königin-Luise-Str. 80-84","Kosten":0,"lat":52.45916,"lng":13.28001,"Schulart":"Gymnasium","Prio":23},
{"Schulnummer":"11G11","Schulname":"Bernhard-Grzimek-Grundschule","PLZ":"10319","Strasse":"Sewanstr. 184","Kosten":4040000,"lat":52.49572,"lng":13.51176,"Schulart":"Grundschule","Prio":23},
{"Schulnummer":"05Y04","Schulname":"Carl-Friedrich-von-Siemens-Gymnasium","PLZ":"13629","Strasse":"Jungfernheideweg 79","Kosten":8450000,"prio1":8450000,"lat":52.54559,"lng":13.26983,"Schulart":"Gymnasium","Prio":1},
{"Schulnummer":"06G22","Schulname":"Giesensdorfer Grundschule","PLZ":"12207","Strasse":"Ostpreußendamm 63","Kosten":4500000,"lat":52.422226,"lng":13.31101,"Schulart":"Grundschule","Prio":23},
{"Schulnummer":"08K13","Schulname":"Gemeinschaftsschule Campus Efeuweg","PLZ":"12357","Strasse":"Efeuweg 34","Kosten":15520000,"lat":52.427206,"lng":13.47409,"Schulart":"Integrierte Sekundarschule","Prio":23},
{"Schulnummer":"04Y06","Schulname":"Heinz-Berggruen-Gymnasium","PLZ":"14052","Strasse":"Bayernallee 4","Kosten":2160000,"lat":52.51103,"lng":13.26722,"Schulart":"Gymnasium","Prio":23},
{"Schulnummer":"06G04","Schulname":"Erich-Kästner-Grundschule","PLZ":"14195","Strasse":"Bachstelzenweg 2-8","Kosten":3660000,"lat":52.458141,"lng":13.283199,"Schulart":"Grundschule","Prio":23},
{"Schulnummer":"07K02","Schulname":"Carl-Zeiss-Schule","PLZ":"12305","Strasse":"Barnetstr. 12-14","Kosten":3200000,"lat":52.39571,"lng":13.40258,"Schulart":"Integrierte Sekundarschule","Prio":23},
{"Schulnummer":"12G01","Schulname":"Havelmüller-Grundschule","PLZ":"13507","Strasse":"Namslaustr. 49-57","Kosten":4040000,"lat":52.578512,"lng":13.284936,"Schulart":"Grundschule","Prio":23},
{"Schulnummer":"04G14","Schulname":"Reinhold-Otto-Grundschule","PLZ":"14050","Strasse":"Leistikowstr. 7-8","Kosten":5170000,"lat":52.513329,"lng":13.268399,"Schulart":"Grundschule","Prio":23},
{"Schulnummer":"11K11","Schulname":"Paul-Schmidt-Schule (Integrierte Sekundarschule)","PLZ":"13053","Strasse":"Malchower Weg 54","Kosten":4320000,"lat":52.55475,"lng":13.50438,"Schulart":"Integrierte Sekundarschule","Prio":23},
{"Schulnummer":"12G14","Schulname":"Alfred-Brehm-Grundschule","PLZ":"13507","Strasse":"Ascheberger Weg 8A","Kosten":3660000,"lat":52.57359,"lng":13.28368,"Schulart":"Grundschule","Prio":23},
{"Schulnummer":"12G21","Schulname":"Grundschule am Fließtal","PLZ":"13467","Strasse":"Seebadstr. 42-43","Kosten":4120000,"lat":52.61528,"lng":13.32062,"Schulart":"Grundschule","Prio":23},
{"Schulnummer":"06K09","Schulname":"Gail-S.-Halvorsen-Integrierte Sekundarschule","PLZ":"14195","Strasse":"Im Gehege 6","Kosten":12060000,"prio1":10990000,"lat":52.459454,"lng":13.284371,"Schulart":"Integrierte Sekundarschule","Prio":1},
{"Schulnummer":"07G26","Schulname":"Grundschule im Taunusviertel","PLZ":"12309","Strasse":"Wiesbadener Str. 20","Kosten":3640000,"lat":52.40019,"lng":13.41799,"Schulart":"Grundschule","Prio":23},
{"Schulnummer":"07G30","Schulname":"Annedore-Leber-Grundschule","PLZ":"12305","Strasse":"Halker Zeile 137-149","Kosten":5190000,"lat":52.39757,"lng":13.40197,"Schulart":"Grundschule","Prio":23},
{"Schulnummer":"11G10","Schulname":"Schule im Ostseekarree (Grundschule)","PLZ":"13051","Strasse":"Barther Str. 27","Kosten":1580000,"lat":52.56409,"lng":13.50024,"Schulart":"Grundschule","Prio":23},
{"Schulnummer":"05G11","Schulname":"Robert-Reinick-Grundschule","PLZ":"13629","Strasse":"Jungfernheideweg 33-48","Kosten":4340000,"lat":52.54065,"lng":13.27277,"Schulart":"Grundschule","Prio":23},
{"Schulnummer":"12Y04","Schulname":"Gabriele-von-Bülow-Gymnasium","PLZ":"13509","Strasse":"Tile-Brügge-Weg 63","Kosten":8690000,"lat":52.592148,"lng":13.297061,"Schulart":"Gymnasium","Prio":23},
{"Schulnummer":"07K04","Schulname":"Theodor-Haubach-Schule","PLZ":"12305","Strasse":"Grimmstr. 9-11","Kosten":12660000,"lat":52.398399,"lng":13.403988,"Schulart":"Integrierte Sekundarschule","Prio":23},
{"Schulnummer":"11S05","Schulname":"Schule am grünen Grund","PLZ":"10365","Strasse":"Herzbergstr. 79","Kosten":660000,"lat":52.52822,"lng":13.50858,"Schulart":"Übrige Förderschwerpunkte","Prio":23},
{"Schulnummer":"06G33","Schulname":"Friedrich-Drake-Schule","PLZ":"12205","Strasse":"Drakestr. 80","Kosten":1190000,"lat":52.43254,"lng":13.30621,"Schulart":"Grundschule","Prio":23},
{"Schulnummer":"04Y08","Schulname":"Hildegard-Wegscheider-Gymnasium","PLZ":"14193","Strasse":"Lassenstr. 16-20","Kosten":4390000,"lat":52.485116,"lng":13.275931,"Schulart":"Gymnasium","Prio":23},
{"Schulnummer":"07K03","Schulname":"Gustav-Heinemann-Schule","PLZ":"12279","Strasse":"Waldsassener Str. 62","Kosten":3200000,"lat":52.40662,"lng":13.34754,"Schulart":"Integrierte Sekundarschule","Prio":23},
{"Schulnummer":"12G15","Schulname":"Hoffmann-von-Fallersleben-Grundschule","PLZ":"13509","Strasse":"Ziekowstr. 80-88","Kosten":4530000,"lat":52.58744,"lng":13.29515,"Schulart":"Grundschule","Prio":23},
{"Schulnummer":"06Y11","Schulname":"Goethe-Gymnasium Lichterfelde","PLZ":"12205","Strasse":"Drakestr. 72-75","Kosten":10030000,"prio1":9410000,"lat":52.434929,"lng":13.305363,"Schulart":"Gymnasium","Prio":1},
{"Schulnummer":"11G31","Schulname":"Schmetterlings-Grundschule","PLZ":"10319","Strasse":"Dolgenseestr. 60","Kosten":0,"lat":52.49417,"lng":13.50546,"Schulart":"Grundschule","Prio":23},
{"Schulnummer":"12G19","Schulname":"Münchhausen-Grundschule","PLZ":"13469","Strasse":"Artemisstr. 22-26","Kosten":5570000,"lat":52.60851,"lng":13.31718,"Schulart":"Grundschule","Prio":23},
{"Schulnummer":"08G31","Schulname":"Janusz-Korczak-Schule (Grundschule)","PLZ":"12353","Strasse":"Wildhüterweg 5","Kosten":8040000,"lat":52.42179,"lng":13.45659,"Schulart":"Grundschule","Prio":23},
{"Schulnummer":"06K08","Schulname":"Max-von-Laue-Schule","PLZ":"12203","Strasse":"Dürerstr. 27","Kosten":1100000,"lat":52.43725,"lng":13.305628,"Schulart":"Integrierte Sekundarschule","Prio":23},
{"Schulnummer":"08K01","Schulname":"Walter-Gropius-Schule (Gemeinschaftsschule)","PLZ":"12351","Strasse":"Fritz-Erler-Allee 86","Kosten":17000000,"lat":52.42934,"lng":13.46355,"Schulart":"Integrierte Sekundarschule","Prio":23},
{"Schulnummer":"11G23","Schulname":"Friedrichsfelder Grundschule","PLZ":"10315","Strasse":"Lincolnstr. 67","Kosten":3320000,"lat":52.503,"lng":13.50355,"Schulart":"Grundschule","Prio":23},
{"Schulnummer":"06G29","Schulname":"Grundschule am Karpfenteich","PLZ":"12209","Strasse":"Hildburghauser Str. 135","Kosten":4540000,"lat":52.417401,"lng":13.333982,"Schulart":"Grundschule","Prio":23},
{"Schulnummer":"11G21","Schulname":"Schule Am Faulen See","PLZ":"13053","Strasse":"Degnerstr. 71","Kosten":1150000,"lat":52.5521,"lng":13.49837,"Schulart":"Grundschule","Prio":23},
{"Schulnummer":"04G22","Schulname":"Grunewald-Grundschule","PLZ":"14193","Strasse":"Delbrückstr. 20A","Kosten":3890000,"lat":52.484525,"lng":13.281094,"Schulart":"Grundschule","Prio":23},
{"Schulnummer":"08G16","Schulname":"Hugo-Heimann-Schule","PLZ":"12353","Strasse":"Hugo-Heimann-Str. 20","Kosten":5280000,"lat":52.42538,"lng":13.45705,"Schulart":"Grundschule","Prio":23},
{"Schulnummer":"09G04","Schulname":"Sonnenblumen-Schule (Grundschule)","PLZ":"12437","Strasse":"Radenzer Str. 16","Kosten":1500000,"lat":52.46163,"lng":13.48872,"Schulart":"Grundschule","Prio":23},
{"Schulnummer":"07G32","Schulname":"Bruno-H.-Bürgel-Grundschule","PLZ":"12305","Strasse":"Rackebüller Weg 70","Kosten":6710000,"prio1":5340000,"lat":52.404902,"lng":13.402536,"Schulart":"Grundschule","Prio":1},
{"Schulnummer":"12G20","Schulname":"Grundschule am Vierrutenberg","PLZ":"13469","Strasse":"Am Vierrutenberg 59-65","Kosten":2970000,"lat":52.617516,"lng":13.339396,"Schulart":"Grundschule","Prio":23},
{"Schulnummer":"11G17","Schulname":"Brodowin-Grundschule","PLZ":"13055","Strasse":"Liebenwalder Str. 22","Kosten":4950000,"lat":52.53738,"lng":13.50067,"Schulart":"Grundschule","Prio":23},
{"Schulnummer":"06Y10","Schulname":"Lilienthal-Gymnasium","PLZ":"12203","Strasse":"Ringstr. 2-3","Kosten":10470000,"prio1":10290000,"lat":52.43595,"lng":13.31215,"Schulart":"Gymnasium","Prio":1},
{"Schulnummer":"06K06","Schulname":"Anna Essinger Gemeinschaftsschule","PLZ":"12203","Strasse":"Tietzenweg 101","Kosten":7000000,"prio1":7000000,"lat":52.439089,"lng":13.309116,"Schulart":"Integrierte Sekundarschule","Prio":1},
{"Schulnummer":"12S06","Schulname":"Toulouse-Lautrec-Schule","PLZ":"13509","Strasse":"Miraustr. 120-126","Kosten":8940000,"prio1":8940000,"lat":52.58901,"lng":13.30389,"Schulart":"Übrige Förderschwerpunkte","Prio":1},
{"Schulnummer":"06G26","Schulname":"Käthe-Kruse-Grundschule","PLZ":"12203","Strasse":"Tietzenweg 108","Kosten":3150000,"lat":52.438186,"lng":13.310138,"Schulart":"Grundschule","Prio":23},
{"Schulnummer":"08G27","Schulname":"Oskar-Heinroth-Schule (Grundschule)","PLZ":"12359","Strasse":"Rohrdommelweg 1","Kosten":7950000,"lat":52.44057,"lng":13.47209,"Schulart":"Grundschule","Prio":23},
{"Schulnummer":"06G24","Schulname":"Grundschule unter den Kastanien","PLZ":"12209","Strasse":"Kastanienstr. 6 -8","Kosten":5770000,"prio1":5770000,"lat":52.42546,"lng":13.32527,"Schulart":"Grundschule","Prio":1},
{"Schulnummer":"07G34","Schulname":"Marienfelder Schule (Grundschule)","PLZ":"12279","Strasse":"Erbendorfer Weg 13","Kosten":8530000,"prio1":6730000,"lat":52.41209,"lng":13.35184,"Schulart":"Grundschule","Prio":1},
{"Schulnummer":"04Y09","Schulname":"Walther-Rathenau-Gymnasium","PLZ":"14193","Strasse":"Herbertstr. 2-6","Kosten":6370000,"lat":52.49143,"lng":13.28135,"Schulart":"Gymnasium","Prio":23},
{"Schulnummer":"11G08","Schulname":"Robinson-Grundschule","PLZ":"10317","Strasse":"Wönnichstr. 7","Kosten":2700000,"lat":52.510047,"lng":13.50046,"Schulart":"Grundschule","Prio":23},
{"Schulnummer":"12G12","Schulname":"Borsigwalder Grundschule","PLZ":"13509","Strasse":"Miraustr. 100","Kosten":2840000,"lat":52.58822,"lng":13.30561,"Schulart":"Grundschule","Prio":23},
{"Schulnummer":"04G24","Schulname":"Carl-Orff-Grundschule","PLZ":"14199","Strasse":"Berkaer Str. 9-10","Kosten":6910000,"lat":52.47841,"lng":13.28709,"Schulart":"Grundschule","Prio":23},
{"Schulnummer":"12K06","Schulname":"Benjamin-Franklin-Schule (Integrierte Sekundarschule)","PLZ":"13509","Strasse":"Sommerfelder Str. 5-7","Kosten":7170000,"lat":52.581447,"lng":13.300983,"Schulart":"Integrierte Sekundarschule","Prio":23},
{"Schulnummer":"08K04","Schulname":"Heinrich-Mann-Schule","PLZ":"12353","Strasse":"Gerlinger Str. 22","Kosten":6880000,"lat":52.41578,"lng":13.43231,"Schulart":"Integrierte Sekundarschule","Prio":23},
{"Schulnummer":"08G34","Schulname":"Lisa-Tetzner-Schule (Grundschule)","PLZ":"12353","Strasse":"Hasenhegerweg 12","Kosten":7370000,"prio1":6390000,"lat":52.42254,"lng":13.44504,"Schulart":"Grundschule"},
{"Schulnummer":"08S05","Schulname":"Schule am Hasenhegerweg","PLZ":"12353","Strasse":"Hasenhegerweg 12","Kosten":0,"lat":52.42254,"lng":13.44504,"Schulart":"Förderschwerp.\"Lernen\"","Prio":23,"Prio":1},
{"Schulnummer":"12Y07","Schulname":"Romain-Rolland-Gymnasium","PLZ":"13469","Strasse":"Place Moliere 4","Kosten":16370000,"lat":52.598998,"lng":13.317865,"Schulart":"Gymnasium","Prio":23},
{"Schulnummer":"12S01","Schulname":"Stötzner-Schule","PLZ":"13509","Strasse":"Tietzstr. 26-28","Kosten":3470000,"lat":52.584273,"lng":13.304873,"Schulart":"Förderschwerp.\"Lernen\"","Prio":23},
{"Schulnummer":"11K09","Schulname":"Philipp-Reis-Schule (Integrierte Sekundarschule)","PLZ":"13055","Strasse":"Werneuchener Str. 15","Kosten":5060000,"lat":52.53952,"lng":13.49572,"Schulart":"Integrierte Sekundarschule","Prio":23},
{"Schulnummer":"06G23","Schulname":"Kronach-Grundschule","PLZ":"12203","Strasse":"Moltkestr. 24-26","Kosten":8280000,"prio1":8280000,"lat":52.44167,"lng":13.313098,"Schulart":"Grundschule","Prio":1},
{"Schulnummer":"12G28","Schulname":"Grundschule in den Rollbergen","PLZ":"13469","Strasse":"Waldshuter Zeile 6","Kosten":6230000,"lat":52.609905,"lng":13.335731,"Schulart":"Grundschule","Prio":23},
{"Schulnummer":"06Y12","Schulname":"Willi-Graf-Gymnasium","PLZ":"12207","Strasse":"Ostpreußendamm 166","Kosten":7300000,"prio1":7090000,"lat":52.43469,"lng":13.32096,"Schulart":"Gymnasium","Prio":1},
{"Schulnummer":"08Y05","Schulname":"Leonardo-da-Vinci-Gymnasium","PLZ":"12349","Strasse":"Haewererweg 35","Kosten":1750000,"lat":52.41623,"lng":13.42658,"Schulart":"Gymnasium","Prio":23},
{"Schulnummer":"07G36","Schulname":"Grundschule am Dielingsgrund","PLZ":"12305","Strasse":"Dielingsgrund 35","Kosten":7040000,"lat":52.41166,"lng":13.40863,"Schulart":"Grundschule","Prio":23},
{"Schulnummer":"08G22","Schulname":"Schule am Regenweiher (Grundschule)","PLZ":"12351","Strasse":"Johannisthaler Chaussee 328","Kosten":5490000,"lat":52.42985,"lng":13.45178,"Schulart":"Grundschule","Prio":23},
{"Schulnummer":"09A05","Schulname":"Treptow-Kolleg","PLZ":"12437","Strasse":"Kiefholzstr. 274","Kosten":4170000,"lat":52.46818,"lng":13.48463,"Schulart":"Volkshochschul-Kolleg","Prio":23},
{"Schulnummer":"09S06","Schulname":"6. Schule","PLZ":"12437","Strasse":"Köpenicker Landstr. 185A","Kosten":3240000,"lat":52.473436,"lng":13.48707,"Schulart":"Grundschule","Prio":23},
{"Schulnummer":"08G26","Schulname":"Christoph-Ruden-Schule (Grundschule)","PLZ":"12349","Strasse":"An den Achterhöfen 13","Kosten":6530000,"lat":52.421067,"lng":13.435095,"Schulart":"Grundschule","Prio":23},
{"Schulnummer":"07K05","Schulname":"Solling-Schule","PLZ":"12277","Strasse":"Alt-Marienfelde 52","Kosten":13740000,"prio1":13740000,"lat":52.41397,"lng":13.36527,"Schulart":"Integrierte Sekundarschule","Prio":1},
{"Schulnummer":"11Y10","Schulname":"Manfred-von-Ardenne-Gymnasium","PLZ":"13055","Strasse":"Werneuchener Str. 27-28","Kosten":10660000,"lat":52.54188,"lng":13.49242,"Schulart":"Gymnasium","Prio":23},
{"Schulnummer":"04G09","Schulname":"Erwin-von-Witzleben-Grundschule","PLZ":"13627","Strasse":"Halemweg 34","Kosten":2840000,"lat":52.53967,"lng":13.2873,"Schulart":"Grundschule","Prio":23},
{"Schulnummer":"04G23","Schulname":"Alt-Schmargendorf-Grundschule","PLZ":"14199","Strasse":"Reichenhaller Str. 8","Kosten":10810000,"prio1":7770000,"lat":52.477085,"lng":13.293432,"Schulart":"Grundschule","Prio":1},
{"Schulnummer":"11G05","Schulname":"Grundschule auf dem lichten Berg","PLZ":"10365","Strasse":"Atzpodienstr. 19","Kosten":2080000,"lat":52.51686,"lng":13.49421,"Schulart":"Grundschule","Prio":23},
{"Schulnummer":"11K10","Schulname":"Grüner Campus Malchow (Gemeinschaftsschule)","PLZ":"13051","Strasse":"Malchower Chaussee 2","Kosten":11830000,"lat":52.569831,"lng":13.479469,"Schulart":"Integrierte Sekundarschule","Prio":23},
{"Schulnummer":"06G27","Schulname":"Grundschule am Königsgraben","PLZ":"12249","Strasse":"Gallwitzallee 136-144","Kosten":4380000,"lat":52.42303,"lng":13.34815,"Schulart":"Grundschule","Prio":23},
{"Schulnummer":"07G28","Schulname":"Kiepert-Grundschule","PLZ":"12277","Strasse":"Prechtlstr. 21-23","Kosten":9350000,"lat":52.41591,"lng":13.37327,"Schulart":"Grundschule","Prio":23},
{"Schulnummer":"07S03","Schulname":"Steinwald-Schule","PLZ":"12277","Strasse":"Hanielweg 7-9","Kosten":0,"lat":52.41783,"lng":13.36458,"Schulart":"Förderschwerp.\"Geistige Entwicklung\"","Prio":23},
{"Schulnummer":"11G19","Schulname":"Obersee-Grundschule","PLZ":"13053","Strasse":"Roedernstr. 69-72","Kosten":0,"lat":52.543711,"lng":13.488079,"Schulart":"Grundschule","Prio":23},
{"Schulnummer":"08S07","Schulname":"Schule am Bienwaldring","PLZ":"12349","Strasse":"Breitunger Weg 1","Kosten":6840000,"lat":52.42178,"lng":13.42537,"Schulart":"Förderschwerp.\"Geistige Entwicklung\"","Prio":23},
{"Schulnummer":"03G35","Schulname":"Platanengrundschule","PLZ":"13159","Strasse":"Hauptstr. 20","Kosten":1350000,"lat":52.618258,"lng":13.389549,"Schulart":"Grundschule","Prio":23},
{"Schulnummer":"08G29","Schulname":"Wetzlar-Schule (Grundschule)","PLZ":"12351","Strasse":"Tischlerzeile 34","Kosten":5070000,"lat":52.43092,"lng":13.44294,"Schulart":"Grundschule","Prio":23},
{"Schulnummer":"11Y11","Schulname":"Immanuel-Kant-Gymnasium","PLZ":"10317","Strasse":"Lückstr. 63","Kosten":7240000,"lat":52.501956,"lng":13.489635,"Schulart":"Gymnasium","Prio":23},
{"Schulnummer":"09G03","Schulname":"Schule am Heidekampgraben (Grundschule)","PLZ":"12437","Strasse":"Hänselstr. 14","Kosten":1900000,"lat":52.46872,"lng":13.47837,"Schulart":"Grundschule","Prio":23},
{"Schulnummer":"04K08","Schulname":"Peter-Ustinov-Schule","PLZ":"14057","Strasse":"Kuno-Fischer-Str. 22-26","Kosten":2530000,"lat":52.505241,"lng":13.290548,"Schulart":"Integrierte Sekundarschule","Prio":23},
{"Schulnummer":"08S09","Schulname":"Schule an der Windmühle","PLZ":"12349","Strasse":"Buckower Damm 176","Kosten":2530000,"lat":52.42741,"lng":13.43451,"Schulart":"Integrierte Sekundarschule","Prio":23},
{"Schulnummer":"04K07","Schulname":"Integrierte Sekundarschule Wilmersdorf","PLZ":"14199","Strasse":"Kranzer Str. 3","Kosten":8520000,"lat":52.482808,"lng":13.296098,"Schulart":"Integrierte Sekundarschule","Prio":23},
{"Schulnummer":"08G30","Schulname":"Schule am Sandsteinweg (Grundschule)","PLZ":"12349","Strasse":"Hornblendeweg 2","Kosten":7650000,"lat":52.41829,"lng":13.40469,"Schulart":"Grundschule","Prio":23},
{"Schulnummer":"06G16","Schulname":"Rothenburg-Grundschule","PLZ":"12165","Strasse":"Rothenburgstr. 18","Kosten":30000,"lat":52.45398,"lng":13.31302,"Schulart":"Grundschule","Prio":23},
{"Schulnummer":"06Y09","Schulname":"Fichtenberg-Oberschule","PLZ":"12165","Strasse":"Rothenburgstr. 18","Kosten":0,"lat":52.45398,"lng":13.31302,"Schulart":"Gymnasium","Prio":23},
{"Schulnummer":"06G31","Schulname":"Grundschule an der Bäke","PLZ":"12203","Strasse":"Haydnstr. 15","Kosten":8200000,"prio1":8200000,"lat":52.447783,"lng":13.318838,"Schulart":"Grundschule","Prio":1},
{"Schulnummer":"11K04","Schulname":"Gutenberg-Schule","PLZ":"13055","Strasse":"Sandinostr. 10","Kosten":6250000,"lat":52.53573,"lng":13.48743,"Schulart":"Integrierte Sekundarschule","Prio":23},
{"Schulnummer":"06K04","Schulname":"Bröndby-Schule (Integrierte Sekundarschule)","PLZ":"12249","Strasse":"Dessauerstr. 63","Kosten":15120000,"prio1":15120000,"lat":52.428237,"lng":13.345888,"Schulart":"Integrierte Sekundarschule","Prio":1},
{"Schulnummer":"03G21","Schulname":"Grundschule unter den Bäumen","PLZ":"13129","Strasse":"Alt-Blankenburg 26","Kosten":2940000,"lat":52.592262,"lng":13.454422,"Schulart":"Grundschule","Prio":23},
{"Schulnummer":"06G21","Schulname":"Paul-Schneider-Grundschule","PLZ":"12249","Strasse":"Seydlitzstr. 30-34","Kosten":5380000,"lat":52.431002,"lng":13.341243,"Schulart":"Grundschule","Prio":23},
{"Schulnummer":"12G30","Schulname":"Reineke-Fuchs-Grundschule","PLZ":"13403","Strasse":"Foxweg 15","Kosten":6200000,"lat":52.574,"lng":13.30985,"Schulart":"Grundschule","Prio":23},
{"Schulnummer":"03G33","Schulname":"Jeanne-Barez-Schule (Grundschule)","PLZ":"13127","Strasse":"Hauptstr. 66","Kosten":1940000,"lat":52.60417,"lng":13.43415,"Schulart":"Grundschule","Prio":23},
{"Schulnummer":"12S04","Schulname":"Schule am Park","PLZ":"13437","Strasse":"Eichborndamm 276-284","Kosten":4700000,"lat":52.594285,"lng":13.330313,"Schulart":"Förderschwerp.\"Geistige Entwicklung\"","Prio":23},
{"Schulnummer":"03G40","Schulname":"Schule am Birkenhof","PLZ":"13127","Strasse":"Arnouxstr. 18","Kosten":1640000,"lat":52.60791,"lng":13.42388,"Schulart":"Grundschule","Prio":23},
{"Schulnummer":"06S05","Schulname":"J.-A.-Zeune-Schule für Blinde und Berufsfachschule Dr. Silex","PLZ":"12165","Strasse":"Rothenburgstr. 14","Kosten":6230000,"prio1":5830000,"lat":52.455569,"lng":13.315047,"Schulart":"Berufsschule mit sonderpäd. Aufgaben","Prio":1},
{"Schulnummer":"06Y06","Schulname":"Beethoven-Oberschule","PLZ":"12249","Strasse":"Barbarastr. 9","Kosten":14610000,"prio1":14610000,"lat":52.43293,"lng":13.34283,"Schulart":"Gymnasium","Prio":1},
{"Schulnummer":"08G35","Schulname":"Schule in der Köllnischen Heide (Grundschule)","PLZ":"12057","Strasse":"Hänselstr. 6","Kosten":6650000,"prio1":6500000,"lat":52.4666,"lng":13.4721,"Schulart":"Grundschule","Prio":1},
{"Schulnummer":"11G07","Schulname":"Hermann-Gmeiner-Grundschule","PLZ":"10365","Strasse":"Harnackstr. 17","Kosten":0,"lat":52.5101,"lng":13.48594,"Schulart":"Grundschule","Prio":23},
{"Schulnummer":"08G13","Schulname":"Bruno-Taut-Schule (Grundschule)","PLZ":"12359","Strasse":"Bruno-Taut-Ring 9C","Kosten":4530000,"lat":52.44095,"lng":13.44886,"Schulart":"Grundschule","Prio":23},
{"Schulnummer":"04G13","Schulname":"Nehring-Grundschule","PLZ":"14059","Strasse":"Nehringstr. 9-10","Kosten":12330000,"lat":52.514893,"lng":13.293865,"Schulart":"Grundschule","Prio":23},
{"Schulnummer":"12K12","Schulname":"Campus Hannah Höch (Gemeinschaftsschule)","PLZ":"13435","Strasse":"Finsterwalder Str. 52-56","Kosten":11180000,"lat":52.60028,"lng":13.34229,"Schulart":"Integrierte Sekundarschule","Prio":23},
{"Schulnummer":"11G18","Schulname":"Grundschule am Wilhelmsberg","PLZ":"13055","Strasse":"Sandinostr. 8","Kosten":4770000,"lat":52.537206,"lng":13.483664,"Schulart":"Grundschule","Prio":23},
{"Schulnummer":"04G21","Schulname":"Halensee-Grundschule","PLZ":"10711","Strasse":"Joachim-Friedrich-Str. 35-36","Kosten":6620000,"lat":52.49993,"lng":13.2961,"Schulart":"Grundschule","Prio":23},
{"Schulnummer":"04G02","Schulname":"Lietzensee-Grundschule","PLZ":"14057","Strasse":"Witzlebenstr. 34","Kosten":4350000,"lat":52.5094,"lng":13.29502,"Schulart":"Grundschule","Prio":23},
{"Schulnummer":"03G20","Schulname":"Grundschule im Moselviertel","PLZ":"13088","Strasse":"Brodenbacher Weg 31","Kosten":2930000,"lat":52.559028,"lng":13.475454,"Schulart":"Grundschule","Prio":23},
{"Schulnummer":"09K07","Schulname":"Sophie-Brahe-Schule (Gemeinschaftsschule)","PLZ":"12435","Strasse":"Am Plänterwald 17-23","Kosten":5940000,"lat":52.48171,"lng":13.47804,"Schulart":"Integrierte Sekundarschule","Prio":23},
{"Schulnummer":"12K02","Schulname":"Bettina-von-Arnim-Schule","PLZ":"13435","Strasse":"Senftenberger Ring 49","Kosten":18520000,"prio1":9300000,"lat":52.60511,"lng":13.35859,"Schulart":"Integrierte Sekundarschule","Prio":1},
{"Schulnummer":"06Y07","Schulname":"Paulsen-Gymnasium","PLZ":"12163","Strasse":"Gritznerstr. 57","Kosten":9530000,"prio1":8930000,"lat":52.46219,"lng":13.314388,"Schulart":"Gymnasium","Prio":1},
{"Schulnummer":"11G03","Schulname":"Grundschule im Gutspark","PLZ":"10367","Strasse":"Josef-Orlopp-Str. 20","Kosten":1580000,"lat":52.52237,"lng":13.48307,"Schulart":"Grundschule","Prio":23},
{"Schulnummer":"12K03","Schulname":"Max-Beckmann-Schule (Integrierte Sekundarschule)","PLZ":"13403","Strasse":"Auguste-Viktoria-Allee 37","Kosten":9370000,"lat":52.57153,"lng":13.31463,"Schulart":"Integrierte Sekundarschule","Prio":23},
{"Schulnummer":"11G02","Schulname":"Grundschule am Roederplatz","PLZ":"10367","Strasse":"Bernhard-Bästlein-Str. 22","Kosten":4900000,"lat":52.52899,"lng":13.48214,"Schulart":"Grundschule","Prio":23},
{"Schulnummer":"12G33","Schulname":"Lauterbach-Grundschule","PLZ":"13435","Strasse":"Senftenberger Ring 41","Kosten":9550000,"lat":52.603879,"lng":13.359443,"Schulart":"Grundschule","Prio":23},
{"Schulnummer":"12S03","Schulname":"Lauterbach-Schule","PLZ":"13435","Strasse":"Senftenberger Ring 41","Kosten":750000,"lat":52.603879,"lng":13.359443,"Schulart":"Übrige Förderschwerpunkte","Prio":23},
{"Schulnummer":"08S08","Schulname":"Schilling-Schule","PLZ":"12359","Strasse":"Paster-Behrens-Str. 81","Kosten":11040000,"lat":52.442637,"lng":13.444198,"Schulart":"Übrige Förderschwerpunkte","Prio":23},
{"Schulnummer":"03G44","Schulname":"Georg-Zacharias-Grundschule","PLZ":"13088","Strasse":"Sulzfelder Str. 15","Kosten":1800000,"lat":52.55219,"lng":13.47502,"Schulart":"Grundschule","Prio":23},
{"Schulnummer":"04K06","Schulname":"Schule am Schloss (Integrierte Sekundarschule)","PLZ":"14059","Strasse":"Schloßstr. 55A","Kosten":12530000,"lat":52.5161,"lng":13.29812,"Schulart":"Integrierte Sekundarschule","Prio":23},
{"Schulnummer":"11G16","Schulname":"Schule an der Victoriastadt","PLZ":"10317","Strasse":"Nöldnerstr. 44","Kosten":2450000,"lat":52.50159,"lng":13.48054,"Schulart":"Grundschule","Prio":23},
{"Schulnummer":"04G11","Schulname":"Helmuth-James-von-Moltke-Grundschule","PLZ":"13627","Strasse":"Heckerdamm 221","Kosten":4440000,"lat":52.53903,"lng":13.30104,"Schulart":"Grundschule","Prio":23},
{"Schulnummer":"12G10","Schulname":"Peter-Witte-Grundschule","PLZ":"13437","Strasse":"Rathauspromenade 75","Kosten":6200000,"lat":52.5863,"lng":13.33039,"Schulart":"Grundschule","Prio":23},
{"Schulnummer":"11K02","Schulname":"Mildred-Harnack-Schule","PLZ":"10365","Strasse":"Schulze-Boysen-Str. 12","Kosten":8280000,"lat":52.511321,"lng":13.481213,"Schulart":"Integrierte Sekundarschule","Prio":23},
{"Schulnummer":"04G12","Schulname":"Schinkel-Grundschule","PLZ":"10585","Strasse":"Nithackstr. 8","Kosten":7530000,"lat":52.51782,"lng":13.29876,"Schulart":"Grundschule","Prio":23},
{"Schulnummer":"11S06","Schulname":"Selma-Lagerlöf-Schule","PLZ":"10367","Strasse":"Bernhard-Bästlein-Str. 56","Kosten":5480000,"lat":52.53183,"lng":13.47998,"Schulart":"Übrige Förderschwerpunkte","Prio":23},
{"Schulnummer":"12K07","Schulname":"Jean-Krämer-Schule (Integrierte Sekundarschule) Wittenau","PLZ":"13437","Strasse":"Alt-Wittenau 8-12","Kosten":10670000,"lat":52.58995,"lng":13.33545,"Schulart":"Integrierte Sekundarschule","Prio":23},
{"Schulnummer":"12G27","Schulname":"Chamisso-Grundschule","PLZ":"13435","Strasse":"Senftenberger Ring 27","Kosten":5810000,"lat":52.60169,"lng":13.35807,"Schulart":"Grundschule","Prio":23},
{"Schulnummer":"11K06","Schulname":"Schule am Rathaus","PLZ":"10367","Strasse":"Rathausstr. 8","Kosten":3250000,"lat":52.515892,"lng":13.48038,"Schulart":"Integrierte Sekundarschule","Prio":23},
{"Schulnummer":"12Y08","Schulname":"Thomas-Mann-Gymnasium","PLZ":"13439","Strasse":"Königshorster Str. 10","Kosten":16100000,"prio1":14300000,"lat":52.59848,"lng":13.35224,"Schulart":"Gymnasium","Prio":1},
{"Schulnummer":"08K12","Schulname":"Kepler-Schule","PLZ":"12057","Strasse":"Zwillingestr. 21","Kosten":4950000,"lat":52.46737,"lng":13.46477,"Schulart":"Integrierte Sekundarschule","Prio":23},
{"Schulnummer":"04G19","Schulname":"Grundschule am Rüdesheimer Platz","PLZ":"14197","Strasse":"Rüdesheimer Str. 24-30","Kosten":7900000,"lat":52.47113,"lng":13.31312,"Schulart":"Grundschule","Prio":23},
{"Schulnummer":"02G11","Schulname":"Thalia-Grundschule","PLZ":"10245","Strasse":"Alt-Stralau 34","Kosten":650000,"lat":52.492881,"lng":13.476151,"Schulart":"Grundschule","Prio":23},
{"Schulnummer":"08G20","Schulname":"Sonnen-Schule (Grundschule)","PLZ":"12057","Strasse":"Dammweg 228","Kosten":4060000,"lat":52.47197,"lng":13.46714,"Schulart":"Grundschule","Prio":23},
{"Schulnummer":"04K05","Schulname":"Paula-Fürst-Schule (Gemeinschaftsschule)","PLZ":"10629","Strasse":"Sybelstr. 20-21","Kosten":5350000,"lat":52.50227,"lng":13.30194,"Schulart":"Integrierte Sekundarschule","Prio":23},
{"Schulnummer":"06G20","Schulname":"Alt-Lankwitzer Grundschule","PLZ":"12247","Strasse":"Schulstr. 17-21","Kosten":4600000,"lat":52.437023,"lng":13.351096,"Schulart":"Grundschule","Prio":23},
{"Schulnummer":"06S03","Schulname":"Peter-Frankenfeld-Schule","PLZ":"12247","Strasse":"Wedellstr. 26","Kosten":2100000,"lat":52.43515,"lng":13.35522,"Schulart":"Förderschwerp.\"Geistige Entwicklung\"","Prio":23},
{"Schulnummer":"06G28","Schulname":"Ludwig-Bechstein-Grundschule","PLZ":"12249","Strasse":"Halbauer Weg 25","Kosten":5790000,"lat":52.43255,"lng":13.36236,"Schulart":"Grundschule","Prio":23},
{"Schulnummer":"06G15","Schulname":"Dunant-Grundschule","PLZ":"12163","Strasse":"Gritznerstr. 19-23","Kosten":5880000,"prio1":5880000,"lat":52.46486,"lng":13.31818,"Schulart":"Grundschule","Prio":1},
{"Schulnummer":"08Y03","Schulname":"Albert-Einstein-Gymnasium","PLZ":"12359","Strasse":"Parchimer Allee 109","Kosten":15780000,"lat":52.44553,"lng":13.44245,"Schulart":"Gymnasium","Prio":23},
{"Schulnummer":"04Y04","Schulname":"Gottfried-Keller-Gymnasium","PLZ":"10589","Strasse":"Olbersstr. 38","Kosten":13390000,"lat":52.52888,"lng":13.3022,"Schulart":"Gymnasium","Prio":23},
{"Schulnummer":"04K09","Schulname":"Otto-von-Guericke-Schule (Integrierte Sekundarschule)","PLZ":"10709","Strasse":"Eisenzahnstr. 47-48","Kosten":11540000,"lat":52.49276,"lng":13.30516,"Schulart":"Integrierte Sekundarschule","Prio":23},
{"Schulnummer":"06Y13","Schulname":"Gymnasium Steglitz","PLZ":"12169","Strasse":"Heesestr. 15","Kosten":6690000,"prio1":5540000,"lat":52.45671,"lng":13.32644,"Schulart":"Gymnasium","Prio":1},
{"Schulnummer":"11S02","Schulname":"Schule am Fennpfuhl","PLZ":"10369","Strasse":"Alfred-Jung-Str. 19","Kosten":4400000,"lat":52.52392,"lng":13.4769,"Schulart":"Förderschwerp.\"Lernen\"","Prio":23},
{"Schulnummer":"06K03","Schulname":"Kopernikus-Schule (Integrierte Sekundarschule)","PLZ":"12163","Strasse":"Lepsiusstr. 24-28","Kosten":7190000,"prio1":7190000,"lat":52.4643,"lng":13.32069,"Schulart":"Integrierte Sekundarschule","Prio":1},
{"Schulnummer":"08K06","Schulname":"Fritz-Karsen-Schule (Gemeinschaftsschule)","PLZ":"12359","Strasse":"Onkel-Bräsig-Str. 76-78","Kosten":18380000,"lat":52.44865,"lng":13.44389,"Schulart":"Integrierte Sekundarschule","Prio":23},
{"Schulnummer":"04G08","Schulname":"Mierendorff-Grundschule","PLZ":"10589","Strasse":"Mierendorffstr. 20-24","Kosten":9500000,"lat":52.523791,"lng":13.303338,"Schulart":"Grundschule","Prio":23},
{"Schulnummer":"04G20","Schulname":"Katharina-Heinroth-Grundschule","PLZ":"10709","Strasse":"Münstersche Str. 15-17","Kosten":8720000,"lat":52.494,"lng":13.30619,"Schulart":"Grundschule","Prio":23},
{"Schulnummer":"12G11","Schulname":"Ringelnatz-Grundschule","PLZ":"13437","Strasse":"Wilhelm-Gericke-Str. 7","Kosten":3840000,"lat":52.5861,"lng":13.33753,"Schulart":"Grundschule","Prio":23},
{"Schulnummer":"12G09","Schulname":"Grundschule an der Peckwisch","PLZ":"13439","Strasse":"Tornower Weg 26-34","Kosten":4640000,"lat":52.59299,"lng":13.34869,"Schulart":"Grundschule","Prio":23},
{"Schulnummer":"12G29","Schulname":"Hermann-Schulz-Grundschule","PLZ":"13403","Strasse":"Kienhorststr. 67-79","Kosten":7060000,"lat":52.57359,"lng":13.32554,"Schulart":"Grundschule","Prio":23},
{"Schulnummer":"06Y08","Schulname":"Hermann-Ehlers-Oberschule","PLZ":"12169","Strasse":"Elisenstr. 3-4","Kosten":10150000,"prio1":10150000,"lat":52.45297,"lng":13.33373,"Schulart":"Gymnasium","Prio":1},
{"Schulnummer":"12G32","Schulname":"Charlie-Chaplin-Grundschule","PLZ":"13439","Strasse":"Wilhelmsruher Damm 90-94","Kosten":2840000,"lat":52.59744,"lng":13.36465,"Schulart":"Grundschule","Prio":23},
{"Schulnummer":"06K10","Schulname":"Helene-Lange-Schule (Integrierte Sekundarschule)","PLZ":"12169","Strasse":"Lauenburger Str. 110","Kosten":7550000,"lat":52.4528,"lng":13.33586,"Schulart":"Integrierte Sekundarschule","Prio":23},
{"Schulnummer":"11S12","Schulname":"Nils-Holgersson-Schule","PLZ":"10369","Strasse":"Otto-Marquardt-Str. 12-14","Kosten":0,"lat":52.53405,"lng":13.47214,"Schulart":"Förderschwerp.\"Geistige Entwicklung\"","Prio":23},
{"Schulnummer":"12G26","Schulname":"Märkische Grundschule","PLZ":"13439","Strasse":"Dannenwalder Weg 163-165","Kosten":4850000,"lat":52.5952,"lng":13.36016,"Schulart":"Grundschule","Prio":23},
{"Schulnummer":"07G37","Schulname":"Ikarus-Grundschule","PLZ":"12107","Strasse":"Körtingstr. 45","Kosten":6900000,"lat":52.43363,"lng":13.38389,"Schulart":"Grundschule","Prio":23},
{"Schulnummer":"08K03","Schulname":"Otto-Hahn-Schule","PLZ":"12359","Strasse":"Buschkrugallee 63","Kosten":3240000,"lat":52.45809,"lng":13.449,"Schulart":"Integrierte Sekundarschule","Prio":23},
{"Schulnummer":"11S07","Schulname":"Carl-von-Linné-Schule","PLZ":"10367","Strasse":"Paul-Junius-Str. 15","Kosten":1280000,"lat":52.5217,"lng":13.47301,"Schulart":"Berufsschule mit sonderpäd. Aufgaben","Prio":23},
{"Schulnummer":"04S02","Schulname":"Arno-Fuchs-Schule","PLZ":"10585","Strasse":"Richard-Wagner-Str. 30","Kosten":3840000,"lat":52.51489,"lng":13.30717,"Schulart":"Förderschwerp.\"Geistige Entwicklung\"","Prio":23},
{"Schulnummer":"07G17","Schulname":"Stechlinsee-Grundschule","PLZ":"12161","Strasse":"Rheingaustr. 7","Kosten":2800000,"lat":52.46934,"lng":13.32242,"Schulart":"Grundschule","Prio":23},
{"Schulnummer":"06G32","Schulname":"Grundschule am Stadtpark Steglitz","PLZ":"12167","Strasse":"Karl-Stieler-Str. 10-11","Kosten":2760000,"lat":52.449314,"lng":13.34298,"Schulart":"Grundschule","Prio":23},
{"Schulnummer":"08K11","Schulname":"Alfred-Nobel-Schule","PLZ":"12347","Strasse":"Britzer Damm 164","Kosten":2190000,"lat":52.448,"lng":13.43469,"Schulart":"Integrierte Sekundarschule","Prio":23},
{"Schulnummer":"07Y03","Schulname":"Rheingau-Gymnasium","PLZ":"12161","Strasse":"Schwalbacher Str. 3-4","Kosten":10360000,"lat":52.470206,"lng":13.322611,"Schulart":"Gymnasium","Prio":23},
{"Schulnummer":"02G08","Schulname":"Grundschule am Traveplatz","PLZ":"10247","Strasse":"Jessnerstr. 24-32","Kosten":3040000,"lat":52.511492,"lng":13.471855,"Schulart":"Grundschule","Prio":23},
{"Schulnummer":"12G07","Schulname":"Mark-Twain-Grundschule","PLZ":"13403","Strasse":"Auguste-Viktoria-Allee 95","Kosten":4890000,"lat":52.56864,"lng":13.3264,"Schulart":"Grundschule","Prio":23},
{"Schulnummer":"07Y04","Schulname":"Paul-Natorp-Gymnasium","PLZ":"12161","Strasse":"Goßlerstr. 13-15","Kosten":0,"lat":52.46939,"lng":13.32431,"Schulart":"Gymnasium","Prio":23},
{"Schulnummer":"02G04","Schulname":"Pettenkofer-Grundschule","PLZ":"10247","Strasse":"Pettenkoferstr. 20-24","Kosten":5070000,"lat":52.518656,"lng":13.471,"Schulart":"Grundschule","Prio":23},
{"Schulnummer":"04S06","Schulname":"Finkenkrug-Schule","PLZ":"10713","Strasse":"Mannheimer Str. 21-22","Kosten":1780000,"lat":52.48448,"lng":13.31606,"Schulart":"Förderschwerp.\"Geistige Entwicklung\"","Prio":23},
{"Schulnummer":"07G16","Schulname":"Ruppin-Grundschule","PLZ":"14197","Strasse":"Offenbacher Str. 5A","Kosten":12860000,"prio1":12860000,"lat":52.47538,"lng":13.32137,"Schulart":"Grundschule","Prio":1},
{"Schulnummer":"04Y03","Schulname":"Sophie-Charlotte-Gymnasium","PLZ":"10629","Strasse":"Sybelstr. 2","Kosten":7210000,"lat":52.5023,"lng":13.31237,"Schulart":"Gymnasium","Prio":23},
{"Schulnummer":"08G19","Schulname":"Herman-Nohl-Schule (Grundschule)","PLZ":"12347","Strasse":"Hannemannstr. 69","Kosten":1960000,"lat":52.455159,"lng":13.43894,"Schulart":"Grundschule","Prio":23},
{"Schulnummer":"08S03","Schulname":"Herman-Nohl-Schule","PLZ":"12347","Strasse":"Hannemannstr. 69","Kosten":0,"lat":52.455159,"lng":13.43894,"Schulart":"Förderschwerp.\"Lernen\"","Prio":23},
{"Schulnummer":"07G27","Schulname":"Rudolf-Hildebrand-Grundschule","PLZ":"12107","Strasse":"Friedenstr. 23-25","Kosten":8980000,"lat":52.43886,"lng":13.3855,"Schulart":"Grundschule","Prio":23},
{"Schulnummer":"02G34","Schulname":"34. Schule (Grundschule)","PLZ":"10247","Strasse":"Scharnweberstr. 19","Kosten":270000,"lat":52.51279,"lng":13.46783,"Schulart":"Grundschule","Prio":23},
{"Schulnummer":"11G01","Schulname":"Sonnenuhr-Grundschule","PLZ":"10369","Strasse":"Franz-Jacob-Str. 33","Kosten":3670000,"lat":52.52933,"lng":13.46695,"Schulart":"Grundschule","Prio":23},
{"Schulnummer":"11Y02","Schulname":"Johann-Gottfried-Herder-Gymnasium","PLZ":"10369","Strasse":"Franz-Jacob-Str. 8","Kosten":1480000,"lat":52.52671,"lng":13.467245,"Schulart":"Gymnasium","Prio":23},
{"Schulnummer":"06G14","Schulname":"Sachsenwald-Grundschule","PLZ":"12157","Strasse":"Sachsenwaldstr. 20-21","Kosten":3490000,"lat":52.46151,"lng":13.3354,"Schulart":"Grundschule","Prio":23},
{"Schulnummer":"04Y07","Schulname":"Friedrich-Ebert-Gymnasium","PLZ":"10713","Strasse":"Blissestr. 22","Kosten":8430000,"prio1":6690000,"lat":52.484621,"lng":13.319289,"Schulart":"Gymnasium","Prio":1},
{"Schulnummer":"03G43","Schulname":"Grundschule Wilhelmsruh","PLZ":"13158","Strasse":"Lessingstr. 44","Kosten":2100000,"lat":52.5903,"lng":13.36421,"Schulart":"Grundschule","Prio":23},
{"Schulnummer":"04G01","Schulname":"Eichendorff-Grundschule","PLZ":"10625","Strasse":"Goethestr. 19","Kosten":4660000,"lat":52.50921,"lng":13.31305,"Schulart":"Grundschule","Prio":23},
{"Schulnummer":"04S07","Schulname":"Comenius-Schule","PLZ":"10713","Strasse":"Gieselerstr. 4","Kosten":11020000,"lat":52.48869,"lng":13.3181,"Schulart":"Grundschule","Prio":23},
{"Schulnummer":"03G17","Schulname":"Grundschule am Weißen See","PLZ":"13086","Strasse":"Amalienstr. 6","Kosten":8790000,"prio1":7510000,"lat":52.555294,"lng":13.457004,"Schulart":"Grundschule","Prio":1},
{"Schulnummer":"04G26","Schulname":"Birger-Forell-Grundschule","PLZ":"10715","Strasse":"Koblenzer Str. 22-24","Kosten":5660000,"lat":52.480726,"lng":13.321893,"Schulart":"Grundschule","Prio":23},
{"Schulnummer":"08G24","Schulname":"Schule am Teltowkanal (Grundschule)","PLZ":"12347","Strasse":"Rungiusstr. 46","Kosten":3370000,"lat":52.45925,"lng":13.44063,"Schulart":"Grundschule","Prio":23},
{"Schulnummer":"03G28","Schulname":"Grundschule im Hasengrund","PLZ":"13156","Strasse":"Charlottenstr. 19","Kosten":0,"lat":52.59089,"lng":13.410577,"Schulart":"Grundschule","Prio":23},
{"Schulnummer":"06G17","Schulname":"Grundschule am Insulaner","PLZ":"12169","Strasse":"Hanstedter Weg 11-15","Kosten":4430000,"lat":52.45185,"lng":13.34956,"Schulart":"Grundschule","Prio":23},
{"Schulnummer":"03G18","Schulname":"Picasso-Grundschule","PLZ":"13088","Strasse":"Gounodstr. 71","Kosten":3460000,"lat":52.547032,"lng":13.460359,"Schulart":"Grundschule","Prio":23},
{"Schulnummer":"02G09","Schulname":"Zille-Grundschule","PLZ":"10245","Strasse":"Boxhagener Str. 46","Kosten":1180000,"lat":52.50898,"lng":13.4653,"Schulart":"Grundschule","Prio":23},
{"Schulnummer":"03G13","Schulname":"Rudolf-Dörrier-Grundschule","PLZ":"13158","Strasse":"Kastanienallee 59","Kosten":4910000,"lat":52.59125,"lng":13.37612,"Schulart":"Grundschule","Prio":23},
{"Schulnummer":"07G31","Schulname":"Carl-Sonnenschein-Grundschule","PLZ":"12109","Strasse":"Am Hellespont 4-6","Kosten":710000,"lat":52.443699,"lng":13.408152,"Schulart":"Grundschule","Prio":23},
{"Schulnummer":"07G15","Schulname":"Fläming-Grundschule","PLZ":"12161","Strasse":"Illstr. 4-6","Kosten":7250000,"prio1":7250000,"lat":52.46839,"lng":13.3329,"Schulart":"Grundschule","Prio":1},
{"Schulnummer":"04Y10","Schulname":"Marie-Curie-Gymnasium","PLZ":"10715","Strasse":"Weimarische Str. 21","Kosten":5050000,"lat":52.480119,"lng":13.324748,"Schulart":"Gymnasium","Prio":23},
{"Schulnummer":"04G07","Schulname":"Ludwig-Cauer-Grundschule","PLZ":"10587","Strasse":"Cauerstr. 36-38","Kosten":6920000,"lat":52.515043,"lng":13.315123,"Schulart":"Grundschule","Prio":23},
{"Schulnummer":"04K03","Schulname":"Robert-Jungk-Schule","PLZ":"10707","Strasse":"Sächsische Str. 58","Kosten":3200000,"lat":52.49448,"lng":13.31872,"Schulart":"Integrierte Sekundarschule","Prio":23},
{"Schulnummer":"07K07","Schulname":"Johanna-Eck-Schule (Integrierte Sekundarschule)","PLZ":"12105","Strasse":"Ringstr. 103-106","Kosten":13340000,"prio1":13340000,"lat":52.44692,"lng":13.36411,"Schulart":"Integrierte Sekundarschule","Prio":1},
{"Schulnummer":"04G17","Schulname":"Johann-Peter-Hebel-Grundschule","PLZ":"10719","Strasse":"Emser Str. 50","Kosten":5890000,"lat":52.49541,"lng":13.31942,"Schulart":"Grundschule","Prio":23},
{"Schulnummer":"08G36","Schulname":"Löwenzahn-Schule (Grundschule)","PLZ":"12055","Strasse":"Drorystr. 3","Kosten":4860000,"lat":52.472499,"lng":13.448771,"Schulart":"Grundschule","Prio":23},
{"Schulnummer":"12G04","Schulname":"Till-Eulenspiegel-Grundschule","PLZ":"13407","Strasse":"Humboldtstr. 8-13","Kosten":5530000,"lat":52.5732,"lng":13.3423,"Schulart":"Grundschule","Prio":23},
{"Schulnummer":"01K04","Schulname":"Heinrich-von-Stephan-Schule (Gemeinschaftsschule)","PLZ":"10553","Strasse":"Neues Ufer 6","Kosten":6980000,"lat":52.524775,"lng":13.316714,"Schulart":"Integrierte Sekundarschule","Prio":23},
{"Schulnummer":"04Y11","Schulname":"Goethe-Gymnasium","PLZ":"10717","Strasse":"Gasteiner Str. 23","Kosten":7130000,"lat":52.48759,"lng":13.3225,"Schulart":"Gymnasium","Prio":23},
{"Schulnummer":"08G23","Schulname":"Zürich-Schule (Grundschule)","PLZ":"12347","Strasse":"Wederstr. 49","Kosten":1900000,"lat":52.462585,"lng":13.439533,"Schulart":"Grundschule","Prio":23},
{"Schulnummer":"08S01","Schulname":"Adolf-Reichwein-Schule","PLZ":"12059","Strasse":"Sonnenallee 188","Kosten":5350000,"lat":52.475733,"lng":13.450826,"Schulart":"Förderschwerp.\"Lernen\"","Prio":23},
{"Schulnummer":"02Y03","Schulname":"Heinrich-Hertz-Oberschule","PLZ":"10247","Strasse":"Rigaer Str. 81-82","Kosten":7780000,"prio1":7050000,"lat":52.51695,"lng":13.46306,"Schulart":"Gymnasium","Prio":1},
{"Schulnummer":"09G30","Schulname":"Kiefholz-Grundschule","PLZ":"12435","Strasse":"Kiefholzstr. 45","Kosten":950000,"lat":52.48626,"lng":13.45609,"Schulart":"Grundschule","Prio":23},
{"Schulnummer":"07Y07","Schulname":"Eckener-Gymnasium","PLZ":"12105","Strasse":"Kaiserstr. 17-21","Kosten":9540000,"prio1":7740000,"lat":52.4451,"lng":13.38052,"Schulart":"Gymnasium","Prio":1},
{"Schulnummer":"03Y14","Schulname":"Primo-Levi-Gymnasium","PLZ":"13086","Strasse":"Pistoriusstr. 133","Kosten":19850000,"prio1":19600000,"lat":52.5516,"lng":13.45369,"Schulart":"Gymnasium","Prio":1},
{"Schulnummer":"08G18","Schulname":"Eduard-Mörike-Schule (Grundschule)","PLZ":"12059","Strasse":"Stuttgarter Str. 35-39","Kosten":7930000,"lat":52.477969,"lng":13.450143,"Schulart":"Grundschule","Prio":23},
{"Schulnummer":"03G36","Schulname":"Elisabeth-Christinen-Grundschule","PLZ":"13156","Strasse":"Lindenberger Str. 12","Kosten":7650000,"prio1":5070000,"lat":52.58294,"lng":13.41741,"Schulart":"Grundschule","Prio":1},
{"Schulnummer":"04G04","Schulname":"Joan-Miró-Grundschule","PLZ":"10623","Strasse":"Bleibtreustr. 43","Kosten":8030000,"lat":52.50357,"lng":13.32014,"Schulart":"Grundschule","Prio":23},
{"Schulnummer":"02G10","Schulname":"Modersohn-Grundschule","PLZ":"10245","Strasse":"Niemannstr. 3","Kosten":510000,"lat":52.50705,"lng":13.46024,"Schulart":"Grundschule","Prio":23},
{"Schulnummer":"03K08","Schulname":"Hagenbeck-Schule","PLZ":"13086","Strasse":"Gustav-Adolf-Str. 60","Kosten":5080000,"lat":52.55879,"lng":13.44729,"Schulart":"Integrierte Sekundarschule","Prio":23},
{"Schulnummer":"03G38","Schulname":"Grundschule im Blumenviertel","PLZ":"10407","Strasse":"Syringenplatz 30","Kosten":3720000,"lat":52.535141,"lng":13.458074,"Schulart":"Grundschule","Prio":23},
{"Schulnummer":"03K03","Schulname":"Konrad-Duden-Schule (Integrierte Sekundarschule)","PLZ":"13156","Strasse":"Rolandstr. 35","Kosten":1880000,"lat":52.58183,"lng":13.41744,"Schulart":"Integrierte Sekundarschule","Prio":23},
{"Schulnummer":"08G03","Schulname":"Hans-Fallada-Schule (Grundschule)","PLZ":"12059","Strasse":"Harzer Str. 73","Kosten":7860000,"lat":52.483564,"lng":13.451851,"Schulart":"Grundschule","Prio":23},
{"Schulnummer":"08S06","Schulname":"Hans-Fallada-Schule","PLZ":"12059","Strasse":"Harzer Str. 73-74","Kosten":0,"lat":52.483564,"lng":13.451851,"Schulart":"Förderschwerp.\"Lernen\"","Prio":23},
{"Schulnummer":"07G25","Schulname":"Ludwig-Heck-Grundschule","PLZ":"12105","Strasse":"Königstr. 32","Kosten":7430000,"lat":52.447125,"lng":13.383928,"Schulart":"Grundschule","Prio":23},
{"Schulnummer":"07K10","Schulname":"Friedrich-Bergius-Schule","PLZ":"12159","Strasse":"Perelsplatz 6-9","Kosten":8750000,"prio1":8750000,"lat":52.47618,"lng":13.33314,"Schulart":"Integrierte Sekundarschule","Prio":1},
{"Schulnummer":"04K02","Schulname":"Friedensburg-Schule","PLZ":"10623","Strasse":"Goethestr. 8-9","Kosten":12860000,"lat":52.50908,"lng":13.32082,"Schulart":"Integrierte Sekundarschule","Prio":23},
{"Schulnummer":"08G17","Schulname":"Richard-Schule (Grundschule)","PLZ":"12055","Strasse":"Richardplatz 14","Kosten":3070000,"lat":52.47359,"lng":13.44439,"Schulart":"Grundschule","Prio":23},
{"Schulnummer":"07G23","Schulname":"Schätzelberg-Grundschule","PLZ":"12109","Strasse":"Wolfsburger Weg 13-19","Kosten":5840000,"prio1":5840000,"lat":52.4487,"lng":13.40066,"Schulart":"Grundschule","Prio":1},
{"Schulnummer":"02K06","Schulname":"Emanuel-Lasker-Schule","PLZ":"10245","Strasse":"Modersohnstr. 53","Kosten":2220000,"lat":52.50277,"lng":13.45729,"Schulart":"Integrierte Sekundarschule","Prio":23},
{"Schulnummer":"04Y01","Schulname":"Schiller-Gymnasium","PLZ":"10625","Strasse":"Schillerstr. 125-127","Kosten":11340000,"prio1":7350000,"lat":52.50993,"lng":13.321596,"Schulart":"Gymnasium","Prio":1},
{"Schulnummer":"08Y01","Schulname":"Albrecht-Dürer-Gymnasium","PLZ":"12051","Strasse":"Emser Str. 132-137","Kosten":1830000,"lat":52.46947,"lng":13.43907,"Schulart":"Gymnasium","Prio":23},
{"Schulnummer":"01G40","Schulname":"Möwensee-Grundschule","PLZ":"13351","Strasse":"Afrikanische Str. 123-125","Kosten":6620000,"prio1":6110000,"lat":52.55575,"lng":13.33375,"Schulart":"Grundschule","Prio":1},
{"Schulnummer":"03Y15","Schulname":"Max-Delbrück-Gymnasium","PLZ":"13156","Strasse":"Kuckhoffstr. 2-22","Kosten":8200000,"prio1":8180000,"lat":52.583884,"lng":13.402118,"Schulart":"Gymnasium","Prio":1},
{"Schulnummer":"02G03","Schulname":"Justus-von-Liebig-Grundschule","PLZ":"10247","Strasse":"Liebigstr. 18A","Kosten":5430000,"lat":52.518699,"lng":13.457697,"Schulart":"Grundschule","Prio":23},
{"Schulnummer":"03S08","Schulname":"Panke-Schule","PLZ":"13187","Strasse":"Galenusstr. 64","Kosten":0,"lat":52.57877,"lng":13.41699,"Schulart":"Förderschwerp.\"Geistige Entwicklung\"","Prio":23},
{"Schulnummer":"03G22","Schulname":"Grundschule am Wasserturm","PLZ":"13089","Strasse":"Tino-Schwierzina-Str. 66","Kosten":0,"lat":52.56546,"lng":13.43664,"Schulart":"Grundschule","Prio":23},
{"Schulnummer":"08G21","Schulname":"Silberstein-Schule (Grundschule)","PLZ":"12051","Strasse":"Silbersteinstr. 42","Kosten":3110000,"lat":52.466965,"lng":13.434906,"Schulart":"Grundschule","Prio":23},
{"Schulnummer":"03G47","Schulname":"Schule an der Strauchwiese","PLZ":"13187","Strasse":"Mendelstr. 54","Kosten":0,"lat":52.57805,"lng":13.41782,"Schulart":"Grundschule","Prio":23},
{"Schulnummer":"03S09","Schulname":"Schule an der Strauchwiese","PLZ":"13187","Strasse":"Mendelstr. 54","Kosten":200000,"lat":52.57805,"lng":13.41782,"Schulart":"Übrige Förderschwerpunkte","Prio":23},
{"Schulnummer":"09G01","Schulname":"Bouché-Schule (Grundschule)","PLZ":"12435","Strasse":"Bouchestr. 5-10","Kosten":3820000,"lat":52.49327,"lng":13.45252,"Schulart":"Grundschule","Prio":23},
{"Schulnummer":"04G25","Schulname":"Cecilien-Schule (Grundschule)","PLZ":"10717","Strasse":"Nikolsburger Platz 5","Kosten":6060000,"lat":52.49331,"lng":13.32769,"Schulart":"Grundschule","Prio":23},
{"Schulnummer":"04G18","Schulname":"Ernst-Habermann-Grundschule","PLZ":"10715","Strasse":"Prinzregentenstr. 33-34","Kosten":1720000,"lat":52.48328,"lng":13.33269,"Schulart":"Grundschule","Prio":23},
{"Schulnummer":"12K04","Schulname":"Paul-Löbe-Schule","PLZ":"13407","Strasse":"Lindauer Allee 23-25","Kosten":10650000,"lat":52.57316,"lng":13.35461,"Schulart":"Integrierte Sekundarschule","Prio":23},
{"Schulnummer":"08G15","Schulname":"Hermann-Sander-Schule (Grundschule)","PLZ":"12051","Strasse":"Mariendorfer Weg 69","Kosten":7130000,"lat":52.46416,"lng":13.43005,"Schulart":"Grundschule","Prio":23},
{"Schulnummer":"07K12","Schulname":"Friedenauer Gemeinschaftsschule","PLZ":"12157","Strasse":"Rubensstr. 63","Kosten":0,"lat":52.469784,"lng":13.344068,"Schulart":"Integrierte Sekundarschule","Prio":23},
{"Schulnummer":"08K09","Schulname":"Röntgen-Schule","PLZ":"12435","Strasse":"Wildenbruchstr. 53","Kosten":8350000,"lat":52.488886,"lng":13.449558,"Schulart":"Integrierte Sekundarschule","Prio":23},
{"Schulnummer":"02Y04","Schulname":"Georg-Friedrich-Händel-Gymnasium","PLZ":"10247","Strasse":"Frankfurter Allee 6A","Kosten":2080000,"lat":52.515331,"lng":13.455796,"Schulart":"Gymnasium","Prio":23},
{"Schulnummer":"07S01","Schulname":"Prignitz-Schule","PLZ":"12157","Strasse":"Pöppelmannstr. 2","Kosten":7540000,"lat":52.46884,"lng":13.34519,"Schulart":"Förderschwerp.\"Lernen\"","Prio":23},
{"Schulnummer":"02G02","Schulname":"Hausburg-Grundschule","PLZ":"10249","Strasse":"Hausburgstr. 20","Kosten":6600000,"prio1":5530000,"lat":52.524208,"lng":13.454324,"Schulart":"Grundschule","Prio":1},
{"Schulnummer":"07G07","Schulname":"Lindenhof-Grundschule","PLZ":"12105","Strasse":"Reglinstr. 29","Kosten":3200000,"lat":52.45809,"lng":13.36325,"Schulart":"Grundschule","Prio":23},
{"Schulnummer":"07G22","Schulname":"Paul-Klee-Grundschule","PLZ":"12105","Strasse":"Konradinstr. 15-17","Kosten":8260000,"prio1":8260000,"lat":52.454,"lng":13.37538,"Schulart":"Grundschule","Prio":1},
{"Schulnummer":"08G12","Schulname":"Peter-Petersen-Schule (Grundschule)","PLZ":"12053","Strasse":"Jonasstr. 15","Kosten":1880000,"lat":52.47189,"lng":13.43548,"Schulart":"Grundschule","Prio":23},
{"Schulnummer":"08G14","Schulname":"Konrad-Agahd-Schule (Grundschule)","PLZ":"12053","Strasse":"Thomasstr. 39","Kosten":2120000,"lat":52.4725,"lng":13.43556,"Schulart":"Grundschule","Prio":23},
{"Schulnummer":"12G05","Schulname":"Kolumbus-Grundschule","PLZ":"13409","Strasse":"Büchsenweg 23A","Kosten":4870000,"lat":52.57569,"lng":13.36622,"Schulart":"Grundschule","Prio":23},
{"Schulnummer":"03K04","Schulname":"Gustave-Eiffel-Schule","PLZ":"10409","Strasse":"Hanns-Eisler-Str. 78-80","Kosten":7020000,"prio1":6410000,"lat":52.540662,"lng":13.44844,"Schulart":"Integrierte Sekundarschule","Prio":1},
{"Schulnummer":"07G06","Schulname":"Sternberg-Grundschule","PLZ":"10825","Strasse":"Mettestr. 8","Kosten":2300000,"lat":52.48047,"lng":13.33924,"Schulart":"Grundschule","Prio":23},
{"Schulnummer":"07Y02","Schulname":"Rückert-Gymnasium","PLZ":"10825","Strasse":"Mettestr. 8","Kosten":18070000,"prio1":16950000,"lat":52.48047,"lng":13.33924,"Schulart":"Gymnasium","Prio":1},
{"Schulnummer":"03G32","Schulname":"Grundschule an den Buchen","PLZ":"13156","Strasse":"Wilhelm-Wolff-Str. 19","Kosten":3000000,"lat":52.579207,"lng":13.394536,"Schulart":"Grundschule","Prio":23},
{"Schulnummer":"03G34","Schulname":"Mendel-Grundschule","PLZ":"13187","Strasse":"Stiftsweg 3","Kosten":3820000,"lat":52.573478,"lng":13.416325,"Schulart":"Grundschule","Prio":23},
{"Schulnummer":"03K05","Schulname":"Heinz-Brandt-Schule","PLZ":"13086","Strasse":"Langhansstr. 120","Kosten":4720000,"lat":52.551192,"lng":13.441808,"Schulart":"Integrierte Sekundarschule","Prio":23},
{"Schulnummer":"12Y01","Schulname":"Friedrich-Engels-Gymnasium","PLZ":"13407","Strasse":"Emmentaler Str. 67","Kosten":12690000,"prio1":10740000,"lat":52.56959,"lng":13.35743,"Schulart":"Gymnasium","Prio":1},
{"Schulnummer":"01Y08","Schulname":"Lessing-Gymnasium","PLZ":"13349","Strasse":"Schöningstr. 17","Kosten":9630000,"prio1":8770000,"lat":52.55734,"lng":13.34371,"Schulart":"Gymnasium","Prio":1},
{"Schulnummer":"03S07","Schulname":"Schule an der Heide","PLZ":"13156","Strasse":"Hermann-Hesse-Str. 48-52","Kosten":1090000,"lat":52.578097,"lng":13.394472,"Schulart":"Förderschwerp.\"Lernen\"","Prio":23},
{"Schulnummer":"03G12","Schulname":"Paul-Lincke-Grundschule","PLZ":"10409","Strasse":"Pieskower Weg 39","Kosten":1350000,"lat":52.54129,"lng":13.44553,"Schulart":"Grundschule","Prio":23},
{"Schulnummer":"02K07","Schulname":"Georg-Weerth-Schule","PLZ":"10249","Strasse":"Eckertstr. 16","Kosten":4850000,"lat":52.518996,"lng":13.450401,"Schulart":"Integrierte Sekundarschule","Prio":23},
{"Schulnummer":"08G05","Schulname":"Elbe-Schule (Grundschule)","PLZ":"12045","Strasse":"Elbestr. 11","Kosten":0,"lat":52.48442,"lng":13.44062,"Schulart":"Grundschule","Prio":23},
{"Schulnummer":"08G09","Schulname":"Regenbogen-Schule (Grundschule)","PLZ":"12053","Strasse":"Morusstr. 32","Kosten":5360000,"lat":52.47578,"lng":13.43333,"Schulart":"Grundschule","Prio":23},
{"Schulnummer":"07S04","Schulname":"Marianne-Cohn-Schule","PLZ":"12099","Strasse":"Holzmannstr. 7","Kosten":5770000,"prio1":5140000,"lat":52.46433,"lng":13.41815,"Schulart":"Förderschwerp.\"Geistige Entwicklung\"","Prio":1},
{"Schulnummer":"03Y17","Schulname":"17. Schule (Gymnasium)","PLZ":"10407","Strasse":"Conrad-Blenkle-Str. 34","Kosten":0,"lat":52.534329,"lng":13.447008,"Schulart":"Gymnasium","Prio":23},
{"Schulnummer":"07G20","Schulname":"Maria-Montessori-Grundschule","PLZ":"12103","Strasse":"Friedrich-Wilhelm-Str. 72-74","Kosten":4870000,"lat":52.45817,"lng":13.38069,"Schulart":"Grundschule","Prio":23},
{"Schulnummer":"03G01","Schulname":"Schule am Hamburger Platz (Grundschule)","PLZ":"13086","Strasse":"Gustav-Adolf-Str. 21","Kosten":3470000,"lat":52.55381,"lng":13.43681,"Schulart":"Grundschule","Prio":23},
{"Schulnummer":"01G18","Schulname":"Carl-Bolle-Grundschule","PLZ":"10551","Strasse":"Waldenserstr. 20-21","Kosten":9950000,"prio1":6460000,"lat":52.528894,"lng":13.331807,"Schulart":"Grundschule","Prio":1},
{"Schulnummer":"01K08","Schulname":"Schule am Schillerpark (Integrierte Sekundarschule)","PLZ":"13349","Strasse":"Ofener Str. 6","Kosten":9960000,"prio1":8850000,"lat":52.55628,"lng":13.3457,"Schulart":"Integrierte Sekundarschule","Prio":1},
{"Schulnummer":"02S01","Schulname":"Schule am Friedrichshain","PLZ":"10243","Strasse":"Lasdehner Str. 19","Kosten":1190000,"lat":52.51449,"lng":13.4491,"Schulart":"Integrierte Sekundarschule","Prio":23},
{"Schulnummer":"02G07","Schulname":"Ludwig-Hoffmann-Grundschule","PLZ":"10243","Strasse":"Lasdehner Str. 21-23","Kosten":1710000,"lat":52.514357,"lng":13.448886,"Schulart":"Grundschule","Prio":23},
{"Schulnummer":"02G23","Schulname":"Fichtelgebirge-Grundschule","PLZ":"10997","Strasse":"Görlitzer Ufer 2","Kosten":6580000,"prio1":6580000,"lat":52.49575,"lng":13.44495,"Schulart":"Grundschule","Prio":1},
{"Schulnummer":"01G47","Schulname":"Miriam-Makeba-Grundschule","PLZ":"10555","Strasse":"Zinzendorfstr. 15-16","Kosten":7250000,"prio1":5360000,"lat":52.52232,"lng":13.331446,"Schulart":"Grundschule","Prio":1},
{"Schulnummer":"01G42","Schulname":"Anna-Lindh-Schule (Grundschule)","PLZ":"13351","Strasse":"Guineastr. 17-18","Kosten":10860000,"lat":52.550375,"lng":13.341886,"Schulart":"Grundschule","Prio":23},
{"Schulnummer":"12Y02","Schulname":"Europäisches Gymnasium Bertha-von-Suttner","PLZ":"13409","Strasse":"Reginhardstr. 172","Kosten":10740000,"lat":52.57145,"lng":13.36873,"Schulart":"Gymnasium","Prio":23},
{"Schulnummer":"08K10","Schulname":"Zuckmayer-Schule","PLZ":"12053","Strasse":"Kopfstr. 55","Kosten":8710000,"lat":52.4761,"lng":13.43129,"Schulart":"Integrierte Sekundarschule","Prio":23},
{"Schulnummer":"12K05","Schulname":"Gustav-Freytag-Schule (Integrierte Sekundarschule)","PLZ":"13409","Strasse":"Breitkopfstr. 66-80","Kosten":7980000,"prio1":6110000,"lat":52.56976,"lng":13.36575,"Schulart":"Integrierte Sekundarschule","Prio":1},
{"Schulnummer":"07Y06","Schulname":"Askanisches Gymnasium","PLZ":"12103","Strasse":"Kaiserin-Augusta-Str. 19-20","Kosten":12850000,"prio1":12030000,"lat":52.45992,"lng":13.37992,"Schulart":"Gymnasium","Prio":1},
{"Schulnummer":"08Y04","Schulname":"Ernst-Abbe-Gymnasium","PLZ":"12045","Strasse":"Sonnenallee 79","Kosten":680000,"lat":52.48349,"lng":13.43711,"Schulart":"Gymnasium","Prio":23},
{"Schulnummer":"03Y10","Schulname":"Rosa-Luxemburg-Gymnasium","PLZ":"13189","Strasse":"Kissingenstr. 12","Kosten":0,"lat":52.56669,"lng":13.41948,"Schulart":"Gymnasium","Prio":23},
{"Schulnummer":"03K07","Schulname":"Tesla-Schule (Gemeinschaftsschule)","PLZ":"10407","Strasse":"Rudi-Arndt-Str. 18","Kosten":9900000,"prio1":9900000,"lat":52.529086,"lng":13.446061,"Schulart":"Integrierte Sekundarschule","Prio":1},
{"Schulnummer":"03G39","Schulname":"Grundschule Wolkenstein","PLZ":"13189","Strasse":"Neumannstr. 65","Kosten":2010000,"lat":52.56527,"lng":13.42024,"Schulart":"Grundschule","Prio":23},
{"Schulnummer":"12G02","Schulname":"Grundschule am Schäfersee","PLZ":"13407","Strasse":"Baseler Str. 2-6","Kosten":6650000,"lat":52.5622,"lng":13.3554,"Schulart":"Grundschule","Prio":23},
{"Schulnummer":"01A04","Schulname":"Berlin-Kolleg","PLZ":"10551","Strasse":"Turmstr. 75","Kosten":6710000,"lat":52.526574,"lng":13.334076,"Schulart":"Berlin-Kolleg","Prio":23},
{"Schulnummer":"02Y05","Schulname":"Dathe-Gymnasium","PLZ":"10243","Strasse":"Helsingforser Str. 11-13","Kosten":6000000,"lat":52.510001,"lng":13.445399,"Schulart":"Gymnasium","Prio":23},
{"Schulnummer":"07G19","Schulname":"Paul-Simmel-Grundschule","PLZ":"12099","Strasse":"Felixstr. 26-58","Kosten":7990000,"prio1":7990000,"lat":52.46137,"lng":13.3926,"Schulart":"Grundschule","Prio":1},
{"Schulnummer":"03G27","Schulname":"Elizabeth-Shaw-Grundschule","PLZ":"13187","Strasse":"Grunowstr. 17","Kosten":3040000,"lat":52.56831,"lng":13.41044,"Schulart":"Grundschule","Prio":23},
{"Schulnummer":"08G07","Schulname":"Hermann-Boddin-Schule (Grundschule)","PLZ":"12053","Strasse":"Boddinstr. 55","Kosten":7800000,"lat":52.480416,"lng":13.431252,"Schulart":"Grundschule","Prio":23},
{"Schulnummer":"12G06","Schulname":"Hausotter-Grundschule","PLZ":"13409","Strasse":"Hausotterplatz 4","Kosten":4660000,"lat":52.56963,"lng":13.375634,"Schulart":"Grundschule","Prio":23},
{"Schulnummer":"07G14","Schulname":"Löcknitz-Grundschule","PLZ":"10779","Strasse":"Berchtesgadener Str. 10-11","Kosten":3530000,"lat":52.489558,"lng":13.343356,"Schulart":"Grundschule","Prio":23},
{"Schulnummer":"08K08","Schulname":"Gemeinschaftsschule auf dem Campus Rütli","PLZ":"12045","Strasse":"Rütlistr. 41","Kosten":13070000,"lat":52.487309,"lng":13.434226,"Schulart":"Integrierte Sekundarschule","Prio":23},
{"Schulnummer":"03K06","Schulname":"Reinhold-Burger-Schule","PLZ":"13187","Strasse":"Neue Schönholzer Str. 32","Kosten":2010000,"lat":52.56838,"lng":13.40303,"Schulart":"Integrierte Sekundarschule","Prio":23},
{"Schulnummer":"03G06","Schulname":"Bötzow-Grundschule","PLZ":"10407","Strasse":"John-Schehr-Str. 38","Kosten":1390000,"lat":52.535104,"lng":13.439793,"Schulart":"Grundschule","Prio":23},
{"Schulnummer":"03K02","Schulname":"Kurt-Tucholsky-Schule (Integrierte Sekundarschule)","PLZ":"13189","Strasse":"Neumannstr. 9-11","Kosten":3030000,"lat":52.55812,"lng":13.42333,"Schulart":"Integrierte Sekundarschule","Prio":23},
{"Schulnummer":"08G06","Schulname":"Karl-Weise-Schule (Grundschule)","PLZ":"12049","Strasse":"Weisestr. 20","Kosten":3670000,"lat":52.476503,"lng":13.423961,"Schulart":"Grundschule","Prio":23},
{"Schulnummer":"08G01","Schulname":"Rixdorfer Schule","PLZ":"12043","Strasse":"Donaustr. 120","Kosten":7150000,"lat":52.484904,"lng":13.431792,"Schulart":"Grundschule","Prio":23},
{"Schulnummer":"07K06","Schulname":"Georg-von-Giesche-Schule","PLZ":"10779","Strasse":"Hohenstaufenstr. 47-48","Kosten":9720000,"prio1":7880000,"lat":52.494144,"lng":13.342529,"Schulart":"Integrierte Sekundarschule","Prio":1},
{"Schulnummer":"03G26","Schulname":"Arnold-Zweig-Grundschule","PLZ":"13187","Strasse":"Wollankstr. 131","Kosten":340000,"lat":52.56868,"lng":13.40012,"Schulart":"Grundschule","Prio":23},
{"Schulnummer":"07K13","Schulname":"Schule am Berlinickeplatz (Integrierte Sekundarschule)","PLZ":"12103","Strasse":"Alt-Tempelhof 53-57","Kosten":10300000,"lat":52.465657,"lng":13.379583,"Schulart":"Integrierte Sekundarschule","Prio":23},
{"Schulnummer":"07G12","Schulname":"Scharmützelsee-Grundschule","PLZ":"10779","Strasse":"Hohenstaufenstr. 49","Kosten":6940000,"lat":52.494177,"lng":13.343268,"Schulart":"Grundschule","Prio":23},
{"Schulnummer":"03Y13","Schulname":"Felix-Mendelssohn-Bartholdy-Gymnasium","PLZ":"10407","Strasse":"Eugen-Schönhaar-Str. 18","Kosten":0,"lat":52.537087,"lng":13.437857,"Schulart":"Gymnasium","Prio":23},
{"Schulnummer":"01G24","Schulname":"Gottfried-Röhl-Grundschule","PLZ":"13349","Strasse":"Ungarnstr. 75","Kosten":7110000,"lat":52.55719,"lng":13.35717,"Schulart":"Grundschule","Prio":23},
{"Schulnummer":"01K02","Schulname":"Ernst-Schering-Schule","PLZ":"13353","Strasse":"Lütticher Str. 47-48","Kosten":11020000,"lat":52.54701,"lng":13.34782,"Schulart":"Integrierte Sekundarschule","Prio":23},
{"Schulnummer":"07Y05","Schulname":"Luise-Henriette-Gymnasium","PLZ":"12099","Strasse":"Germaniastr. 4-6","Kosten":0,"lat":52.46546,"lng":13.39059,"Schulart":"Gymnasium","Prio":23},
{"Schulnummer":"07G02","Schulname":"Finow-Grundschule","PLZ":"10777","Strasse":"Welserstr. 16-22","Kosten":5750000,"lat":52.49823,"lng":13.34251,"Schulart":"Grundschule","Prio":23},
{"Schulnummer":"01Y12","Schulname":"Gymnasium Tiergarten","PLZ":"10555","Strasse":"Altonaer Str. 26","Kosten":280000,"lat":52.51935,"lng":13.3394,"Schulart":"Gymnasium","Prio":23},
{"Schulnummer":"03Y08","Schulname":"Carl-von-Ossietzky-Gymnasium","PLZ":"13187","Strasse":"Görschstr. 42-44","Kosten":520000,"lat":52.566429,"lng":13.40007,"Schulart":"Gymnasium","Prio":23},
{"Schulnummer":"03G41","Schulname":"Trelleborg-Schule (Grundschule)","PLZ":"13189","Strasse":"Eschengraben 40","Kosten":5660000,"lat":52.556012,"lng":13.421818,"Schulart":"Grundschule","Prio":23},
{"Schulnummer":"12G03","Schulname":"Reginhard-Grundschule","PLZ":"13409","Strasse":"Letteallee 39-41","Kosten":2850000,"lat":52.563219,"lng":13.370292,"Schulart":"Grundschule","Prio":23},
{"Schulnummer":"07K09","Schulname":"Gustav-Langenscheidt-Schule","PLZ":"10823","Strasse":"Belziger Str. 43-51","Kosten":12540000,"prio1":12540000,"lat":52.485997,"lng":13.350718,"Schulart":"Integrierte Sekundarschule","Prio":1},
{"Schulnummer":"01G19","Schulname":"Hansa-Grundschule","PLZ":"10555","Strasse":"Lessingstr. 5","Kosten":1480000,"lat":52.5214,"lng":13.34019,"Schulart":"Grundschule","Prio":23},
{"Schulnummer":"01S05","Schulname":"Schule in der Charité","PLZ":"13353","Strasse":"Augustenburger Platz 1","Kosten":0,"lat":52.542216,"lng":13.347104,"Schulart":"Übrige Förderschwerpunkte","Prio":23},
{"Schulnummer":"03K09","Schulname":"Janusz-Korczak-Schule (Integrierte Sekundarschule)","PLZ":"13187","Strasse":"Dolomitenstr. 94","Kosten":3820000,"lat":52.562908,"lng":13.407559,"Schulart":"Integrierte Sekundarschule","Prio":23},
{"Schulnummer":"02K08","Schulname":"Refik-Veseli-Schule (Integrierte Sekundarschule)","PLZ":"10997","Strasse":"Skalitzer Str. 55","Kosten":12150000,"prio1":9160000,"lat":52.49962,"lng":13.43555,"Schulart":"Integrierte Sekundarschule","Prio":1},
{"Schulnummer":"01G36","Schulname":"Andersen-Grundschule","PLZ":"13359","Strasse":"Kattegatstr. 26","Kosten":3790000,"lat":52.56553,"lng":13.38891,"Schulart":"Grundschule","Prio":23},
{"Schulnummer":"08Y02","Schulname":"Albert-Schweitzer-Gymnasium","PLZ":"12043","Strasse":"Karl-Marx-Str. 14","Kosten":9830000,"lat":52.4852,"lng":13.42649,"Schulart":"Gymnasium","Prio":23},
{"Schulnummer":"03G08","Schulname":"Grundschule am Planetarium","PLZ":"10405","Strasse":"Ella-Kay-Str. 47","Kosten":5430000,"lat":52.54145,"lng":13.43118,"Schulart":"Grundschule","Prio":23},
{"Schulnummer":"08G02","Schulname":"Theodor-Storm-Schule (Grundschule)","PLZ":"12043","Strasse":"Hobrechtstr. 76","Kosten":5560000,"lat":52.486488,"lng":13.426763,"Schulart":"Grundschule","Prio":23},
{"Schulnummer":"08G08","Schulname":"Karlsgarten-Schule (Grundschule)","PLZ":"12049","Strasse":"Karlsgartenstr. 7","Kosten":8820000,"lat":52.482099,"lng":13.422505,"Schulart":"Grundschule","Prio":23},
{"Schulnummer":"07G03","Schulname":"Werbellinsee-Grundschule","PLZ":"10781","Strasse":"Luitpoldstr. 38","Kosten":1920000,"lat":52.495036,"lng":13.348236,"Schulart":"Grundschule","Prio":23},
{"Schulnummer":"07G18","Schulname":"Grundschule am Barbarossaplatz","PLZ":"10781","Strasse":"Barbarossaplatz 5","Kosten":6020000,"prio1":5330000,"lat":52.49235,"lng":13.34978,"Schulart":"Grundschule","Prio":1},
{"Schulnummer":"07G10","Schulname":"Teltow-Grundschule","PLZ":"10827","Strasse":"Feurigstr. 57","Kosten":8360000,"prio1":6160000,"lat":52.484327,"lng":13.356154,"Schulart":"Grundschule","Prio":1},
{"Schulnummer":"02K01","Schulname":"Ellen-Key-Schule","PLZ":"10243","Strasse":"Rüdersdorfer Str. 20-28","Kosten":6230000,"lat":52.5152,"lng":13.43689,"Schulart":"Integrierte Sekundarschule","Prio":23},
{"Schulnummer":"03K11","Schulname":"Wilhelm-von-Humboldt-Schule (Gemeinschaftsschule)","PLZ":"10439","Strasse":"Erich-Weinert-Str. 70","Kosten":2010000,"lat":52.54845,"lng":13.42476,"Schulart":"Integrierte Sekundarschule","Prio":23},
{"Schulnummer":"01G41","Schulname":"Erika-Mann-Grundschule","PLZ":"13347","Strasse":"Utrechter Str. 25-27","Kosten":5520000,"lat":52.55099,"lng":13.35786,"Schulart":"Grundschule","Prio":23},
{"Schulnummer":"01K09","Schulname":"Hedwig-Dohm-Schule (Integrierte Sekundarschule)","PLZ":"10559","Strasse":"Stephanstr. 27","Kosten":6550000,"lat":52.53367,"lng":13.34651,"Schulart":"Integrierte Sekundarschule","Prio":23},
{"Schulnummer":"03G25","Schulname":"Carl-Humann-Grundschule","PLZ":"10439","Strasse":"Scherenbergstr. 7","Kosten":1440000,"lat":52.55101,"lng":13.42173,"Schulart":"Grundschule","Prio":23},
{"Schulnummer":"03G37","Schulname":"Klecks-Grundschule","PLZ":"13187","Strasse":"Brixener Str. 40","Kosten":490000,"lat":52.55989,"lng":13.40756,"Schulart":"Grundschule","Prio":23},
{"Schulnummer":"02G01","Schulname":"Spartacus-Grundschule","PLZ":"10249","Strasse":"Friedenstr. 40-45","Kosten":830000,"lat":52.52106,"lng":13.43582,"Schulart":"Grundschule","Prio":23},
{"Schulnummer":"02G35","Schulname":"Rosa-Parks-Grundschule","PLZ":"10999","Strasse":"Reichenberger Str. 65","Kosten":13200000,"lat":52.495472,"lng":13.43052,"Schulart":"Grundschule","Prio":23},
{"Schulnummer":"03G05","Schulname":"Homer-Grundschule","PLZ":"10407","Strasse":"Pasteurstr. 10-12","Kosten":3780000,"lat":52.53371,"lng":13.43237,"Schulart":"Grundschule","Prio":23},
{"Schulnummer":"03Y04","Schulname":"Heinrich-Schliemann-Gymnasium","PLZ":"10439","Strasse":"Dunckerstr. 64","Kosten":5300000,"lat":52.54663,"lng":13.42365,"Schulart":"Gymnasium","Prio":23},
{"Schulnummer":"02Y01","Schulname":"Andreas-Oberschule","PLZ":"10243","Strasse":"Koppenstr. 76","Kosten":7280000,"lat":52.514039,"lng":13.434606,"Schulart":"Gymnasium","Prio":23},
{"Schulnummer":"02S03","Schulname":"Margarethe-von-Witzleben-Schule","PLZ":"10243","Strasse":"Palisadenstr. 76-77","Kosten":3840000,"lat":52.51984,"lng":13.4346,"Schulart":"Übrige Förderschwerpunkte","Prio":23},
{"Schulnummer":"01G32","Schulname":"Carl-Kraemer-Grundschule","PLZ":"13359","Strasse":"Zechliner Str. 4","Kosten":7760000,"prio1":5260000,"lat":52.56107,"lng":13.38284,"Schulart":"Grundschule","Prio":1},
{"Schulnummer":"03Y03","Schulname":"Käthe-Kollwitz-Gymnasium","PLZ":"10439","Strasse":"Dunckerstr. 65-66","Kosten":4700000,"lat":52.5458,"lng":13.42271,"Schulart":"Gymnasium","Prio":23},
{"Schulnummer":"03G14","Schulname":"Bornholmer Grundschule","PLZ":"10439","Strasse":"Ibsenstr. 17","Kosten":9620000,"prio1":6380000,"lat":52.55572,"lng":13.40768,"Schulart":"Grundschule","Prio":1},
{"Schulnummer":"02G29","Schulname":"Heinrich-Zille-Grundschule","PLZ":"10997","Strasse":"Waldemarstr. 118","Kosten":4040000,"lat":52.500729,"lng":13.429182,"Schulart":"Grundschule","Prio":23},
{"Schulnummer":"02G36","Schulname":"36. Schule (Grundschule)","PLZ":"10243","Strasse":"Andreasstr. 50","Kosten":2960000,"lat":52.51663,"lng":13.43215,"Schulart":"Übrige Förderschwerpunkte","Prio":23},
{"Schulnummer":"02G27","Schulname":"Hunsrück-Grundschule","PLZ":"10999","Strasse":"Manteuffelstr. 79","Kosten":6650000,"lat":52.497732,"lng":13.426632,"Schulart":"Grundschule","Prio":23},
{"Schulnummer":"07K01","Schulname":"Sophie-Scholl-Schule","PLZ":"10781","Strasse":"Elßholzstr. 34-37","Kosten":16340000,"lat":52.492808,"lng":13.356583,"Schulart":"Integrierte Sekundarschule","Prio":23},
{"Schulnummer":"01G29","Schulname":"Wilhelm-Hauff-Grundschule","PLZ":"13359","Strasse":"Gotenburger Str. 8","Kosten":1630000,"lat":52.557813,"lng":13.384347,"Schulart":"Grundschule","Prio":23},
{"Schulnummer":"07Y01","Schulname":"Robert-Blum-Gymnasium","PLZ":"10829","Strasse":"Kolonnenstr. 21","Kosten":7560000,"lat":52.48483,"lng":13.36487,"Schulart":"Gymnasium","Prio":23},
{"Schulnummer":"07G24","Schulname":"Tempelherren-Grundschule","PLZ":"12101","Strasse":"Boelckestr. 58-60","Kosten":11680000,"prio1":11680000,"lat":52.478603,"lng":13.37647,"Schulart":"Grundschule","Prio":1},
{"Schulnummer":"03K01","Schulname":"Kurt-Schwitters-Schule","PLZ":"10405","Strasse":"Greifswalder Str. 25","Kosten":3560000,"lat":52.5314,"lng":13.42807,"Schulart":"Integrierte Sekundarschule","Prio":23},
{"Schulnummer":"03G46","Schulname":"Grundschule im Eliashof","PLZ":"10437","Strasse":"Senefelderstr. 6","Kosten":1140000,"lat":52.540786,"lng":13.422734,"Schulart":"Grundschule","Prio":23},
{"Schulnummer":"03G04","Schulname":"Grundschule an der Marie","PLZ":"10405","Strasse":"Christburger Str. 7","Kosten":3580000,"lat":52.536148,"lng":13.42559,"Schulart":"Grundschule","Prio":23},
{"Schulnummer":"01G28","Schulname":"Brüder-Grimm-Grundschule","PLZ":"13353","Strasse":"Tegeler Str. 18-19","Kosten":2880000,"lat":52.54146,"lng":13.35783,"Schulart":"Grundschule","Prio":23},
{"Schulnummer":"01G31","Schulname":"Wedding-Grundschule","PLZ":"13347","Strasse":"Antonstr. 10","Kosten":6040000,"lat":52.546206,"lng":13.362468,"Schulart":"Grundschule","Prio":23},
{"Schulnummer":"01K10","Schulname":"Theodor-Heuss-Schule (Gemeinschaftsschule)","PLZ":"10559","Strasse":"Quitzowstr. 141","Kosten":10930000,"lat":52.535722,"lng":13.354875,"Schulart":"Integrierte Sekundarschule","Prio":23},
{"Schulnummer":"01G45","Schulname":"Leo-Lionni-Grundschule","PLZ":"13353","Strasse":"Müllerstr. 158","Kosten":9530000,"prio1":8930000,"lat":52.544342,"lng":13.361352,"Schulart":"Grundschule","Prio":1},
{"Schulnummer":"07G01","Schulname":"Spreewald-Grundschule","PLZ":"10781","Strasse":"Pallasstr. 15","Kosten":8500000,"prio1":5530000,"lat":52.49539,"lng":13.35693,"Schulart":"Grundschule","Prio":1},
{"Schulnummer":"01G11","Schulname":"Kurt-Tucholsky-Grundschule","PLZ":"10559","Strasse":"Rathenower Str. 18","Kosten":5810000,"lat":52.53026,"lng":13.35303,"Schulart":"Grundschule","Prio":23},
{"Schulnummer":"07G05","Schulname":"Havelland-Grundschule","PLZ":"10829","Strasse":"Kolonnenstr. 30","Kosten":2910000,"lat":52.484772,"lng":13.367681,"Schulart":"Grundschule","Prio":23},
{"Schulnummer":"03G09","Schulname":"Thomas-Mann-Grundschule","PLZ":"10437","Strasse":"Greifenhagener Str. 58-59","Kosten":1850000,"lat":52.54663,"lng":13.41479,"Schulart":"Grundschule","Prio":23},
{"Schulnummer":"02G18","Schulname":"Nürtingen-Grundschule","PLZ":"10997","Strasse":"Mariannenplatz 28","Kosten":13480000,"prio1":12410000,"lat":52.505469,"lng":13.426859,"Schulart":"Grundschule","Prio":1},
{"Schulnummer":"02Y08","Schulname":"Hermann-Hesse-Oberschule","PLZ":"10967","Strasse":"Böckhstr. 16","Kosten":10030000,"prio1":10030000,"lat":52.493579,"lng":13.419151,"Schulart":"Gymnasium","Prio":1},
{"Schulnummer":"01Y07","Schulname":"Französisches Gymnasium","PLZ":"10785","Strasse":"Derfflingerstr. 7","Kosten":6130000,"lat":52.50318,"lng":13.35549,"Schulart":"Gymnasium","Prio":23},
{"Schulnummer":"07G21","Schulname":"Grundschule auf dem Tempelhofer Feld","PLZ":"12101","Strasse":"Schulenburgring 7-11","Kosten":5380000,"lat":52.48081,"lng":13.38185,"Schulart":"Grundschule","Prio":23},
{"Schulnummer":"01G27","Schulname":"Gesundbrunnen-Grundschule","PLZ":"13357","Strasse":"Prinzenallee 8","Kosten":5270000,"lat":52.55338,"lng":13.38292,"Schulart":"Grundschule","Prio":23},
{"Schulnummer":"02K05","Schulname":"Schule am Königstor (Integrierte Sekundarschule)","PLZ":"10249","Strasse":"Weinstr. 3","Kosten":200000,"lat":52.525666,"lng":13.425987,"Schulart":"Integrierte Sekundarschule","Prio":23},
{"Schulnummer":"03G45","Schulname":"Grundschule im Hofgarten","PLZ":"10435","Strasse":"Danziger Str. 50","Kosten":680000,"lat":52.53921,"lng":13.41918,"Schulart":"Grundschule","Prio":23},
{"Schulnummer":"02K09","Schulname":"Albrecht-von-Graefe-Schule (Integrierte Sekundarschule)","PLZ":"10967","Strasse":"Graefestr. 85-88","Kosten":5000000,"lat":52.494205,"lng":13.418709,"Schulart":"Integrierte Sekundarschule","Prio":23},
{"Schulnummer":"07G13","Schulname":"Neumark-Grundschule","PLZ":"10783","Strasse":"Steinmetzstr. 46-50","Kosten":6420000,"prio1":6420000,"lat":52.49282,"lng":13.36249,"Schulart":"Grundschule","Prio":1},
{"Schulnummer":"01G43","Schulname":"Albert-Gutzmann-Schule (Grundschule)","PLZ":"13357","Strasse":"Orthstr. 1","Kosten":7440000,"prio1":7440000,"lat":52.549234,"lng":13.373261,"Schulart":"Grundschule"},
{"Schulnummer":"01S06","Schulname":"Albert-Gutzmann-Schule","PLZ":"13357","Strasse":"Orthstr. 1","Kosten":0,"lat":52.549234,"lng":13.373261,"Schulart":"Integrierte Sekundarschule","Prio":23,"Prio":1},
{"Schulnummer":"03G02","Schulname":"Heinrich-Roller-Grundschule","PLZ":"10405","Strasse":"Heinrich-Roller-Str. 18","Kosten":7620000,"prio1":5140000,"lat":52.53064,"lng":13.42364,"Schulart":"Grundschule","Prio":1},
{"Schulnummer":"02Y07","Schulname":"Robert-Koch-Gymnasium","PLZ":"10967","Strasse":"Dieffenbachstr. 60","Kosten":6680000,"lat":52.49323,"lng":13.41596,"Schulart":"Gymnasium","Prio":23},
{"Schulnummer":"01G25","Schulname":"Rudolf-Wissell-Grundschule","PLZ":"13357","Strasse":"Ellerbeker Str. 7-8","Kosten":7270000,"prio1":6580000,"lat":52.55158,"lng":13.39611,"Schulart":"Grundschule","Prio":1},
{"Schulnummer":"01Y09","Schulname":"Diesterweg-Schule (Gymnasium)","PLZ":"13357","Strasse":"Böttgerstr. 2-6","Kosten":1080000,"lat":52.550012,"lng":13.378338,"Schulart":"Gymnasium","Prio":23},
{"Schulnummer":"02G26","Schulname":"Lemgo-Grundschule","PLZ":"10967","Strasse":"Böckhstr. 5","Kosten":6020000,"lat":52.494198,"lng":13.416454,"Schulart":"Grundschule","Prio":23},
{"Schulnummer":"01G15","Schulname":"Anne-Frank-Grundschule","PLZ":"10557","Strasse":"Paulstr. 20B","Kosten":2120000,"lat":52.51827,"lng":13.35527,"Schulart":"Grundschule","Prio":23},
{"Schulnummer":"01K01","Schulname":"Willy-Brandt-Schule","PLZ":"13357","Strasse":"Grüntaler Str. 5","Kosten":5280000,"lat":52.55101,"lng":13.386048,"Schulart":"Integrierte Sekundarschule","Prio":23},
{"Schulnummer":"03G11","Schulname":"Schule am Falkplatz (Grundschule)","PLZ":"10437","Strasse":"Gleimstr. 49","Kosten":7880000,"prio1":7430000,"lat":52.54749,"lng":13.40538,"Schulart":"Grundschule","Prio":1},
{"Schulnummer":"01G07","Schulname":"GutsMuths-Grundschule","PLZ":"10179","Strasse":"Singerstr. 8","Kosten":4250000,"lat":52.516365,"lng":13.42412,"Schulart":"Grundschule","Prio":23},
{"Schulnummer":"01Y11","Schulname":"Max-Planck-Schule (Gymnasium)","PLZ":"10179","Strasse":"Singerstr. 8A","Kosten":1560000,"lat":52.516365,"lng":13.42412,"Schulart":"Gymnasium","Prio":23},
{"Schulnummer":"01G16","Schulname":"Moabiter Grundschule","PLZ":"10557","Strasse":"Paulstr. 28","Kosten":7560000,"lat":52.521974,"lng":13.35657,"Schulart":"Grundschule","Prio":23},
{"Schulnummer":"01K06","Schulname":"Herbert-Hoover-Schule (Integrierte Sekundarschule)","PLZ":"13357","Strasse":"Pankstr. 18-19","Kosten":820000,"lat":52.546324,"lng":13.373398,"Schulart":"Integrierte Sekundarschule","Prio":23},
{"Schulnummer":"01S07","Schulname":"Charlotte-Pfeffer-Schule","PLZ":"10178","Strasse":"Berolinastr. 8","Kosten":0,"lat":52.52226,"lng":13.42328,"Schulart":"Förderschwerp.\"Geistige Entwicklung\"","Prio":23},
{"Schulnummer":"02S02","Schulname":"Gustav-Meyer-Schule","PLZ":"10999","Strasse":"Kohlfurter Str. 22","Kosten":9190000,"prio1":9190000,"lat":52.497102,"lng":13.416721,"Schulart":"Förderschwerp.\"Geistige Entwicklung\"","Prio":1},
{"Schulnummer":"02G22","Schulname":"Jens-Nydahl-Grundschule","PLZ":"10999","Strasse":"Kohlfurter Str. 20","Kosten":8080000,"prio1":6720000,"lat":52.497294,"lng":13.41619,"Schulart":"Grundschule","Prio":1},
{"Schulnummer":"03G03","Schulname":"Grundschule am Kollwitzplatz","PLZ":"10435","Strasse":"Knaackstr. 67","Kosten":1880000,"lat":52.53768,"lng":13.41489,"Schulart":"Grundschule","Prio":23},
{"Schulnummer":"03S03","Schulname":"Helene-Haeusler-Schule","PLZ":"10405","Strasse":"Mendelssohnstr. 10","Kosten":2300000,"lat":52.5267,"lng":13.42002,"Schulart":"Förderschwerp.\"Geistige Entwicklung\"","Prio":23},
{"Schulnummer":"01S01","Schulname":"Schule am Zille-Park","PLZ":"13347","Strasse":"Ravenéstr. 10-12","Kosten":5420000,"lat":52.542859,"lng":13.372782,"Schulart":"Integrierte Sekundarschule","Prio":23},
{"Schulnummer":"02K10","Schulname":"Ferdinand-Freiligrath-Schule (Integrierte Sekundarschule)","PLZ":"10961","Strasse":"Bergmannstr. 64","Kosten":5920000,"prio1":5780000,"lat":52.488798,"lng":13.40149,"Schulart":"Integrierte Sekundarschule","Prio":1},
{"Schulnummer":"01G37","Schulname":"Heinrich-Seidel-Grundschule","PLZ":"13355","Strasse":"Ramlerstr. 9-10","Kosten":8940000,"prio1":8940000,"lat":52.54695,"lng":13.39407,"Schulart":"Grundschule","Prio":1},
{"Schulnummer":"01G44","Schulname":"Allegro-Grundschule","PLZ":"10785","Strasse":"Lützowstr. 83-85","Kosten":3900000,"lat":52.503571,"lng":13.363001,"Schulart":"Grundschule","Prio":23},
{"Schulnummer":"02K02","Schulname":"Carl-von-Ossietzky-Schule (Gemeinschaftsschule)","PLZ":"10961","Strasse":"Blücherstr. 46","Kosten":6460000,"prio1":5810000,"lat":52.491647,"lng":13.404491,"Schulart":"Integrierte Sekundarschule","Prio":1},
{"Schulnummer":"02G33","Schulname":"Aziz-Nesin-Grundschule","PLZ":"10961","Strasse":"Urbanstr. 15","Kosten":4510000,"lat":52.49312,"lng":13.40611,"Schulart":"Grundschule","Prio":23},
{"Schulnummer":"02Y06","Schulname":"Leibniz-Gymnasium","PLZ":"10961","Strasse":"Schleiermacherstr. 23","Kosten":6880000,"prio1":6660000,"lat":52.48978,"lng":13.39747,"Schulart":"Gymnasium","Prio":1},
{"Schulnummer":"02G21","Schulname":"Reinhardswald-Grundschule","PLZ":"10961","Strasse":"Gneisenaustr. 73-74","Kosten":9380000,"prio1":9370000,"lat":52.49059,"lng":13.3999,"Schulart":"Grundschule","Prio":1},
{"Schulnummer":"03S01","Schulname":"Schule am Senefelderplatz","PLZ":"10435","Strasse":"Schönhauser Allee 165","Kosten":3080000,"lat":52.53452,"lng":13.41187,"Schulart":"Förderschwerp.\"Lernen\"","Prio":23},
{"Schulnummer":"01G35","Schulname":"Humboldthain-Grundschule","PLZ":"13355","Strasse":"Grenzstr. 7","Kosten":5150000,"lat":52.54323,"lng":13.380143,"Schulart":"Grundschule","Prio":23},
{"Schulnummer":"02G13","Schulname":"Charlotte-Salomon-Grundschule","PLZ":"10965","Strasse":"Großbeerenstr. 40","Kosten":4510000,"lat":52.49041,"lng":13.38183,"Schulart":"Grundschule","Prio":23},
{"Schulnummer":"02G31","Schulname":"Adolf-Glaßbrenner-Grundschule","PLZ":"10965","Strasse":"Hagelberger Str. 34","Kosten":3570000,"lat":52.49085,"lng":13.38065,"Schulart":"Grundschule","Prio":23},
{"Schulnummer":"02G20","Schulname":"Bürgermeister-Herz-Grundschule","PLZ":"10961","Strasse":"Wilmsstr. 10","Kosten":3380000,"lat":52.49488,"lng":13.40516,"Schulart":"Grundschule","Prio":23},
{"Schulnummer":"01G39","Schulname":"Vineta-Grundschule","PLZ":"13355","Strasse":"Demminer Str. 27","Kosten":2150000,"lat":52.54222,"lng":13.3969,"Schulart":"Grundschule","Prio":23},
{"Schulnummer":"02K04","Schulname":"Lina-Morgenstern-Schule (Gemeinschaftsschule)","PLZ":"10961","Strasse":"Gneisenaustr. 7","Kosten":10910000,"prio1":9920000,"lat":52.49178,"lng":13.38971,"Schulart":"Integrierte Sekundarschule","Prio":1},
{"Schulnummer":"03G16","Schulname":"Grundschule am Teutoburger Platz","PLZ":"10119","Strasse":"Templiner Str. 1-3","Kosten":80000,"lat":52.533635,"lng":13.408651,"Schulart":"Grundschule","Prio":23},
{"Schulnummer":"02G16","Schulname":"Lenau-Grundschule","PLZ":"10961","Strasse":"Nostitzstr. 60","Kosten":11630000,"prio1":11630000,"lat":52.49381,"lng":13.39154,"Schulart":"Grundschule","Prio":1},
{"Schulnummer":"01G01","Schulname":"Grundschule am Arkonaplatz","PLZ":"10115","Strasse":"Ruppiner Str. 47-48","Kosten":2450000,"lat":52.53684,"lng":13.40039,"Schulart":"Grundschule","Prio":23},
{"Schulnummer":"01K03","Schulname":"Ernst-Reuter-Schule","PLZ":"13355","Strasse":"Stralsunder Str. 57","Kosten":16740000,"prio1":15920000,"lat":52.538896,"lng":13.394373,"Schulart":"Integrierte Sekundarschule","Prio":1},
{"Schulnummer":"01G10","Schulname":"City-Grundschule","PLZ":"10179","Strasse":"Sebastianstr. 57","Kosten":90000,"lat":52.50737,"lng":13.40892,"Schulart":"Grundschule","Prio":23},
{"Schulnummer":"01G38","Schulname":"Gustav-Falke-Grundschule","PLZ":"13355","Strasse":"Strelitzer Str. 42","Kosten":4260000,"lat":52.53795,"lng":13.39162,"Schulart":"Grundschule","Prio":23},
{"Schulnummer":"02G24","Schulname":"Otto-Wels-Grundschule","PLZ":"10969","Strasse":"Alexandrinenstr. 12","Kosten":6240000,"prio1":5150000,"lat":52.499923,"lng":13.401623,"Schulart":"Grundschule","Prio":1},
{"Schulnummer":"01Y02","Schulname":"John-Lennon-Gymnasium","PLZ":"10119","Strasse":"Zehdenicker Str. 17","Kosten":4950000,"lat":52.530923,"lng":13.404105,"Schulart":"Gymnasium","Prio":23},
{"Schulnummer":"02K03","Schulname":"Hector-Peterson-Schule","PLZ":"10963","Strasse":"Tempelhofer Ufer 15","Kosten":10060000,"lat":52.49832,"lng":13.3841,"Schulart":"Integrierte Sekundarschule","Prio":23},
{"Schulnummer":"02G32","Schulname":"Clara-Grunwald-Grundschule","PLZ":"10963","Strasse":"Hallesche Str. 24","Kosten":3580000,"lat":52.50077,"lng":13.38313,"Schulart":"Grundschule","Prio":23},
{"Schulnummer":"02G19","Schulname":"Fanny-Hensel-Grundschule","PLZ":"10963","Strasse":"Schöneberger Str. 23","Kosten":2180000,"lat":52.50303,"lng":13.38014,"Schulart":"Grundschule","Prio":23},
{"Schulnummer":"01G02","Schulname":"Papageno-Grundschule","PLZ":"10115","Strasse":"Bergstr. 58","Kosten":2080000,"lat":52.532833,"lng":13.391048,"Schulart":"Grundschule","Prio":23},
{"Schulnummer":"01G04","Schulname":"Kastanienbaum-Grundschule","PLZ":"10119","Strasse":"Gipsstr. 23A","Kosten":5360000,"lat":52.52678,"lng":13.4018,"Schulart":"Grundschule","Prio":23},
{"Schulnummer":"02G14","Schulname":"Galilei-Grundschule","PLZ":"10969","Strasse":"Friedrichstr. 13","Kosten":4850000,"lat":52.501885,"lng":13.391531,"Schulart":"Grundschule","Prio":23},
{"Schulnummer":"02S06","Schulname":"Liebmann-Schule","PLZ":"10969","Strasse":"Friedrichstr. 13","Kosten":0,"lat":52.501885,"lng":13.391531,"Schulart":"Übrige Förderschwerpunkte","Prio":23},
{"Schulnummer":"01G05","Schulname":"Grundschule Neues Tor","PLZ":"10115","Strasse":"Hannoversche Str. 20","Kosten":4100000,"lat":52.52759,"lng":13.38033,"Schulart":"Grundschule","Prio":23},
{"Schulnummer":"01K07","Schulname":"Hemingway-Schule","PLZ":"10115","Strasse":"Gartenstr. 10-17","Kosten":2880000,"lat":52.530483,"lng":13.391682,"Schulart":"Integrierte Sekundarschule","Prio":23},
{"Schulnummer":"01G46","Schulname":"Grundschule am Koppenplatz","PLZ":"10115","Strasse":"Koppenplatz 12","Kosten":5280000,"lat":52.52778,"lng":13.39745,"Schulart":"Grundschule","Prio":23},
{"Schulnummer":"02G12","Schulname":"Kurt-Schumacher-Grundschule","PLZ":"10969","Strasse":"Puttkamerstr. 19","Kosten":9640000,"prio1":6290000,"lat":52.504384,"lng":13.388493,"Schulart":"Grundschule","Prio":1},
{"Schulnummer":"01G08","Schulname":"Grundschule am Brandenburger Tor","PLZ":"10117","Strasse":"Wilhelmstr. 52","Kosten":5230000,"lat":52.51318,"lng":13.38276,"Schulart":"Grundschule","Prio":23}
]