Gebaeudenummer;Schulnummer;Schulart;Schulname;Strasse;PLZ;Bauwerk;NGF;NF;GF;BGF;Grundstuecksflaeche;BauPrioBauwerk;BauPrioTGA;BauPrioAussen;BauprioSumme;SchulPrioFachraum;SchulPrioSanitaer;SchulPrioGanztagEssen;SchulPrioSumme;PrioritaetGesamt;PrioritaetWertung;FensterFlaeche;FensterFaktorFlaechenanteil;FensterKostenpauschale;SanierungFensterNotwendig;FensterKosten;FassadenFlaeche;FassadenFlaecheOhneFenster;FassadenFaktorFlaechenanteil;FassadenKostenpauschale;SanierungFassadenNotwendig;FassadenKosten;Dachart;Dachflaeche;DachKostenpauschale;SanierungDachNotwendig;DachKosten;AufzugKosten;RampeAnzahl;RampeKosten;EingangAnzahl;EingangKosten;SanierungTuerbreitenNotwendig;TuerenKosten;BWCAnzahl;BWCKosten;ZwischensummeBarrierefreiheitKosten;zweiterRettungswegKosten;RaeumeNutzflaecheBGF;RaeumeKostenpauschale;SanierungRaeumeNotwendig;RaeumeKosten;Sanitaerflaeche;SanitaerSanierungsjahr;bereitsSanierteFlaecheInProzent;FlaecheNichtSaniert;SanitaerKosten;Zwischensumme;GebaeudeGesamt;SporthallenFlaeche;SporthallenKostenpauschale;SanierungSporthallenNotwendig;SporthallenKosten;Foo1;Foo2;SportplatzFlaeche;SportplatzWertung;SportplatzKostenpauschale;SportplatzKosten;SchulhofFlaeche;SchulhofWertung;SchulhofKostenpauschale;SchulhofKosten;ZeileVerknuepfung;Kapitel;ausblendenBungalowSchuppen;lat;lng
05-146280-2;05S02;Grundschule;Paul-Moor-Schule;Adamstr. 22-24;13595 Berlin;S-Bahn (Bibliothek) ;45,00;;;51,00;;1,00;1,00;1,00;1,00;1,00;0,00;0,00;1,00;1,00;;11,09;1,00;700,00;0,00;0,00;99,37;88,28;1,00;300;0;0,00;FD;51,50;150;0;0,00;0 €;1;20,00;1;50 €;0;0 €;0;0 €;70 €;0 €;45,00;350,00;1,00;15,75;0,00;;;0,00;0,00;85,75;85,75;;0 €;0;0,00;;;;3;235;0,00;0,00;3;180;0,00;;;n;;
05-146280-1;05S02;Grundschule;Paul-Moor-Schule;Adamstr. 22-24;13595 Berlin;Hauptgebäude;4.075,02;;1.193,00;4.887,00;4.981,00;1,00;1,00;1,00;1,00;1,00;1,00;1,00;3,00;1,60;;617,32;1,00;700,00;1,00;432,12;3.268,67;2.651,35;1,00;300;1;795,41;SD, WD;1.097,12;350;1;383,99;150 €;1;20,00;1;50 €;1;200 €;3;75 €;495 €;0 €;3.935,46;350,00;1,00;1.377,41;139,56;2016;0;139,56;307,03;3.790,96;3.790,96;175,09;1.100 €;0;0,00;;;800,00;3;235;188,00;3.788,00;;0;0,00;;;n;;
05-146309-1;05G29;Grundschule;Mary-Poppins-GS;Am Flugplatz Gatow 20;14089 Berlin;Hauptgebäude;4.761,00;;3.083,00;5.413,00;15.376,00;1,00;3,00;2,00;1,90;1,00;2,00;0,00;3,00;2,23;;816,16;1,00;700,00;0,00;0,00;3.174,94;2.358,78;1,00;300;1;707,63;FD;1.930,15;150;0;0,00;0 €;0;0,00;0;0 €;0;0 €;0;0 €;0 €;0 €;4.608,12;350,00;0,00;0,00;152,88;2000;100;152,88;336,34;1.043,97;1.043,97;;0 €;;0,00;;;1.100,00;3;235;258,50;12.293,00;2;135;1.659,56;;;n;;
05-146309-2;05G29;Grundschule;Mary-Poppins-GS;Am Flugplatz Gatow 20;14089 Berlin;Sporthalle;2.338,00;;;2.625,00;;4,00;4,00;0,00;3,60;0,00;2,00;0,00;2,00;3,12;;98,46;1,00;700,00;0,00;0,00;1.872,71;1.774,25;1,00;300;0;0,00;FD;2.250,02;150;0;0,00;0 €;0;0,00;0;0 €;0;0 €;0;0 €;0 €;0 €;2.239,34;350,00;0,00;0,00;98,66;2000;100;98,66;217,05;217,05;217,05;1.346,73;3.200 €;0;0,00;;;;;0;0,00;0,00;;0;0,00;;;n;;
05-146909-9;05Y04;Oberschule;Carl-Friedr.-von-Siemens-Gymnasium;Jungfernheideweg 79;13629 Berlin;Bauteil 1;1.314,00;;;1.533,00;;1,00;1,00;1,00;1,00;1,00;1,00;0,00;2,00;1,30;;400,40;1,00;700,00;1,00;280,28;821,11;420,71;1,00;300;1;126,21;SD, PD;350,50;350;1;122,68;150 €;1;20,00;1;50 €;1;200 €;1;25 €;445 €;0 €;1.249,27;750,00;0,00;0,00;64,73;2016;100;0,00;0,00;974,17;974,17;;0 €;;0,00;;;;;0;0,00;0,00;;0;0,00;;;n;;
05-146909-8;05Y04;Oberschule;Carl-Friedr.-von-Siemens-Gymnasium;Jungfernheideweg 79;13629 Berlin;Sporthalle 1;610,00;;;649,00;;1,00;1,00;1,00;1,00;0,00;1,00;0,00;1,00;1,00;;22,77;1,00;700,00;1,00;15,94;642,28;619,51;1,00;300;1;185,85;SD, PD;649,00;350;1;227,15;0 €;0;0,00;1;50 €;1;200 €;1;25 €;275 €;175 €;568,18;750,00;0,00;0,00;41,82;2000;100;41,82;92,00;0,00;1.100,00;373,58;1.100 €;1;1.100,00;;;;;0;0,00;0,00;;0;0,00;;;n;;
05-146909-7;05Y04;Oberschule;Carl-Friedr.-von-Siemens-Gymnasium;Jungfernheideweg 79;13629 Berlin;Sporthalle;538,00;;;592,00;;1,00;1,00;1,00;1,00;0,00;1,00;0,00;1,00;1,00;;15,59;1,00;700,00;1,00;10,91;643,30;627,71;1,00;300;1;188,31;SD, PD;712,81;350;1;249,48;0 €;0;0,00;1;50 €;1;200 €;1;25 €;275 €;175 €;495,76;750,00;0,00;0,00;42,24;2000;100;42,24;92,93;0,00;1.100,00;345,23;1.100 €;1;1.100,00;;;;;0;0,00;0,00;;0;0,00;;;n;;
05-146909-6;05Y04;Oberschule;Carl-Friedr.-von-Siemens-Gymnasium;Jungfernheideweg 79;13629 Berlin;Haus C;692,00;;;793,00;;1,00;1,00;1,00;1,00;1,00;1,00;0,00;2,00;1,30;;433,26;1,00;700,00;1,00;303,28;876,60;443,34;1,00;300;1;133,00;SD, PD;448,23;350;1;156,88;150 €;1;20,00;1;50 €;1;200 €;1;25 €;445 €;0 €;652,52;750,00;0,00;0,00;39,48;2000;100;39,48;86,86;1.125,02;1.125,02;;0 €;;0,00;;;;;0;0,00;0,00;;0;0,00;;;n;;
05-146909-5;05Y04;Oberschule;Carl-Friedr.-von-Siemens-Gymnasium;Jungfernheideweg 79;13629 Berlin;Haus B;687,00;;;779,00;;1,00;1,00;1,00;1,00;1,00;1,00;0,00;2,00;1,30;;433,17;1,00;700,00;1,00;303,22;876,60;443,43;1,00;300;1;133,03;SD, PD;448,23;350;1;156,88;150 €;1;20,00;1;50 €;1;200 €;1;25 €;445 €;0 €;650,90;750,00;0,00;0,00;36,10;2000;100;36,10;79,42;1.117,55;1.117,55;;0 €;;0,00;;;;;0;0,00;0,00;;0;0,00;;;n;;
05-146284-3;05G24;Grundschule;GS am Windmühlenberg;Am Kinderdorf 23-37;14089 Berlin;Nebengebäude;136,00;;;175,00;;1,00;1,00;1,00;1,00;1,00;1,00;1,00;3,00;1,60;;35,86;1,00;700,00;1,00;25,10;210,20;174,34;1,00;300;1;52,30;GD-FD;134,69;350;1;47,14;0 €;0;0,00;0;0 €;0;0 €;1;25 €;25 €;150 €;112,35;350,00;1,00;39,32;23,65;1993;100;23,65;52,03;390,90;390,90;;0 €;;0,00;;;;;0;0,00;0,00;;0;0,00;;;n;;
05-146284-2;05G24;Grundschule;GS am Windmühlenberg;Am Kinderdorf 23-37;14089 Berlin;Hauptgebäude;2.290,00;;;2.728,00;17.449,00;1,00;1,00;3,00;1,20;1,00;1,00;1,00;3,00;1,74;;320,32;1,00;700,00;1,00;224,22;1.329,14;1.008,82;1,00;300;1;302,65;FD;1.035,38;150;1;155,31;200 €;0;0,00;1;50 €;1;200 €;2;50 €;500 €;0 €;2.225,50;350,00;1,00;778,93;64,50;1985;100;64,50;141,90;2.103,00;2.103,00;;0 €;;0,00;;;;;0;0,00;17.449,00;;0;0,00;;;n;;
05-146284-4;05G24;Grundschule;GS am Windmühlenberg;Am Kinderdorf 23-37;14089 Berlin;Sporthalle Neubau;700,00;;;814,00;;3,00;3,00;0,00;2,70;0,00;0,00;0,00;0,00;1,89;;4,03;1,00;700,00;0,00;0,00;405,65;401,62;1,00;300;0;0,00;FD;813,00;150;0;0,00;0 €;0;0,00;0;0 €;0;0 €;1;25 €;25 €;0 €;642,57;350,00;0,00;0,00;57,43;1993;100;57,43;126,35;151,35;151,35;411,93;1.800 €;0;0,00;;;;;0;0,00;0,00;;0;0,00;;;n;;
05-146284-5;05G24;Grundschule;GS am Windmühlenberg;Am Kinderdorf 23-37;14089 Berlin;Hort, Alt-Gatow 54;766,00;;;1.028,00;;1,00;1,00;1,00;1,00;0,00;0,00;0,00;0,00;0,70;;129,32;1,00;700,00;1,00;90,52;665,00;535,68;1,00;300;1;160,70;SD;407,72;350;1;142,70;0 €;0;0,00;1;50 €;1;200 €;1;25 €;275 €;0 €;699,86;350,00;0,00;0,00;66,14;2000;100;66,14;145,51;814,44;814,44;;0 €;;0,00;;;0,00;;0;0,00;0,00;;0;0,00;;;n;;
05-146300-2;05G16;Grundschule;Zeppelin-GS;Am Kurzen Weg 1/19;13591 Berlin;Sporthalle;562,00;;1.168,00;640,00;22.782,00;1,00;4,00;0,00;2,10;1,00;0,00;0,00;1,00;1,77;;34,04;1,00;700,00;0,00;0,00;609,35;575,31;1,00;300;0;0,00;FD/SD;640,10;350;0;0,00;0 €;0;0,00;0;0 €;0;0 €;0;0 €;0 €;0 €;522,02;350,00;1,00;182,71;39,98;2016;100;0,00;0,00;0,00;1.100,00;373,95;1.100 €;1;1.100,00;;;;;0;0,00;21.614,00;;0;0,00;;;n;;
05-146271-3;05Y03;Oberschule;Hans-Carossa-Gymnasium;Am Landschaftspark Gatow 40;14089 Berlin;Mensa (Neubau);;;;469,37;;0,00;0,00;0,00;0,00;0,00;0,00;0,00;0,00;0,00;;203,00;1,00;700,00;0,00;0,00;552,18;349,18;1,00;300;0;0,00;FD;605,26;150;0;0,00;0 €;0;0,00;0;0 €;0;0 €;0;0 €;0 €;0 €;-35,50;750,00;0,00;0,00;35,50;2016;100;0,00;0,00;0,00;0,00;;0,00;;0,00;;;;;0;0,00;0,00;;0;0,00;;;;;
05-146271-2;05Y03;Oberschule;Hans-Carossa-Gymnasium;Am Landschaftspark Gatow 40;14089 Berlin;Sporthalle;2.552,00;;;2.820,00;;2,00;2,00;0,00;1,80;1,00;2,00;0,00;3,00;2,16;;92,95;1,00;700,00;0,00;0,00;1.849,26;1.756,31;1,00;300;1;526,89;FD/PD;2.112,23;350;0;0,00;0 €;0;0,00;0;0 €;0;0 €;0;0 €;0 €;0 €;2.396,43;750,00;0,00;0,00;155,57;1999;100;155,57;342,25;869,15;869,15;1.223,68;3.200 €;0;0,00;;;;;0;0,00;0,00;;0;0,00;;;n;;
05-146271-1;05Y03;Oberschule;Hans-Carossa-Gymnasium;Am Landschaftspark Gatow 40;14089 Berlin;Hauptgebäude;9.612,00;;5.149,00;10.569,00;16.876,00;1,00;1,00;1,00;1,00;3,00;2,00;0,00;5,00;2,20;;897,68;1,00;700,00;1,00;628,38;4.905,32;4.007,64;0,25;300;1;300,57;FD;3.428,67;150;0;0,00;0 €;0;0,00;0;0 €;0;0 €;0;0 €;0 €;0 €;9.354,49;750,00;0,00;0,00;257,51;1999;100;257,51;566,52;1.495,47;1.495,47;;0 €;;0,00;;;1.100,00;2;175;192,50;11.727,00;1;90;1.055,43;;;n;;
05-146278-1;05S01;Grundschule;Schule am Grüngürtel;Askanierring 42;13585 Berlin;Hauptgebäude;3.285,00;;963,00;4.039,00;10.825,00;1,00;1,00;1,00;1,00;1,00;1,00;0,00;2,00;1,30;;443,52;1,00;700,00;0,00;0,00;2.239,90;1.796,38;1,00;300;1;538,91;WD, GD, FD, SD;1.383,03;350;0;0,00;150 €;1;20,00;1;50 €;1;200 €;2;50 €;470 €;0 €;3.143,23;350,00;1,00;1.100,13;141,77;2000;100;141,77;311,89;2.420,94;2.420,94;117,39;1.100 €;0,15;363,14;;;800,00;2;175;140,00;9.862,00;1;90;887,58;;;n;;
05-146267-2;05Y02;Oberschule;Kant-Gymnasium;Bismarckstr. 14;13585 Berlin;Schulgebäude 2;146,00;;1.829,00;161,00;4.189,00;3,00;0,00;0,00;1,50;0,00;1,00;0,00;1,00;1,35;;13,73;1,00;700,00;0,00;0,00;250,00;236,27;1,00;300;0;0,00;SD;176,45;350;0;0,00;0 €;0;0,00;0;0 €;0;0 €;0;0 €;0 €;0 €;130,02;750,00;1,00;97,52;15,98;2004;100;0,00;0,00;97,52;97,52;;0 €;;0,00;;;0,00;3;235;0,00;2.360,00;3;180;424,80;;;n;;
05-146267-1;05Y02;Oberschule;Kant-Gymnasium;Bismarckstr. 14;13585 Berlin;Schulgebäude 1;3.252,00;;;3.662,00;;1,00;1,00;1,00;1,00;1,00;1,00;0,00;2,00;1,30;;355,45;1,00;700,00;0,00;0,00;1.719,91;1.364,46;1,00;300;0;0,00;FD;1.502,75;150;0;0,00;0 €;0;0,00;0;0 €;0;0 €;0;0 €;0 €;0 €;3.187,18;750,00;0,50;1.195,19;64,82;2016;100;0,00;0,00;1.195,19;1.195,19;305,37;1.100 €;;0,00;;;;;0;0,00;0,00;;0;0,00;;;n;;
05-146266-2;05Y02;Oberschule;Kant-Gymnasium;Bismarckstr. 47-56;13585 Berlin;Mensa (Neubau);200,00;;;362,00;;0,00;0,00;0,00;0,00;0,00;0,00;0,00;0,00;0,00;;320,00;1,00;700,00;0,00;0,00;293,12;-26,88;1,00;300;0;0,00;FD;362,42;150;0;0,00;0 €;0;0,00;0;0 €;0;0 €;0;0 €;0 €;0 €;169,44;750,00;0,00;0,00;30,56;2016;100;0,00;0,00;0,00;0,00;;0,00;;0,00;;;;;0;0,00;0,00;;0;0,00;;;;;
05-146266-1;05Y02;Oberschule;Kant-Gymnasium;Bismarckstr. 47-56;13585 Berlin;Hauptgebäude;7.173,00;;4.652,00;8.204,00;15.921,00;1,00;1,00;1,00;1,00;1,00;1,00;0,00;2,00;1,30;;1.508,78;1,00;700,00;1,00;1.056,15;6.463,83;4.955,05;1,00;300;1;1.486,52;FD, verschidene Neigungen;4.371,82;350;1;1.530,14;150 €;0;0,00;0;0 €;0;0 €;3;75 €;225 €;0 €;6.879,11;750,00;1,00;5.159,33;293,89;2000;100;293,89;646,56;10.103,69;10.103,69;600,66;1.800 €;0;0,00;;;1.100,00;1;120;132,00;11.269,00;1;90;1.014,21;;;n;;
05-146260-1;05K06;Oberschule;Wolfgang-Borchert-OS;Blumenstr. 13;13585 Berlin;Hauptgebäude & Sporthalle;5.612,00;;3.566,00;6.530,00;11.142,00;1,00;1,00;1,00;1,00;1,00;1,00;1,00;3,00;1,60;;1.201,59;1,00;700,00;0,00;0,00;4.044,17;2.842,58;1,00;300;1;852,77;FD, PD;2.770,87;350;1;969,80;200 €;0;0,00;0;0 €;0;0 €;2;50 €;250 €;0 €;5.401,50;750,00;0,00;0,00;210,50;2013;100;0,00;0,00;2.072,58;2.072,58;333,30;1.100 €;1;2.072,58;;;0,00;0;0;0,00;7.576,00;1;90;681,84;;;n;;
05-146906-1;05K06 ;Oberschule;Wolfgang-Borchert-OS;Borchertweg 2;13585 Berlin;Schulgebäude, Filiale;5.749,00;;1.611,00;6.674,00;5.750,00;1,00;1,00;1,00;1,00;1,00;1,00;1,00;3,00;1,60;;495,53;1,00;700,00;1,00;346,87;2.176,22;1.680,69;1,00;300;1;504,21;WD;1.655,35;350;1;579,37;150 €;0;0,00;0;0 €;0;0 €;1;25 €;175 €;0 €;5.526,53;750,00;0,50;2.072,45;222,47;2000;100;222,47;489,43;4.167,33;4.167,33;;0 €;;0,00;;;;;0;0,00;4.139,00;1;90;372,51;;;n;;
05-146299-5;05G15;Grundschule;Askanier-GS;Borkzeile 34;13583 Berlin;Sporthalle;575,00;;;649,00;;1,00;1,00;1,00;1,00;0,00;1,00;0,00;1,00;1,00;;24,28;1,00;700,00;1,00;17,00;477,40;453,12;1,00;300;1;135,94;SD, PD;700,00;350;1;245,00;0 €;1;20,00;1;50 €;1;200 €;1;25 €;295 €;0 €;530,38;350,00;0,00;0,00;44,62;2000;0;44,62;98,16;0,00;1.100,00;350,41;1.100 €;1;1.100,00;;;;;0;0,00;;;0;0,00;;;n;;
05-146299-6;05G15;Grundschule;Askanier-GS;Borkzeile 34;13583 Berlin;Neubau Hort, Askanier-GS;497,00;;;564,00;;0,00;0,00;0,00;0,00;0,00;0,00;0,00;0,00;0,00;;58,04;1,00;700,00;0,00;0,00;486,85;428,81;1,00;300;0;0,00;FD, GD;514,10;350;0;0,00;0 €;0;0,00;0;0 €;0;0 €;0;0 €;0 €;0 €;467,16;350,00;0,00;0,00;29,84;2009;100;0,00;0,00;0,00;0,00;;0 €;;0,00;;;;;0;0,00;;;0;0,00;;;n;;
05-146299-1;05G15;Grundschule;Askanier-GS;Borkzeile 34;13583 Berlin;Bauteil 1, Askanier-GS;1.507,00;;3.383,00;1.760,00;26.601,00;1,00;1,00;0,00;0,90;1,00;1,00;0,00;2,00;1,23;;233,40;1,00;700,00;1,00;163,38;1.202,50;969,10;1,00;300;1;290,73;FD;848,50;150;1;127,28;150 €;0;0,00;1;50 €;1;200 €;1;25 €;425 €;0 €;1.495,37;350,00;0,00;0,00;11,63;2000;0;11,63;25,59;1.031,97;1.031,97;;0 €;;0,00;;;1.100,00;0;0;0,00;23.218,00;0;0;0,00;;;n;;
05-146299-2;05G15;Grundschule;Askanier-GS;Borkzeile 34;13583 Berlin;Bauteil 2, Askanier-GS;519,00;;;639,00;;1,00;1,00;1,00;1,00;1,00;1,00;0,00;2,00;1,30;;147,98;1,00;700,00;1,00;103,59;887,24;739,26;1,00;300;1;221,78;FD;312,45;150;1;46,87;150 €;0;0,00;0;0 €;1;200 €;1;25 €;375 €;175 €;491,18;350,00;1,00;171,91;27,82;2000;0;27,82;61,20;1.155,35;1.155,35;;0 €;;0,00;;;;;0;0,00;0,00;;0;0,00;;;n;;
05-146299-3;05G15;Grundschule;Askanier-GS;Borkzeile 34;13583 Berlin;Bauteil 3, Askanier-GS;519,00;;;640,00;;1,00;1,00;1,00;1,00;1,00;1,00;0,00;2,00;1,30;;150,38;1,00;700,00;1,00;105,27;898,00;747,62;1,00;300;1;224,29;FD;312,45;150;1;46,87;150 €;0;0,00;0;0 €;1;200 €;1;25 €;375 €;175 €;491,18;350,00;0,00;0,00;27,82;2000;0;27,82;61,20;987,62;987,62;;0 €;;0,00;;;;;0;0,00;0,00;;0;0,00;;;n;;
05-146299-4;05G15;Grundschule;Askanier-GS;Borkzeile 34;13583 Berlin;Bauteil 4, Askanier-GS;1.342,00;;;1.537,00;;1,00;1,00;1,00;1,00;1,00;1,00;0,00;2,00;1,30;;348,87;1,00;700,00;1,00;244,21;1.317,40;968,53;1,00;300;1;290,56;FD;385,70;150;1;57,86;150 €;0;0,00;0;0 €;1;200 €;1;25 €;375 €;175 €;1.285,52;350,00;0,00;0,00;56,48;2000;0;56,48;124,26;1.266,88;1.266,88;;0 €;;0,00;;;;;0;0,00;0,00;;0;0,00;;;n;;
05-146299-7;05G15;Grundschule;Askanier-GS;Borkzeile 34;13583 Berlin;ehemal. Vorklassengebäude, Askanier-GS;165,00;;;197,00;;1,00;1,00;1,00;1,00;1,00;1,00;0,00;2,00;1,30;;33,25;1,00;700,00;1,00;23,28;306,65;273,40;1,00;300;1;82,02;FD;197,40;150;1;29,61;0 €;0;0,00;0;0 €;1;200 €;1;25 €;225 €;0 €;165,00;350,00;0,00;0,00;0,00;2000;0;0,00;0,00;359,91;359,91;;0 €;;0,00;;;;;0;0,00;0,00;;0;0,00;;;n;;
05-146299-9;GAS;Grundschule;Gartenarbeitsschule Askanier-GS;Borkzeile 34;13583 Berlin;Bauteil 2, Pavillion;49,00;;;49,00;;3,00;3,00;0,00;2,70;1,00;1,00;0,00;2,00;2,49;;0,00;1,00;700,00;1,00;0,00;0,00;0,00;1,00;300;1;0,00;ZD;53,25;350;1;18,64;0 €;1;20,00;1;50 €;0;0 €;1;25 €;95 €;0 €;49,00;350,00;0,00;0,00;0,00;;;;;113,64;113,64;;0 €;;0,00;;;;;0;0,00;0,00;;0;0,00;;;n;;
05-146299-8;GAS;Grundschule;Gartenarbeitsschule Askanier-GS;Borkzeile 34;13583 Berlin;Hauptgebäude, Gartenarbeitsschule;531,00;;539,00;626,00;5.991,00;3,00;3,00;0,00;2,70;0,00;0,00;0,00;0,00;1,89;;64,82;1,00;700,00;1,00;45,37;363,75;298,93;1,00;300;1;89,68;FD;419,50;150;1;62,93;0 €;1;20,00;1;50 €;0;0 €;1;25 €;95 €;0 €;511,03;350,00;0,00;0,00;19,97;2000;100;19,97;43,93;336,91;336,91;;0 €;;0,00;;;0,00;0;0;0,00;5.452,00;0;0;0,00;;;n;;
05-146299-10;JVS I;Verkehrsschule;Verkehrsschule Askanier-GS;Borkzeile 34;13583 Berlin;Hauptgebäude, Verkehrsschule;131,00;;161,00;147,00;3.575,00;3,00;3,00;0,00;2,70;0,00;0,00;0,00;0,00;1,89;;9,09;1,00;700,00;1,00;6,36;157,00;147,91;1,00;300;1;44,37;FD;147,30;150;1;22,10;0 €;0;0,00;1;50 €;0;0 €;1;25 €;75 €;0 €;111,03;550,00;1,00;61,07;19,97;1973;100;19,97;43,93;252,83;252,83;;0 €;;0,00;;;0,00;0;0;0,00;3.414,00;1;90;307,26;;;n;;
05-146299-12;JVS I;Verkehrsschule;Verkehrsschule Askanier-GS;Borkzeile 34;13583 Berlin;Werkstatt (an der Sporthalle), Verkehrsschule;24,00;;;32,00;;1,00;1,00;0,00;0,90;0,00;0,00;0,00;0,00;0,63;;2,28;1,00;700,00;0,00;0,00;49,60;47,32;1,00;300;1;14,20;FD;32,40;150;1;4,86;0 €;0;0,00;0;0 €;0;0 €;0;0 €;0 €;0 €;15,99;550,00;0,00;0,00;8,01;;;8,01;17,62;36,68;36,68;;0 €;;0,00;;;;;0;0,00;0,00;;0;0,00;;;n;;
05-146909-4;05Y04;Oberschule;Carl-Friedr.-von-Siemens-Gymnasium;Jungfernheideweg 79;13629 Berlin;Haus A;682,00;;;793,00;;1,00;1,00;1,00;1,00;1,00;1,00;0,00;2,00;1,30;;431,63;1,00;700,00;1,00;302,14;876,60;444,97;1,00;300;1;133,49;SD, PD;448,23;350;1;156,88;150 €;1;20,00;1;50 €;1;200 €;1;25 €;445 €;0 €;646,44;750,00;0,00;0,00;35,56;2000;100;35,56;78,23;1.115,74;1.115,74;;0 €;;0,00;;;;;0;0,00;0,00;;0;0,00;;;n;;
05-146909-3;05Y04;Oberschule;Carl-Friedr.-von-Siemens-Gymnasium;Jungfernheideweg 79;13629 Berlin;Pavillion;325,00;;;362,00;;1,00;1,00;1,00;1,00;1,00;1,00;0,00;2,00;1,30;;167,22;1,00;700,00;0,00;0,00;434,40;267,18;1,00;300;1;80,15;FD;362,00;150;0;0,00;0 €;0;0,00;0;0 €;0;0 €;0;0 €;0 €;0 €;302,12;750,00;0,00;0,00;22,88;2016;100;0,00;0,00;80,15;80,15;;0 €;;0,00;;;;;0;0,00;0,00;;0;0,00;;;n;;
05-146909-2;05Y04;Oberschule;Carl-Friedr.-von-Siemens-Gymnasium;Jungfernheideweg 79;13629 Berlin;Mensa;490,00;;;569,00;;0,00;0,00;1,00;0,10;0,00;0,00;0,00;0,00;0,07;;59,60;1,00;700,00;0,00;0,00;414,14;354,54;1,00;300;0;0,00;SD, PD;589,35;350;0;0,00;0 €;0;0,00;0;0 €;0;0 €;0;0 €;0 €;0 €;443,67;750,00;0,00;0,00;46,33;2016;100;0,00;0,00;0,00;0,00;;0 €;;0,00;;;;;0;0,00;0,00;;0;0,00;;;n;;
05-146909-1;05Y04;Oberschule;Carl-Friedr.-von-Siemens-Gymnasium;Jungfernheideweg 79;13629 Berlin;Hauptgebäude;3.488,00;;5.627,00;3.939,00;30.960,00;1,00;1,00;1,00;1,00;1,00;1,00;0,00;2,00;1,30;;1.152,95;1,00;700,00;1,00;807,07;1.803,18;650,23;1,00;300;1;195,07;SD, PD;1.396,00;350;1;488,60;150 €;1;20,00;1;50 €;1;200 €;1;25 €;445 €;0 €;3.444,39;750,00;0,00;0,00;43,61;2012;100;0,00;0,00;1.935,73;1.935,73;;0 €;;0,00;;;0,00;0;0;0,00;25.333,00;1;90;2.279,97;;;n;;
05-146288-3;05G20;Grundschule;Carl-Schurz-GS;Hakenfelder Str. 32;13587 Berlin;Sporthalle;1.325,00;;;1.384,00;;2,00;1,00;1,00;1,50;0,00;1,00;0,00;1,00;1,35;;84,89;1,00;700,00;0,00;0,00;1.094,00;1.009,11;1,00;300;0;0,00;FD;1.384,00;150;0;0,00;0 €;1;20,00;1;50 €;1;200 €;1;25 €;295 €;0 €;1.230,65;350,00;0,00;0,00;94,35;2000;100;94,35;207,57;502,57;502,57;881,16;1.800 €;0;0,00;;;;;0;0,00;0,00;;0;0,00;;;n;;
05-146288-1;05G20;Grundschule;Carl-Schurz-GS;Hakenfelder Str. 32;13587 Berlin;Hauptgebäude;5.283,00;;3.406,00;5.771,00;18.701,00;1,00;1,00;3,00;1,20;2,00;0,00;0,00;2,00;1,44;;1.130,48;1,00;700,00;1,00;791,34;4.201,35;3.070,87;1,00;300;1;921,26;FD;2.019,00;150;1;302,85;150 €;1;20,00;2;100 €;1;200 €;2;50 €;520 €;0 €;5.099,25;350,00;1,00;1.784,74;183,75;2010;100;0,00;0,00;4.320,18;4.320,18;;0 €;;0,00;;;;;0;0,00;15.295,00;1;90;1.376,55;;;n;;
05-303817-3;05Y01;Oberschule;Freiherr-vom-Stein-Gymnasium;Carl-Schurz-Str. 59;13597 Berlin;Hauptgebäude, Filiale;2.831,00;;1.160,00;3.585,00;4.059,00;0,00;0,00;0,00;0,00;0,00;0,00;0,00;0,00;0,00;;656,27;1,00;700,00;0,00;0,00;2.192,71;1.536,44;1,00;300;0;0,00;SD,WD;1.037,23;350;0;0,00;0 €;0;0,00;0;0 €;0;0 €;0;0 €;0 €;0 €;2.736,78;750,00;0,00;0,00;94,22;2010;100;0,00;0,00;0,00;0,00;;0 €;0;0,00;;;0,00;0;0;0,00;2.899,00;0;0;0,00;;;n;;
05-303817-4;05Y01 ;Oberschule;Freiherr-vom-Stein-Gymnasium;Carl-Schurz-Str. 59;13597 Berlin;Uraltbau(Dependance), Filiale;1.048,00;;;1.356,00;;0,00;0,00;0,00;0,00;0,00;0,00;0,00;0,00;0,00;;161,16;1,00;700,00;0,00;0,00;1.060,18;899,02;1,00;300;0;0,00;SD;343,35;350;0;0,00;0 €;0;0,00;0;0 €;0;0 €;0;0 €;0 €;0 €;1.046,79;750,00;0,00;0,00;1,21;;0;1,21;0,00;0,00;0,00;;0 €;0;0,00;;;;;0;0,00;0,00;;0;0,00;;;n;;
05-307106-1;05G29;Grundschule;Mary-Poppins-GS;Charles-Lindbergh-Str. 74;14089 Berlin;Hort;1.460,00;;769,00;1.674,00;2.289,00;0,00;0,00;0,00;0,00;0,00;0,00;0,00;0,00;0,00;;59,14;1,00;700,00;0,00;0,00;1.287,81;1.228,67;1,00;300;0;0,00;FD;525,83;150;0;0,00;0 €;0;0,00;0;0 €;0;0 €;0;0 €;0 €;0 €;1.401,68;350,00;0,00;0,00;58,32;2011;100;0,00;0,00;0,00;0,00;;0 €;;0,00;;;0,00;0;0;0,00;1.520,00;0;0;0,00;;;n;;
05-146306-3;05G26;Grundschule;GS am Amalienhof;Weinmeisterhornweg 122;13593 Berlin;Sporthalle;1.417,00;;;1.509,00;;1,00;1,00;0,00;0,90;2,00;2,00;0,00;4,00;1,83;;112,20;1,00;700,00;1,00;78,54;1.874,23;1.762,03;1,00;300;1;528,61;FD;1.508,99;150;0;0,00;0 €;0;0,00;2;100 €;1;200 €;0;0 €;300 €;0 €;1.319,32;350,00;0,00;0,00;97,68;2000;0;97,68;214,90;0,00;1.800,00;884,94;1.800 €;1;1.800,00;;;;;0;0,00;0,00;;0;0,00;;;n;;
05-146306-2;05G26;Grundschule;GS am Amalienhof;Weinmeisterhornweg 122;13593 Berlin;Anbau Hort;245,00;;;284,00;;0,00;0,00;0,00;0,00;0,00;0,00;0,00;0,00;0,00;;18,12;1,00;700,00;0,00;0,00;721,43;703,31;1,00;300;0;0,00;FD;283,63;150;0;0,00;0 €;0;0,00;2;100 €;0;0 €;0;0 €;100 €;0 €;221,30;350,00;0,00;0,00;23,70;2016;100;0,00;0,00;100,00;100,00;;0 €;;0,00;;;;;0;0,00;0,00;;0;0,00;;;n;;
05-146306-1;05G26;Grundschule;GS am Amalienhof;Weinmeisterhornweg 122;13593 Berlin;Hauptgebäude;5.580,00;;4.382,00;6.066,00;18.356,00;1,00;1,00;1,00;1,00;1,00;1,00;0,00;2,00;1,30;;1.084,98;1,00;700,00;1,00;759,49;3.389,32;2.304,34;1,00;300;1;691,30;FD;2.079,04;150;0;0,00;0 €;0;0,00;2;100 €;1;200 €;0;0 €;300 €;0 €;5.398,62;350,00;0,00;0,00;181,38;2013;100;0,00;0,00;1.750,79;1.750,79;;0 €;;0,00;;;1.100,00;1;120;132,00;13.974,00;1;90;1.257,66;;;n;;
05-146304-3;05G23;Grundschule;GS am Brandwerder;Spandauer Str. 78-88;13591 Berlin;Sporthalle;614,00;;;660,00;;1,00;1,00;0,00;0,90;0,00;1,00;0,00;1,00;0,93;;20,35;1,00;700,00;0,00;0,00;657,70;637,35;1,00;300;1;191,21;FD;659,57;150;0;0,00;0 €;0;0,00;0;0 €;1;200 €;0;0 €;200 €;0 €;562,95;350,00;1,00;197,03;51,05;2000;0;51,05;112,31;0,00;1.100,00;377,82;1.100 €;1;1.100,00;;;;;0;0,00;0,00;;0;0,00;;;n;;
05-146298-1;05G13;Grundschule;Bernd-Ryke-GS;Daumstr. 12-16;13599 Berlin;Hauptgebäude, Daumstr. 12-16;5.314,00;;3.967,00;6.122,00;19.519,00;1,00;1,00;1,00;1,00;1,00;1,00;1,00;3,00;1,60;;84,58;1,00;700,00;1,00;59,21;3.517,65;3.433,07;1,00;300;1;1.029,92;WD, SD, PD, FD;3.867,99;350;1;1.353,80;150 €;1;20,00;1;50 €;1;200 €;1;25 €;445 €;150 €;5.055,68;350,00;1,00;1.769,49;258,32;2013;10;232,49;511,47;5.318,89;5.318,89;285,96;1.100 €;0;0,00;;;1.100,00;3;235;258,50;15.552,00;1;90;1.399,68;;;n;;
05-146298-3;05G13;Grundschule;Bernd-Ryke-GS;Daumstr. 12-16;13599 Berlin;Sporthalle;265,00;;;294,00;;1,00;1,00;0,00;0,90;0,00;1,00;1,00;2,00;1,23;;25,20;1,00;700,00;1,00;17,64;331,80;306,60;1,00;300;1;91,98;FD;291,83;150;1;43,77;0 €;0;0,00;0;0 €;0;0 €;1;25 €;25 €;0 €;247,76;350,00;0,00;0,00;17,24;2000;100;17,24;37,93;216,32;216,32;178,88;1.100 €;0;0,00;;;;;0;0,00;0,00;;0;0,00;;;n;;
05-146294-2;05G08;Grundschule;Konkordia-GS;Elsflether Weg 26-30;13581 Berlin;Neubau, Mensa;348,00;;;411,00;;0,00;0,00;0,00;0,00;0,00;0,00;0,00;0,00;0,00;;66,00;1,00;700,00;0,00;0,00;385,85;319,85;1,00;300;0;0,00;FD;411,15;150;0;0,00;0 €;0;0,00;0;0 €;0;0 €;1;25 €;25 €;0 €;325,11;350,00;0,00;0,00;22,89;2007;100;0,00;0,00;25,00;25,00;;0 €;0;0,00;;;;;0;0,00;0,00;;0;0,00;;;n;;
05-146294-1;05G08;Grundschule;Konkordia-GS;Elsflether Weg 26-30;13581 Berlin;Hauptgebäude;3.521,00;;3.666,00;4.120,00;14.959,00;1,00;1,00;1,00;1,00;1,00;1,00;0,00;2,00;1,30;;277,37;1,00;700,00;1,00;194,16;2.957,57;2.680,20;1,00;300;1;804,06;PD;2.442,25;350;1;854,79;200 €;1;20,00;1;50 €;1;200 €;2;50 €;520 €;0 €;3.418,60;350,00;1,00;1.196,51;102,40;2000;100;102,40;225,28;3.794,80;3.794,80;;0 €;;0,00;;;1.100,00;1;120;132,00;11.293,00;1;90;1.016,37;;;n;;
05-146294-3;05G08;Grundschule;Konkordia-GS;Elsflether Weg 26-30;13581 Berlin;Sporthalle;522,00;;;585,00;;1,00;1,00;0,00;0,90;0,00;0,00;0,00;0,00;0,63;;32,25;1,00;700,00;1,00;22,58;509,90;477,65;1,00;300;1;143,30;SD, PD;617,35;350;1;216,07;0 €;1;20,00;1;50 €;0;0 €;1;25 €;95 €;0 €;478,79;350,00;1,00;167,58;43,21;2014;100;0,00;0,00;0,00;1.100,00;335,69;1.100 €;1;1.100,00;;;;;0;0,00;0,00;;0;0,00;;;n;;
05-146294-4;05G08;Grundschule;Konkordia-GS;Elsflether Weg 26-30;13581 Berlin;Betreuungseinrichtung;165,00;;;197,00;;2,00;2,00;1,00;1,90;0,00;2,00;0,00;2,00;1,93;;17,02;1,00;700,00;1,00;11,91;224,30;207,28;1,00;300;1;62,18;PD;215,70;350;1;75,50;0 €;0;0,00;0;0 €;0;0 €;1;25 €;25 €;0 €;147,30;350,00;0,50;25,78;17,70;2000;100;17,70;38,94;239,31;239,31;;0 €;;0,00;;;;;0;0,00;0,00;;0;0,00;;;n;;
05-146267-4;05Y02;Oberschule;Kant-Gymnasium;Falkenseer Damm 20;13585 Berlin;Sporthalle;;;;1.904,00;;1,00;2,00;0,00;1,30;0,00;2,00;0,00;2,00;1,51;;36,54;1,00;700,00;1,00;25,58;1532,55;1.496,01;1,00;300;1;448,80;FD;1903,7;350;1;666,30;0;0;0,00;0;0 €;0;0 €;0;0 €;0 €;0 €;1.593,36;350,00;1,00;557,68;21,95;;;21,95;48,29;0,00;3.200,00;1903,67;3.200 €;1;3.200,00;;;;;0;0,00;0,00;;0;0,00;;;n;;
05-146307-3;05G27;Grundschule;Charlie-Rivel-GS;Feldstraße 28;13585 Berlin;Hortgebäude, Feldstr. 28;311,00;;;340,00;;1,00;1,00;1,00;1,00;0,00;1,00;0,00;1,00;1,00;;57,79;1,00;700,00;1,00;40,45;1.082,65;1.024,86;1,00;300;1;307,46;FD;356,50;350;1;124,78;0 €;0;0,00;0;0 €;0;0 €;1;25 €;25 €;0 €;276,55;350,00;1,00;96,79;34,45;2000;;34,45;75,79;670,27;670,27;;0 €;;0,00;;;1.100,00;2;175;192,50;15.696,00;1;90;1.412,64;;;n;;
05-146307-1;05G27;Grundschule;Charlie-Rivel-GS;Flankenschanze 20;13585 Berlin;Hauptgebäude;4.830,00;;5.800,00;5.617,00;21.496,00;3,00;2,00;2,00;2,50;2,00;2,00;0,00;4,00;2,95;;834,36;1,00;700,00;0,00;0,00;1.390,31;555,95;1,00;300;0;0,00;FD;1.323,50;150;0;0,00;0 €;0;0,00;0;0 €;0;0 €;0;0 €;0 €;0 €;4.516,86;350,00;0,00;0,00;313,14;2016;100;0,00;0,00;0,00;0,00;;0 €;;0,00;;;;;0;0,00;0,00;;0;0,00;;;n;;
05-146307-2;05G27;Grundschule;Charlie-Rivel-GS;Flankenschanze 20;13585 Berlin;Sporthalle;1.965,00;;;2.313,00;;3,00;2,00;3,00;2,60;2,00;2,00;0,00;4,00;3,02;;128,47;1,00;700,00;0,00;0,00;1.603,96;1.475,49;1,00;300;0;0,00;FD;1.912,00;150;0;0,00;0 €;0;0,00;0;0 €;0;0 €;0;0 €;0 €;0 €;1.858,56;350,00;0,00;0,00;106,44;2016;100;0,00;0,00;0,00;0,00;969,03;2.100 €;0;0,00;;;;;0;0,00;0,00;;0;0,00;;;n;;
05-146906-2;05K06;Oberschule;Wolfgang-Borchert-OS;Flankenschanze 44;13585 Berlin;Sporthalle, Filiale;1.573,00;;;1.794,00;;1,00;1,00;0,00;0,90;0,00;1,00;0,00;1,00;0,93;;117,98;1,00;700,00;1,00;82,59;917,91;799,93;1,00;300;1;239,98;SD, WD;1.115,65;350;0;0,00;0 €;0;0,00;0;0 €;0;0 €;0;0 €;0 €;0 €;1.516,29;750,00;0,00;0,00;56,71;2014;100;0,00;0,00;0,00;1.800,00;581,74;1.800 €;1;1.800,00;;;;;0;0,00;0,00;;0;0,00;;;n;;
05-303816-9;05G05;Grundschule;Christoph-Földerich-GS;Földerichplatz 5;13595 Berlin;Gymnastikhalle;266,00;;;292,00;;1,00;1,00;0,00;0,90;0,00;1,00;1,00;2,00;1,23;;34,26;1,00;700,00;1,00;23,98;602,97;568,71;1,00;300;1;170,61;FD;611,00;150;1;91,65;0 €;0;0,00;0;0 €;0;0 €;1;25 €;25 €;0 €;239,96;350,00;1,00;83,99;26,04;2000;100;26,04;57,29;0,00;1.100,00;177,67;1.100 €;1;1.100,00;;;;;0;0,00;0,00;;0;0,00;;;n;;
05-146287-1;05G05;Grundschule;Christoph-Földerich-GS;Földerichplatz 5;13595 Berlin;Hauptgebäude;4.104,00;;2.561,00;5.076,00;13.113,00;2,00;2,00;1,00;1,90;1,00;0,00;1,00;2,00;1,93;;602,02;1,00;700,00;1,00;421,41;3.173,00;2.570,98;1,00;300;1;771,29;WD;1.138,00;350;0;0,00;150 €;1;20,00;1;50 €;1;200 €;1;25 €;445 €;0 €;3.977,46;350,00;0,75;1.044,08;126,54;2010;100;0,00;0,00;2.681,79;2.681,79;;0 €;;0,00;;;500,00;3;235;117,50;10.552,00;3;180;1.899,36;;;n;;
05-146287-3;05G05;Grundschule;Christoph-Földerich-GS;Földerichplatz 5;13595 Berlin;Sporthalle;523,00;;;603,00;;1,00;1,00;1,00;1,00;0,00;1,00;1,00;2,00;1,30;;112,67;1,00;700,00;1,00;78,87;332,30;219,63;1,00;300;1;65,89;WD;292,00;350;0;0,00;0 €;0;0,00;1;50 €;0;0 €;1;25 €;75 €;0 €;472,41;350,00;0,00;0,00;50,59;2000;0;50,59;111,30;0,00;1.100,00;315,00;1.100 €;1;1.100,00;;;;;0;0,00;0,00;;0;0,00;;;n;;
05-146291-2;05G02;Grundschule;GS am Eichenwald;Gaismannshofer Weg 2;13587 Berlin;Bauteil 2/Verwaltung;1.272,00;;;1.396,00;;1,00;2,00;0,00;1,30;0,00;0,00;0,00;0,00;0,91;;168,95;1,00;700,00;1,00;118,27;431,40;262,45;1,00;300;1;78,74;FD;632,60;150;1;94,89;150 €;0;0,00;1;50 €;1;200 €;0;0 €;400 €;175 €;1.234,83;350,00;1,00;432,19;37,17;2014;100;0,00;0,00;1.299,08;1.299,08;;0 €;;0,00;;;;;0;0,00;0,00;;0;0,00;;;n;;
05-146291-3;05G02;Grundschule;GS am Eichenwald;Gaismannshofer Weg 2;13587 Berlin;Nebengebäude/Mensa;770,00;;;938,00;;3,00;0,00;0,00;1,50;0,00;0,00;0,00;0,00;1,05;;94,17;1,00;700,00;1,00;65,92;757,68;663,51;1,00;300;1;199,05;FD;468,90;150;1;70,34;150 €;0;0,00;0;0 €;0;0 €;1;25 €;175 €;0 €;736,54;350,00;1,00;257,79;33,46;2013;100;0,00;0,00;768,10;768,10;;0 €;;0,00;;;;;0;0,00;0,00;;0;0,00;;;n;;
05-146291-1;05G02;Grundschule;GS am Eichenwald;Gaismannshofer Weg 2;13587 Berlin;Bauteil 1;3.015,00;;3.159,00;3.519,00;15.137,00;1,00;1,00;0,00;0,90;1,00;1,00;0,00;2,00;1,23;;579,49;1,00;700,00;1,00;405,64;3.959,80;3.380,31;1,00;300;1;1.014,09;SD, FD;2.120,00;350;1;742,00;150 €;0;0,00;0;0 €;1;200 €;2;50 €;400 €;0 €;2.889,13;350,00;1,00;1.011,20;125,87;2016;100;0,00;0,00;3.572,93;3.572,93;;0 €;;0,00;;;1.100,00;2;175;192,50;11.978,00;0;0;0,00;;;n;;
05-146291-4;05G02;Grundschule;GS am Eichenwald;Gaismannshofer Weg 2;13587 Berlin;Sporthalle;530,00;;;595,00;;2,00;0,00;0,00;1,00;0,00;0,00;0,00;0,00;0,70;;47,77;1,00;700,00;1,00;33,44;556,57;508,80;1,00;300;1;152,64;SD;642,60;350;1;224,91;0 €;0;0,00;0;0 €;0;0 €;0;0 €;0 €;0 €;477,06;350,00;0,00;0,00;52,94;2013;100;0,00;0,00;0,00;1.100,00;342,26;1.100 €;1;1.100,00;;;;;0;0,00;0,00;;0;0,00;;;n;;
05-146265-1;05Y01  ;Oberschule;Freiherr-vom-Stein-Gymnasium;Galenstr. 40;13597 Berlin;Schulgebäude;6.379,00;;2.312,00;7.699,00;10.362,00;1,00;1,00;1,00;1,00;1,00;1,00;1,00;3,00;1,60;;1.076,77;1,00;700,00;1,00;753,74;4.341,79;3.265,02;1,00;300;0;0,00;SD, WD, PD;2.507,00;350;0;0,00;200 €;2;40,00;1;50 €;0;0 €;1;25 €;315 €;0 €;6.189,46;750,00;1,00;4.642,10;189,54;2000;0;189,54;416,99;6.127,82;6.127,82;351,73;1.100 €;0;0,00;;;1.100,00;3;235;258,50;8.050,00;3;180;1.449,00;;;n;;
05-146281-3;05S03;Sonderschule;Schule am Gartenfeld;Gartenfelder Str. 79;13599 Berlin;Pavillon (ehem. Kneipe);;;;252,00;;1,00;1,00;1,00;1,00;1,00;1,00;0,00;2,00;1,30;;22,26;1,00;700,00;1,00;15,58;314,42;292,16;1,00;300;1;87,65;SD, PD;280,00;350;1;98,00;0 €;1;20,00;0;0 €;1;200 €;0;0 €;220 €;0 €;-14,00;550,00;0,00;0,00;14,00;2011;100;0,00;0,00;421,23;421,23;;0,00;;0,00;;;;;0;0,00;0,00;;0;0,00;;;;;
05-146281-2;05S03;Sonderschule;Schule am Gartenfeld;Gartenfelder Str. 81;13599 Berlin;Bauteil 2;430,00;;;506,00;;1,00;1,00;1,00;1,00;1,00;1,00;0,00;2,00;1,30;;32,07;1,00;700,00;1,00;22,45;1.248,20;1.216,13;1,00;300;1;364,84;FD;304,00;150;1;45,60;0 €;0;0,00;1;50 €;1;200 €;1;25 €;275 €;0 €;345,47;550,00;1,00;190,01;84,53;2000;;84,53;185,97;1.083,86;1.083,86;351,73;1.100 €;0;0,00;;;;;0;0,00;0,00;;0;0,00;;;n;;
05-146281-1;05S03;Sonderschule;Schule am Gartenfeld;Gartenfelder Str. 81;13599 Berlin;Bauteil 1;2.829,00;;1.597,00;3.563,00;5.971,00;1,00;1,00;1,00;1,00;1,00;1,00;0,00;2,00;1,30;;281,49;1,00;700,00;1,00;197,04;1.888,92;1.607,43;1,00;300;1;482,23;SD, FD, WD;1.337,00;350;1;467,95;0 €;0;0,00;1;50 €;1;200 €;1;25 €;275 €;0 €;2.692,37;550,00;1,00;1.480,80;136,63;2000;100;136,63;300,59;3.203,61;3.203,61;;0 €;;0,00;;;0,00;0;0;0,00;4.374,00;3;180;787,32;;;n;;
05-146310-2;05G28;Grundschule;GS an der Pulvermühle;Goldbeckweg 11;13599 Berlin;Sporthalle;1.805,00;;1.908,00;1.912,00;4.630,00;3,00;2,00;1,00;2,40;2,00;2,00;0,00;4,00;2,88;;77,62;1,00;700,00;0,00;0,00;1.603,96;1.526,34;1,00;300;0;0,00;FD;1.912,00;150;0;0,00;0 €;0;0,00;0;0 €;0;0 €;0;0 €;0 €;0 €;1.698,12;350,00;0,00;0,00;106,88;1999;100;106,88;235,14;235,14;235,14;1.274,46;3.200 €;0;0,00;;;;;0;0,00;2.722,00;;0;0,00;;;n;;
05-146912-1;05G28;Grundschule;GS an der Pulvermühle;Goldbeckweg 21;13599 Berlin;Hort;1.689,00;;;2.821,21;1.914,00;4,00;1,00;1,00;2,50;2,00;2,00;0,00;4,00;2,95;;222,66;1,00;700,00;0,00;0,00;1.082,65;859,99;1,00;300;0;0,00;OHNE;0,00;350;0;0,00;0 €;0;0,00;0;0 €;0;0 €;0;0 €;0 €;0 €;1.593,36;350,00;0,00;0,00;95,64;1999;100;95,64;210,41;210,41;210,41;;0 €;;0,00;;;0,00;0;0;0,00;1.914,00;1;90;172,26;;;n;;
05-146290-1;05G01;Grundschule;Ernst-Ludwig-Heim-GS;Grunewaldstr. 8;13595 Berlin;Hauptgebäude;3.947,00;;4.215,00;4.538,00;18.820,00;1,00;1,00;1,00;1,00;1,00;1,00;0,00;2,00;1,30;;1.164,35;1,00;700,00;0,00;0,00;4.378,35;3.214,00;1,00;300;1;964,20;FD;1.496,65;150;0;0,00;150 €;0;0,00;1;50 €;1;200 €;1;25 €;425 €;175 €;3.683,01;350,00;0,00;0,00;263,99;2000;0;263,99;580,78;2.144,98;2.144,98;;0 €;;0,00;;;1.100,00;2;175;192,50;14.605,00;2;135;1.971,68;;;n;;
05-146290-2;05G01;Grundschule;Ernst-Ludwig-Heim-GS;Grunewaldstr. 8;13595 Berlin;Sporthalle;2.103,00;;;2.333,00;;1,00;1,00;1,00;1,00;1,00;1,00;0,00;2,00;1,30;;358,67;1,00;700,00;0,00;0,00;1.033,17;674,50;1,00;300;1;202,35;FD;1.412,28;150;0;0,00;0 €;0;0,00;1;50 €;1;200 €;1;25 €;275 €;0 €;1.990,89;350,00;0,00;0,00;112,11;2000;0;112,11;246,64;0,00;1.800,00;424,59;1.800 €;1;1.800,00;;;;;0;0,00;0,00;;0;0,00;;;n;;
05-146290-3;05G01;Grundschule;Ernst-Ludwig-Heim-GS;Grunewaldstr. 8;13595 Berlin;Hort;351,00;;;391,00;;3,00;3,00;0,00;2,70;0,00;1,00;1,00;2,00;2,49;;59,08;1,00;700,00;1,00;41,36;400,00;340,92;1,00;300;1;102,28;FD;385,00;150;1;57,75;0 €;0;0,00;1;50 €;1;200 €;1;25 €;275 €;0 €;334,64;350,00;0,00;0,00;16,36;2000;100;16,36;35,99;512,37;512,37;;0 €;;0,00;;;;;0;0,00;0,00;;0;0,00;;;n;;
05-146310-1;05G28;Grundschule;GS an der Pulvermühle;Grützmacher Weg 7;13599 Berlin;Hauptgebäude;4.059,00;;1.462,00;4.548,00;8.061,00;3,00;2,00;1,00;2,40;2,00;2,00;0,00;4,00;2,88;;553,44;1,00;700,00;0,00;0,00;1.390,31;836,87;1,00;300;0;0,00;FD;1.323,50;150;0;0,00;0 €;0;0,00;0;0 €;0;0 €;0;0 €;0 €;0 €;3.869,13;350,00;0,00;0,00;189,87;1999;100;189,87;417,71;417,71;417,71;;0 €;;0,00;;;1.100,00;3;235;258,50;6.599,00;3;180;1.187,82;;;n;;
05-146304-2;05G23;Grundschule;GS am Brandwerder;Spandauer Str. 78-88;13591 Berlin;Neubau Hort;437,00;;;509,00;;0,00;0,00;0,00;0,00;0,00;0,00;0,00;0,00;0,00;;26,04;1,00;700,00;0,00;0,00;565,16;539,12;1,00;300;0;0,00;FD;508,67;150;0;0,00;0 €;0;0,00;0;0 €;0;0 €;0;0 €;0 €;0 €;394,18;350,00;0,00;0,00;42,82;2016;100;0,00;0,00;0,00;0,00;;0 €;;0,00;;;;;0;0,00;0,00;;0;0,00;;;n;;
05-146304-1;05G23;Grundschule;GS am Brandwerder;Spandauer Str. 78-88;13591 Berlin;Schulgebäude;3.956,00;;2.929,00;4.618,00;28.122,00;1,00;1,00;1,00;1,00;1,00;1,00;0,00;2,00;1,30;;1.077,89;1,00;700,00;1,00;754,52;4.633,15;3.555,26;1,00;300;1;1.066,58;FD;1.413,43;150;1;212,01;250 €;1;20,00;0;0 €;1;200 €;0;0 €;470 €;0 €;3.848,68;350,00;0,50;673,52;107,32;2000;0;107,32;236,10;3.412,74;3.412,74;;0 €;;0,00;;;1.100,00;3;235;258,50;25.193,00;1;90;2.267,37;;;n;;
05-146283-1;JVS II;Verkehrsschule;Kinderverkehrsgarten;Hakenfelder Str. 9c;13587 Berlin;Schulgebäude;201,00;;216,00;215,00;3.492,00;1,00;1,00;3,00;1,20;0,00;2,00;0,00;2,00;1,44;;31,34;1,00;700,00;0,00;0,00;228,60;197,26;1,00;300;1;59,18;FD;215,00;150;1;32,25;0 €;1;20,00;1;50 €;1;200 €;1;25 €;295 €;0 €;185,34;550,00;1,00;101,94;15,66;2000;0;15,66;34,45;522,82;522,82;;0 €;;0,00;;;;;0;0,00;3.276,00;0;0;0,00;;;n;;
05-146300-1;05G16;Grundschule;Zeppelin-GS;Heidebergplan 3;13591 Berlin;Hauptgebäude, Haus 1;1.200,00;;;1.156,00;;1,00;1,00;0,00;0,90;1,00;1,00;1,00;3,00;1,53;;367,40;1,00;700,00;1,00;257,18;883,00;515,60;1,00;300;1;154,68;WD;697,20;350;1;244,02;150 €;1;20,00;1;50 €;1;200 €;3;75 €;495 €;250 €;1.163,72;350,00;1,00;407,30;36,28;2000;;36,28;79,82;1.888,00;1.888,00;;0 €;;0,00;;;;;0;0,00;0,00;;0;0,00;;;n;;
05-146300-3;05G16;Grundschule;Zeppelin-GS;Heidebergplan 4;13591 Berlin;Hauptgebäude, Haus 2;1.203,00;;826,00;1.564,00;906,00;1,00;1,00;0,00;0,90;1,00;1,00;1,00;3,00;1,53;;359,76;1,00;700,00;1,00;251,83;883,00;523,24;1,00;300;1;156,97;WD;710,10;350;1;248,54;150 €;1;20,00;1;50 €;1;200 €;3;75 €;495 €;250 €;1.138,81;350,00;1,00;398,58;64,19;2000;;64,19;141,22;1.942,14;1.942,14;;0 €;;0,00;;;;;0;0,00;80,00;;0;0,00;;;n;;
05-146252-1;05G06;Grundschule;Siegerland-GS;Hermann-Schmidt-Weg 4;13583 Berlin;Hauptgebäude;2.941,00;;4.038,00;3.322,00;17.147,00;1,00;1,00;1,00;1,00;1,00;1,00;0,00;2,00;1,30;;577,31;1,00;700,00;1,00;404,12;4.054,09;3.476,78;1,00;300;1;1.043,03;FD;2.007,10;150;0;0,00;400 €;0;0,00;1;50 €;1;200 €;2;50 €;700 €;1.600 €;2.809,54;350,00;1,00;983,34;131,46;2000;100;131,46;289,21;5.019,70;5.019,70;;0 €;;0,00;;;1.100,00;0;0;0,00;13.109,00;0;0;0,00;;;n;;
05-146252-2;05G06;Grundschule;Siegerland-GS;Hermann-Schmidt-Weg 4;13583 Berlin;Neubau;774,00;;;898,00;;0,00;0,00;0,00;0,00;0,00;0,00;0,00;0,00;0,00;;131,10;1,00;700,00;0,00;0,00;786,96;655,86;1,00;300;0;0,00;FD;541,96;150;0;0,00;150 €;0;0,00;0;0 €;0;0 €;1;25 €;175 €;0 €;723,11;350,00;0,00;0,00;50,89;2009;100;0,00;0,00;175,00;175,00;;0 €;;0,00;;;;;0;0,00;0,00;;0;0,00;;;n;;
05-146252-3;05G06;Grundschule;Siegerland-GS;Hermann-Schmidt-Weg 4;13583 Berlin;MEB;;;;1.675,00;;0,00;0,00;1,00;0,10;0,00;0,00;0,00;0,00;0,07;;396,81;1,00;700,00;0,00;0,00;1.032,85;636,04;1,00;300;0;0,00;FD;552,95;150;0;0,00;0 €;0;0,00;0;0 €;0;0 €;0;0 €;0 €;0 €;-117,05;350,00;0,00;0,00;117,05;2016;100;0,00;0,00;0,00;0,00;;0,00;;0,00;;;;;0;0,00;0,00;;0;0,00;;;;;
05-146252-4;05G06;Grundschule;Siegerland-GS;Hermann-Schmidt-Weg 4;13583 Berlin;Sporthalle;550,00;;;612,00;;1,00;1,00;0,00;0,90;0,00;1,00;0,00;1,00;0,93;;189,70;1,00;700,00;1,00;132,79;479,55;289,85;1,00;300;1;86,96;FD;612,80;150;1;91,92;0 €;1;20,00;1;50 €;1;200 €;1;25 €;295 €;0 €;497,39;350,00;1,00;174,09;52,61;2000;100;52,61;115,74;0,00;1.800,00;616,43;1.800,00;1;1.800,00;;;;;0;0,00;0,00;;0;0,00;;;;;
05-146252-5;05G06;Grundschule;Siegerland-GS;Hermann-Schmidt-Weg 4;13583 Berlin;Mensa;243,00;;;281,00;;0,00;0,00;1,00;0,10;0,00;0,00;0,00;0,00;0,07;;79,13;1,00;700,00;0,00;0,00;396,65;317,52;1,00;300;0;0,00;FD;280,91;150;0;0,00;0 €;0;0,00;0;0 €;0;0 €;0;0 €;0 €;0 €;224,49;350,00;0,00;0,00;18,51;2006;100;0,00;0,00;0,00;0,00;;0,00;;0,00;;;;;0;0,00;0,00;;0;0,00;;;;;
05-146292-4;05G03;Grundschule;Schule am Grüngürtel;Hohenzollernring 40;13585 Berlin;Sporthalle;1.690;;;2.144,84;;1,00;1,00;0,00;0,90;0,00;1,00;0,00;1,00;0,93;;276,81;1,00;700,00;1,00;193,77;1514,63;1.237,82;1,00;300;1;371,35;FD;2144,8;150;1;321,72;0;1;20,00;1;50 €;0;0 €;1;25 €;95 €;0 €;1.544,43;350,00;1,00;540,55;145,33;2000;0;145,33;319,73;0,00;3.700,00;2144,84;3.700 €;1;3.700,00;;;;;0;0,00;0,00;;0;0,00;;;n;;
05-146292-2;05G03;Grundschule;Birken-GS;Hügelschanze 8-9;13585 Berlin;Sporthalle;609,00;;;642,00;;1,00;1,00;1,00;1,00;0,00;1,00;0,00;1,00;1,00;;41,33;1,00;700,00;0,00;0,00;590,30;548,97;1,00;300;1;164,69;FD;650,00;150;1;97,50;0 €;1;20,00;1;50 €;0;0 €;1;25 €;95 €;175 €;569,02;350,00;1,00;199,16;39,98;1985;0;39,98;87,96;0,00;1.100,00;374,49;1.100 €;1;1.100,00;;;;;0;0,00;0,00;;0;0,00;;;n;;
05-146292-1;05G03;Grundschule;Birken-GS;Hügelschanze 8-9;13585 Berlin;Schulgebäude;3.586,00;;1.572,00;4.489,00;13.858,00;1,00;1,00;1,00;1,00;1,00;1,00;0,00;2,00;1,30;;795,37;1,00;700,00;1,00;556,76;2.715,83;1.920,46;1,00;300;1;576,14;SD, WD, TD, KD, ZD;1.400,00;350;0;0,00;200 €;1;20,00;1;50 €;0;0 €;2;50 €;320 €;0 €;3.484,44;350,00;1,00;1.219,55;101,56;1975;0;101,56;223,43;2.895,88;2.895,88;;0 €;;0,00;;;1.100,00;1;120;132,00;12.286,00;1;90;1.105,74;;;n;;
05-146301-3;05G18;Grundschule;GS im Beerwinkel;Im Spektefeld 31;13589 Berlin;Pavillon 1;1.055,00;;;1.156,00;;2,00;1,00;2,00;1,60;1,00;1,00;0,00;2,00;1,72;;343,98;1,00;700,00;1,00;240,79;1.239,70;895,72;1,00;300;1;268,72;FD;386,00;150;0;0,00;200 €;1;20,00;1;50 €;1;200 €;1;25 €;495 €;0 €;998,69;350,00;0,00;0,00;56,31;2000;0;56,31;123,88;1.128,38;1.128,38;;0 €;;0,00;;;;;0;0,00;0,00;;0;0,00;;;n;;
05-146301-5;05G18;Grundschule;GS im Beerwinkel;Im Spektefeld 31;13589 Berlin;Werkstatt;217,00;;;233,00;;1,00;1,00;1,00;1,00;0,00;0,00;0,00;0,00;0,70;;0,89;1,00;700,00;1,00;0,62;204,32;203,43;1,00;300;1;61,03;FD;232,50;150;1;34,88;0 €;0;0,00;0;0 €;0;0 €;0;0 €;0 €;0 €;217,00;350,00;0,00;0,00;0,00;0;;0,00;0,00;96,53;96,53;;0 €;;0,00;;;;;0;0,00;0,00;;0;0,00;;;n;;
05-146301-6;05G18;Grundschule;GS im Beerwinkel;Im Spektefeld 31;13589 Berlin;Sporthalle;525,00;;;588,00;;1,00;1,00;1,00;1,00;0,00;1,00;0,00;1,00;1,00;;35,77;1,00;700,00;1,00;25,04;712,00;676,23;1,00;300;1;202,87;FD;588,00;150;1;88,20;0 €;1;20,00;1;50 €;1;200 €;1;25 €;295 €;0 €;487,13;350,00;1,00;170,50;37,87;2000;0;37,87;83,31;0,00;1.100,00;339,85;1.100 €;1;1.100,00;;;;;0;0,00;0,00;;0;0,00;;;n;;
05-146301-1;05G18;Grundschule;GS im Beerwinkel;Im Spektefeld 31;13589 Berlin;Hauptgebäude;3.310,00;;3.571,00;4.384,00;17.369,00;1,00;1,00;0,00;0,90;1,00;1,00;0,00;2,00;1,23;;819,12;1,00;700,00;1,00;573,38;3.789,00;2.969,88;1,00;300;1;890,96;FD, ZD;1.950,00;350;0;204,75;200 €;1;20,00;1;50 €;1;200 €;1;25 €;495 €;175 €;3.131,01;350,00;1,00;1.095,85;178,99;2000;0;178,99;393,78;3.828,73;3.828,73;;0 €;;0,00;;;500,00;1;120;60,00;13.798,00;0;0;0,00;;;n;;
05-146301-2;05G18;Grundschule;GS im Beerwinkel;Im Spektefeld 31;13589 Berlin;Neubau Hort;790,00;;;886,00;;0,00;0,00;0,00;0,00;0,00;0,00;0,00;0,00;0,00;;146,39;1,00;700,00;0,00;0,00;628,25;481,86;1,00;300;0;0,00;FD, WD, GD;722,00;350;0;0,00;0 €;0;0,00;0;0 €;0;0 €;1;25 €;25 €;0 €;746,05;350,00;0,00;0,00;43,95;2016;100;0,00;0,00;25,00;25,00;;0 €;;0,00;;;;;0;0,00;0,00;;0;0,00;;;n;;
05-146272-1;05K01;Oberschule;Martin-Buber-OS;Im Spektefeld 33;13589 Berlin;Hauptgebäude;8.391,00;;5.435,00;9.726,00;31.758,00;1,00;1,00;0,00;0,90;3,00;1,00;0,00;4,00;1,83;;1.820,38;1,00;700,00;1,00;1.274,27;6.618,74;4.798,36;1,00;300;1;1.439,51;FD;3.364,80;150;0;0,00;400 €;0;0,00;1;50 €;1;200 €;1;25 €;675 €;175 €;8.116,27;750,00;1,00;6.087,20;274,73;2014;100;0,00;0,00;9.650,98;9.650,98;204,89;1.100 €;0;0,00;;;1.000,00;0;0;0,00;26.323,00;0;0;0,00;;;n;;
05-146272-2;05K01;Oberschule;Martin-Buber-OS;Im Spektefeld 33;13589 Berlin;Sporthalle;1.648,00;;;1.842,00;;0,00;0,00;0,00;0,00;0,00;0,00;0,00;0,00;0,00;;357,49;1,00;700,00;0,00;0,00;1.427,18;1.069,69;1,00;300;0;0,00;FD;1.541,50;150;0;0,00;0 €;0;0,00;0;0 €;0;0 €;0;0 €;0 €;0 €;1.556,06;750,00;0,00;0,00;91,94;2013;100;0,00;0,00;0,00;0,00;886,76;1.800 €;0;0,00;;;;;0;0,00;0,00;;0;0,00;;;n;;
05-146272-3;05K01;Oberschule;Martin-Buber-OS;Im Spektefeld 33;13589 Berlin;Gymnastikhalle;349,00;;;398,00;;1,00;1,00;0,00;0,90;0,00;1,00;0,00;1,00;0,93;;70,98;1,00;700,00;0,00;0,00;495,25;424,27;1,00;300;0;0,00;FD;470,00;150;0;0,00;0 €;0;0,00;1;50 €;0;0 €;1;25 €;75 €;0 €;303,67;750,00;1,00;227,75;45,33;2000;100;45,33;99,73;402,48;402,48;398,02;1.100 €;0;0,00;;;;;0;0,00;0,00;;0;0,00;;;n;;
05-146272-5;05K01;Oberschule;Martin-Buber-OS;Im Spektefeld 33;13589 Berlin;Nebengebäude;1.551,00;;;1.823,00;;1,00;1,00;0,00;0,90;0,00;1,00;0,00;1,00;0,93;;425,84;1,00;700,00;1,00;298,09;838,70;412,86;1,00;300;1;123,86;FD;1.135,90;150;1;170,39;150 €;1;20,00;1;50 €;1;200 €;1;25 €;445 €;175 €;1.474,51;750,00;1,00;1.105,88;76,49;2000;100;76,49;168,28;2.486,49;2.486,49;;0 €;;0,00;;;;;0;0,00;0,00;;0;0,00;;;n;;
05-146301-7;05G18;Grundschule;ehem. Gesundheitsfürsorge;Im Spektefeld 33b+35;13589 Berlin;(GS im Beerwinkel);1.890,00;;;2.179,00;;1,00;1,00;0,00;0,90;3,00;1,00;0,00;4,00;1,83;;345,54;1,00;700,00;1,00;241,88;1.873,95;1.528,41;1,00;300;1;458,52;FD;1.387,20;150;1;208,08;150 €;1;20,00;1;50 €;1;200 €;1;25 €;445 €;175 €;1.794,34;350,00;0,00;0,00;95,66;;;95,66;210,45;1.738,93;1.738,93;;0 €;;0,00;;;;;0;0,00;0,00;;0;0,00;;;n;;
05-146262-1;05K08;Oberschule;Schule an der Haveldüne;Jaczostr. 63;13595 Berlin;Hauptgebäude;4.901,00;;;5.709,00;;1,00;1,00;4,00;1,30;1,00;1,00;0,00;2,00;1,51;;1.261,52;1,00;700,00;1,00;883,06;4.911,57;3.650,05;1,00;300;1;1.095,02;FD;1.867,54;150;1;280,13;200 €;0;0,00;0;0 €;0;0 €;0;0 €;200 €;0 €;4.754,28;750,00;1,00;3.565,71;146,72;2016;100;0,00;0,00;6.023,92;6.023,92;205,50;1.100 €;0;0,00;;;1.100,00;1;120;132,00;0,00;1;90;0,00;;;n;;
05-146262-2;05K08;Oberschule;Schule an der Haveldüne;Jaczostr. 63;13595 Berlin;Sporthalle;1.248,00;;;1.295,00;;1,00;1,00;4,00;1,30;0,00;1,00;0,00;1,00;1,21;;70,31;0,50;700,00;1,00;24,61;1.197,58;1.127,27;1,00;300;1;338,18;FD;1.294,93;150;0;0,00;0 €;0;0,00;0;0 €;0;0 €;0;0 €;0 €;0 €;1.190,75;750,00;1,00;893,06;57,25;2016;100;0,00;0,00;0,00;1.800,00;883,05;1.800 €;1;1.800,00;;;;;0;0,00;0,00;;0;0,00;;;n;;
05-146262-3;05K08;Oberschule;Schule an der Haveldüne;Jaczostr. 65-67;13595 Berlin;Hauptgebäude;5.414,00;;;6.218,00;;3,00;1,00;1,00;2,00;1,00;1,00;0,00;2,00;2,00;;1.397,62;1,00;700,00;1,00;978,33;5.377,20;3.979,58;1,00;300;1;1.193,87;FD;2.644,25;150;1;396,64;200 €;0;0,00;0;0 €;0;0 €;0;0 €;200 €;0 €;5.194,77;750,00;1,00;3.896,08;219,23;2016;100;0,00;0,00;6.664,92;6.664,92;881,92;1.800 €;0;0,00;;;;;0;0,00;0,00;;0;0,00;;;n;;
05-146261-2;05K07;Oberschule;Schule an der Jungfernheide ;Jugendweg 15-16;13629 Berlin;Gynastikhalle;270,00;;;312,64;;1,00;1,00;1,00;1,00;0,00;1,00;0,00;1,00;1,00;;162,84;1,00;700,00;1,00;113,99;355,42;192,58;1,00;300;1;57,77;FD, SD;312,80;;1;0,00;0 €;0;0,00;0;0 €;0;0 €;1;25 €;25 €;0 €;206,53;750,00;1,00;154,90;63,47;;;63,47;139,63;0,00;1.100,00;312,00;1.100,00;1;1.100,00;;;;;0;0,00;0,00;;0;0,00;;;;;
05-146261-1;05K07;Oberschule;Schule an der Jungfernheide ;Jugendweg 15-16;13629 Berlin;Hauptgebäude;4.649,00;;4.279,00;5.494,00;19.429,00;1,00;1,00;1,00;1,00;0,00;1,00;0,00;1,00;1,00;;1.107,50;1,00;700,00;1,00;775,25;3.459,10;2.351,60;1,00;300;1;705,48;SD, PD, WD;2.551,55;350;0;0,00;0 €;0;0,00;1;50 €;1;200 €;0;0 €;250 €;0 €;4.632,06;750,00;0,00;0,00;16,94;2011;30;11,86;26,09;1.756,82;1.756,82;334,19;1.100 €;0;0,00;;;1.100,00;1;120;132,00;15.150,00;1;90;1.363,50;;;n;;
05-146296-3;05G11;Grundschule;Robert-Reinick-GS;Jungfernheideweg 32-48;13629 Berlin;Hauptgebäude;3.260,00;;4.279,00;3.895,00;24.991,00;1,00;1,00;1,00;1,00;1,00;1,00;0,00;2,00;1,30;;1.142,05;1,00;700,00;1,00;799,44;3.210,21;2.068,16;1,00;300;1;620,45;FD;2.856,60;150;1;428,49;0 €;1;20,00;1;50 €;1;200 €;1;25 €;295 €;175 €;3.144,28;350,00;1,00;1.100,50;115,72;2000;0;115,72;254,58;3.673,46;3.673,46;;0 €;;0,00;;;1.100,00;0;0;0,00;20.712,00;0;0;0,00;;;n;;
05-146296-5;05G11;Grundschule;Robert-Reinick-GS;Jungfernheideweg 32-48;13629 Berlin;Sporthalle;540,00;;;607,00;;1,00;1,00;1,00;1,00;1,00;1,00;0,00;2,00;1,30;;22,95;1,00;700,00;1,00;16,07;703,98;681,03;1,00;300;1;204,31;FD;606,60;150;1;90,99;0 €;1;20,00;1;50 €;1;200 €;1;25 €;295 €;175 €;485,13;350,00;0,00;0,00;54,87;2000;0;54,87;120,71;0,00;1.100,00;342,28;1.100 €;1;1.100,00;;;;;0;0,00;0,00;;0;0,00;;;n;;
05-146296-6;05G11;Grundschule;Robert-Reinick-GS;Jungfernheideweg 32-48;13629 Berlin;Neubau;3.144,00;;;3.568,00;;0,00;0,00;1,00;0,10;0,00;0,00;0,00;0,00;0,07;;494,70;1,00;700,00;0,00;0,00;1.904,94;1.410,24;1,00;300;0;0,00;FD;1.205,50;150;0;0,00;0 €;0;0,00;0;0 €;0;0 €;0;0 €;0 €;0 €;3.048,74;350,00;0,00;0,00;95,26;2016;100;0,00;0,00;0,00;0,00;;0 €;;0,00;;;;;0;0,00;0,00;;0;0,00;;;n;;
05-146297-4;05G12;Grundschule;GS am Weinmeisterhorn;Daberkowstr. 27;13593 Berlin;Betreuungseinrichtung 2;187,00;;;222,00;;0,00;0,00;0,00;0,00;0,00;0,00;0,00;0,00;0,00;;31,31;1,00;700,00;0,00;0,00;237,87;206,56;1,00;300;0;0,00;FD;221,55;150;0;0,00;150 €;1;20,00;1;50 €;0;0 €;1;25 €;245 €;0 €;166,26;350,00;1,00;58,19;20,74;2011;100;0,00;0,00;303,19;303,19;;0 €;;0,00;;;;;0;0,00;0,00;;0;0,00;;;n;;
05-146297-3;05G12;Grundschule;GS am Weinmeisterhorn;Daberkowstr. 27;13593 Berlin;Hort;491,00;;;592,00;3.447,00;2,00;0,00;0,00;1,00;0,00;0,00;0,00;0,00;0,70;;46,53;0,25;700,00;1,00;8,14;574,97;528,44;1,00;300;0;0,00;FD;296,15;150;0;0,00;150 €;0;0,00;1;50 €;1;200 €;2;50 €;450 €;0 €;452,47;350,00;0,00;0,00;38,53;2006;100;0,00;0,00;458,14;458,14;;0 €;0;0,00;;;;;0;0,00;3.447,00;1;90;310,23;;;n;;
05-146297-2;05G12;Grundschule;GS am Weinmeisterhorn;Daberkowstr. 27;13593 Berlin;Sporthalle;590,00;;;673,00;3.073,00;1,00;1,00;1,00;1,00;0,00;1,00;0,00;1,00;1,00;;31,12;1,00;700,00;1,00;21,78;805,39;774,27;1,00;300;1;232,28;FD;672,57;150;1;100,89;0 €;0;0,00;1;50 €;1;200 €;1;25 €;275 €;0 €;543,92;350,00;1,00;190,37;46,08;2000;100;46,08;101,38;0,00;1.100,00;337,14;1.100 €;1;1.100,00;;;;;0;0,00;3.073,00;1;90;276,57;;;n;;
05-146297-1;05G12;Grundschule;GS am Weinmeisterhorn;Daberkowstr. 27;13593 Berlin;Hauptgebäude;3.398,00;;3.286,00;4.015,00;10.384,00;2,00;2,00;3,00;2,10;1,00;1,00;0,00;2,00;2,07;;903,68;1,00;700,00;1,00;632,58;3.587,41;2.683,73;1,00;300;1;805,12;FD;2.074,67;150;1;311,20;250 €;0;0,00;1;50 €;1;200 €;2;50 €;550 €;150 €;3.271,79;350,00;1,00;1.145,13;126,21;2000;100;126,21;277,66;3.871,68;3.871,68;;0 €;;0,00;;;1.100,00;1;120;132,00;7.098,00;1;90;638,82;;;n;;
05-146275-5;05K04;Oberschule;Heinrich-Böll-OS;Am Forstacker 9/11;13587 Berlin;Heizhaus;;;;221,55;;0,00;0,00;0,00;0,00;0,00;0,00;0,00;0,00;0,00;;6,22;1,00;700,00;0,00;0,00;243,60;237,38;1,00;300;0;0,00;FD;221,55;150;1;33,23;0 €;0;0,00;0;0 €;0;0 €;0;0 €;0 €;0 €;0,00;750,00;0,00;0,00;0,00;;;0,00;0,00;33,23;33,23;;0 €;;0,00;;;;;0;0,00;0,00;;0;0,00;;;n;;
05-146275-4;05K04;Oberschule;Heinrich-Böll-OS;Am Forstacker 9/11;13587 Berlin;Nebengebäude;809,00;;;864,00;5.000,00;0,00;0,00;0,00;0,00;0,00;0,00;0,00;0,00;0,00;;129,37;1,00;700,00;0,00;0,00;536,20;406,83;1,00;300;0;0,00;FD;864,00;150;1;129,60;0 €;0;0,00;0;0 €;0;0 €;1;25 €;25 €;0 €;771,61;750,00;0,00;0,00;37,39;2005;0;37,39;82,26;236,86;236,86;;0 €;;0,00;;;;;0;0,00;5.000,00;3;180;900,00;;;n;;
05-146275-3;05K04;Oberschule;Heinrich-Böll-OS;Am Forstacker 9/11;13587 Berlin;Mensa;1.049,00;;;1.116,00;;0,00;0,00;0,00;0,00;0,00;2,00;0,00;2,00;0,60;;143,48;1,00;700,00;0,00;0,00;649,20;505,72;1,00;300;0;0,00;FD, ZD;421,20;350;1;147,42;0 €;0;0,00;0;0 €;0;0 €;1;25 €;25 €;0 €;991,33;750,00;0,00;0,00;57,67;2005;0;57,67;126,87;299,29;299,29;;0 €;;0,00;;;;;0;0,00;0,00;;0;0,00;;;n;;
05-146275-2;05K04;Oberschule;Heinrich-Böll-OS;Am Forstacker 9/11;13587 Berlin;Sporthalle;3.029,00;;;3.337,00;;2,00;0,00;0,00;1,00;0,00;0,00;0,00;0,00;0,70;;182,84;1,00;700,00;1,00;127,99;1.969,45;1.786,61;1,00;300;1;535,98;FD;1.535,45;150;1;230,32;0 €;0;0,00;0;0 €;0;0 €;0;0 €;0 €;0 €;2.836,91;750,00;0,00;0,00;192,09;2014;100;0,00;0,00;0,00;1.600,00;1.494,20;3.200 €;0,50;1.600,00;;;;;0;0,00;0,00;;0;0,00;;;n;;
05-146275-1;05K04;Oberschule;Heinrich-Böll-OS;Am Forstacker 9/11;13587 Berlin;Hauptgebäude;7.544,00;;11.919,00;8.025,00;38.283,00;0,00;0,00;1,00;0,10;1,00;0,00;0,00;1,00;0,37;;1.003,28;1,00;700,00;0,00;0,00;3.969,00;2.965,72;1,00;300;0;0,00;FD;8.025,50;150;1;1.203,83;0 €;0;0,00;0;0 €;0;0 €;2;50 €;50 €;0 €;7.307,16;750,00;0,00;0,00;236,84;2005;0;236,84;521,05;1.774,87;1.774,87;;0 €;;0,00;;;1.100,00;2;175;192,50;26.364,00;0;0;0,00;;;n;;
05-146287-2;05G05;Grundschule;Christoph-Földerich-GS;Konkordiastr. 10;13595 Berlin;Südparkhaus, Konkordiastr. 10;1.657,00;;;2.052,00;;2,00;2,00;0,00;1,80;0,00;0,00;1,00;1,00;1,56;;273,92;1,00;700,00;1,00;191,74;1.206,00;932,08;1,00;300;1;279,62;WD;524,00;350;0;0,00;150 €;1;20,00;1;50 €;1;200 €;1;25 €;445 €;0 €;1.573,46;350,00;0,75;413,03;83,54;2011;50;41,77;91,89;1.421,30;1.421,30;;0 €;;0,00;;;;;0;0,00;0,00;;0;0,00;;;n;;
05_146261-4;05K07;Oberschule;Schule an der Jungfernheide;Lenther Steig 1/3;13629 Berlin;ehemaliger MUR, (ehem. Heinrich-Hertz-Oberschule);;;;1.762,40;;0,00;0,00;1,00;0,10;0,00;0,00;0,00;0,00;0,07;;303,98;1,00;700,00;0,00;0,00;2.609,45;2.305,47;1,00;300;0;0,00;FD;937,02;;0;0,00;0 €;0;0,00;0;0 €;0;0 €;0;0 €;0 €;0 €;-52,30;750,00;0,00;0,00;52,30;2016;100;0,00;0,00;0,00;0,00;;0,00;;0,00;;;;;0;0,00;0,00;;0;0,00;;;;;
05-146261-3;05K07;Oberschule;Schule an der Jungfernheide;Lenther Steig 1/3;13629 Berlin;Hauptgebäude  (ehem. Heinrich-Hertz-Oberschule);2.246,00;;;2.660,00;;1,00;0,00;1,00;0,60;0,00;0,00;0,00;0,00;0,42;;553,75;1,00;700,00;0,00;0,00;1.478,93;925,18;1,00;300;0;0,00;SD;457,25;350;0;0,00;0 €;0;0,00;0;0 €;0;0 €;0;0 €;0 €;0 €;2.043,15;750,00;0,00;0,00;202,85;2010;100;0,00;0,00;0,00;0,00;;0 €;;0,00;;;;;0;0,00;0,00;;0;0,00;;;n;;
05-146285-5;05G07;Grundschule;Lynar-GS;Lutherstr. 10;13585 Berlin;Neubau;1.888,00;;769,00;2.247,00;1.343,00;1,00;1,00;0,00;0,90;0,00;0,00;0,00;0,00;0,63;;132,71;1,00;700,00;0,00;0,00;1.725,27;1.592,56;1,00;300;0;0,00;FD, GD;761,42;350;0;0,00;0 €;0;0,00;1;50 €;0;0 €;3;75 €;125 €;0 €;1.813,90;350,00;0,00;0,00;74,10;2010;100;0,00;0,00;125,00;125,00;;0 €;;0,00;;;;;0;0,00;574,00;0;0;0,00;;;n;;
05-146285-6;05G07;Grundschule;Lynar-GS;Lutherstr. 19-21;13585 Berlin;Sporthalle;1.500,00;;;1.823,00;4.550,00;1,00;1,00;0,00;0,90;1,00;1,00;0,00;2,00;1,23;;91,43;1,00;700,00;1,00;64,00;1.251,36;1.159,93;1,00;300;1;347,98;WD;590,73;350;1;206,76;150 €;0;0,00;1;50 €;0;0 €;2;50 €;250 €;175 €;1.403,62;350,00;0,00;0,00;96,38;2015;100;0,00;0,00;0,00;900,00;475,03;1.800 €;0,50;900,00;;;;;0;0,00;4.550,00;0;0;0,00;;;n;;
05-146285-1;05G07;Grundschule;Lynar-GS;Lutherstr. 19-21;13585 Berlin;Hauptgebäude;4.279,00;;2.094,00;5.018,00;7.292,00;0,00;0,00;0,00;0,00;0,00;0,00;0,00;0,00;0,00;;472,73;1,00;700,00;0,00;0,00;3.846,79;3.374,06;1,00;300;0;0,00;FD;1.563,00;150;0;0,00;0 €;0;0,00;0;0 €;0;0 €;3;75 €;75 €;0 €;4.127,24;350,00;0,00;0,00;151,76;2015;100;0,00;0,00;75,00;75,00;;0 €;;0,00;;;1.100,00;0;0;0,00;5.198,00;0;0;0,00;;;n;;
05-146273-1;05K02;Oberschule;Carlo-Schmid-OS;Lutoner Str. 19;13581 Berlin;Schule;12.449,00;;6.695,00;13.677,00;40.318,00;1,00;1,00;3,00;1,20;1,00;1,00;0,00;2,00;1,44;;1.693,70;1,00;700,00;1,00;1.185,59;6.159,01;4.465,31;1,00;300;1;1.339,59;FD;3.055,75;150;1;458,36;0 €;1;20,00;1;50 €;1;200 €;0;0 €;270 €;0 €;12.135,42;750,00;0,75;6.826,17;313,58;2015;25;235,19;517,41;10.597,13;10.597,13;;0 €;;0,00;;;1.100,00;1;120;132,00;33.623,00;1;90;3.026,07;;;n;;
05-146273-2;05K02;Oberschule;Carlo-Schmid-OS;Lutoner Str. 19;13581 Berlin;Sporthalle - Nebengebäude;3.213,00;;;3.429,00;;1,00;1,00;1,00;1,00;1,00;1,00;0,00;2,00;1,30;;282,47;1,00;700,00;1,00;197,73;2.063,94;1.781,47;1,00;300;1;534,44;FD;3.428,52;150;1;514,28;0 €;1;20,00;1;50 €;1;200 €;0;0 €;270 €;0 €;3.079,42;750,00;0,00;0,00;133,58;2000;0;133,58;293,88;0,00;2.100,00;1.047,48;2.100 €;1;2.100,00;;;;;0;0,00;0,00;;0;0,00;;;n;;
05-146286-2;05G17;Grundschule;Astrid-Lindgren-GS;Magistratsweg 101-103;13591 Berlin;Hort, Magistratsweg 101-103;688,00;;780,00;821,00;2.798,00;1,00;1,00;0,00;0,90;0,00;1,00;0,00;1,00;0,93;;63,88;1,00;700,00;0,00;0,00;669,49;605,61;1,00;300;0;0,00;FD;179,98;150;0;0,00;0 €;0;0,00;0;0 €;1;200 €;0;0 €;200 €;0 €;634,31;350,00;0,00;0,00;53,69;2011;100;0,00;0,00;200,00;200,00;;0 €;;0,00;;;0,00;0;0;0,00;2.018,00;2;135;272,43;;;n;;
05-303816-4;05G05;Grundschule;Földerich-GS+Paul-Moor;Melanchthonstr. 10-11;13595 Berlin;Bauteil 1+2, Hort;1.077,00;;;1.542,00;;1,00;1,00;2,00;1,10;0,00;1,00;0,00;1,00;1,07;;208,35;1,00;700,00;1,00;145,85;999,20;790,85;1,00;300;1;237,26;SD;928,75;350;1;325,06;150 €;0;0,00;1;50 €;0;0 €;1;25 €;225 €;0 €;959,25;350,00;0,00;0,00;117,75;2000;;117,75;259,05;1.192,21;1.192,21;;0 €;;0,00;;;;;0;0,00;0,00;;0;0,00;;;n;;
05-303816-6;05G05;Grundschule;Földerich-GS+Paul-Moor;Melanchthonstr. 10-11;13595 Berlin;Bauteil 3, Hort;216,00;;1.146,00;238,00;4.251,00;3,00;3,00;0,00;2,70;0,00;1,00;0,00;1,00;2,19;;45,79;1,00;700,00;1,00;32,05;204,10;158,31;1,00;300;1;47,49;SD;261,65;350;1;91,58;0 €;1;20,00;1;50 €;1;200 €;1;25 €;295 €;175 €;191,66;350,00;0,00;0,00;24,34;2000;100;24,34;53,55;694,67;694,67;;0 €;;0,00;;;0,00;0;0;0,00;3.105,00;0;0;0,00;;;n;;
05-146269-1;05Y05;Oberschule;Lily-Braun-Gymnasium;Münsinger Str. 2;13597 Berlin;"Hauptgebäude, inkl. Sporthalle";8.660,00;;2.672,00;10.629,00;14.468,00;1,00;1,00;1,00;1,00;1,00;1,00;1,00;3,00;1,60;;1.879,83;1,00;700,00;1,00;1.315,88;5.858,01;3.978,18;1,00;300;0;0,00;"SD; WD, FD, MD";4.292,10;350;0;0,00;250 €;1;20,00;1;50 €;0;0 €;1;25 €;345 €;0 €;8.371,71;750,00;0,00;0,00;288,29;2016;100;0,00;0,00;1.660,88;1.660,88;335,63;1.100 €;1;1.660,88;;;0,00;0;0;0,00;11.796,00;1;90;1.061,64;;;n;;
05-146269-2;05Y05;Oberschule;Lily-Braun-Gymnasium;Münsinger Str. 2;13597 Berlin;Pavillon;333,00;;;383,00;;3,00;3,00;3,00;3,00;3,00;3,00;1,00;7,00;4,20;;90,84;1,00;700,00;0,00;0,00;446,80;355,96;1,00;300;0;0,00;WD;401,63;350;0;0,00;0 €;0;0,00;0;0 €;0;0 €;1;25 €;25 €;0 €;318,47;750,00;0,00;0,00;14,53;2016;100;0,00;0,00;25,00;25,00;;0 €;;0,00;;;;;0;0,00;0,00;;0;0,00;;;n;;
05-146305-1;05G25;Grundschule;GS am Wasserwerk / Schule am Stadtrand;Pionierstr. 197-199;13589 Berlin;Hauptgebäude;5.246,00;;3.652,00;5.834,00;11.893,00;2,00;2,00;3,00;2,10;0,00;0,00;0,00;0,00;1,47;;1.020,66;1,00;700,00;1,00;714,46;3.441,95;2.421,29;1,00;300;1;726,39;FD;2.030,20;150;1;304,53;0 €;0;0,00;0;0 €;0;0 €;0;0 €;0 €;0 €;5.075,44;350,00;0,00;0,00;170,56;2016;100;0,00;0,00;1.745,38;1.745,38;;0 €;;0,00;;;1.100,00;1;120;132,00;8.241,00;1;90;741,69;;;n;;
05-146305-2;05G25;Grundschule;GS am Wasserwerk / Schule am Stadtrand;Pionierstr. 197-199;13589 Berlin;Sporthalle;1.402,00;;;1.490,00;;2,00;2,00;2,00;2,00;0,00;0,00;0,00;0,00;1,40;;423,47;1,00;700,00;1,00;296,43;1.243,90;820,43;1,00;300;1;246,13;FD;1.487,40;150;0;0,00;0 €;0;0,00;0;0 €;0;0 €;0;0 €;0 €;0 €;1.293,92;350,00;1,00;452,87;108,08;2016;100;0,00;0,00;0,00;1.800,00;883,89;1.800 €;1;1.800,00;;;;;0;0,00;0,00;;0;0,00;;;n;;
05-146303-1;05G22;Grundschule;Christian-Morgenstern-GS;Räcknitzer Steig 12;13593 Berlin;Schulgebäude;8.131,00;;5.068,00;9.638,00;23.371,00;0,00;0,00;2,00;0,20;0,00;0,00;0,00;0,00;0,14;;1.574,03;1,00;700,00;0,00;0,00;6.866,60;5.292,57;1,00;300;0;0,00;FD;3.446,68;150;0;0,00;0 €;0;0,00;0;0 €;0;0 €;0;0 €;0 €;0 €;7.840,02;350,00;0,00;0,00;290,98;2016;100;0,00;0,00;0,00;0,00;;0 €;;0,00;;;1.100,00;1;120;132,00;18.303,00;1;90;1.647,27;;;n;;
05-146303-2;05G22;Grundschule;Christian-Morgenstern-GS;Räcknitzer Steig 12;13593 Berlin;Sporthalle;1.327,00;;;1.430,00;;1,00;1,00;0,00;0,90;0,00;1,00;0,00;1,00;0,93;;77,12;1,00;700,00;0,00;0,00;1.249,39;1.172,27;1,00;300;1;351,68;FD;1.429,53;150;0;0,00;0 €;0;0,00;0;0 €;0;0 €;0;0 €;0 €;0 €;1.231,60;350,00;0,00;0,00;95,40;2016;100;0,00;0,00;0,00;1.800,00;884,31;1.800 €;1;1.800,00;;;;;0;0,00;0,00;;0;0,00;;;n;;
05-146303-4;05G22;Grundschule;Christian-Morgenstern-GS;Räcknitzer Steig 12;13593 Berlin;Container (FIZ);;;;102,00;;0,00;0,00;0,00;0,00;0,00;0,00;0,00;0,00;0,00;;64,05;1,00;700,00;0,00;0,00;133,50;69,45;1,00;300;0;0,00;FD;102,35;;0;0,00;0 €;0;0,00;0;0 €;0;0 €;0;0 €;0 €;0 €;-22,55;350,00;0,00;0,00;22,55;2016;100;0,00;0,00;0,00;0,00;;;;;;;;;0;0,00;0,00;;0;0,00;;;;;
05-146276-3;05K05;Oberschule;B.-Traven-OS;Recklinghauser Weg 26-32;13583 Berlin;Bauteil 3;5.164,00;;;5.966,00;;1,00;1,00;0,00;0,90;0,00;0,00;0,00;0,00;0,63;;673,95;0,35;700,00;1,00;165,12;1.736,37;1.062,42;1,00;300;1;318,73;WD, FD;2.035,27;350;1;712,34;150 €;0;0,00;1;50 €;0;0 €;2;50 €;250 €;0 €;5.012,49;750,00;1,00;3.759,37;151,51;2012;100;0,00;0,00;5.205,56;5.205,56;;0 €;;0,00;;;;;0;0,00;0,00;;0;0,00;;;n;;
05-146276-1;05K05;Oberschule;B.-Traven-OS;Recklinghauser Weg 26-32;13583 Berlin;Bauteil 1, Sporthalle;1.341,00;;7.391,00;1.429,00;21.205,00;1,00;1,00;0,00;0,90;0,00;1,00;0,00;1,00;0,93;;82,92;1,00;700,00;1,00;58,04;1.191,54;1.108,62;1,00;300;1;332,59;FD;1.412,28;150;1;211,84;0 €;1;20,00;1;50 €;1;200 €;1;25 €;295 €;0 €;1.240,08;750,00;1,00;930,06;100,92;2005;30;70,64;155,42;0,00;1.800,00;884,33;1.800 €;1;1.800,00;;;500,00;0;0;0,00;13.814,00;0;0;0,00;;;n;;
05-146276-2;05K05;Oberschule;B.-Traven-OS;Recklinghauser Weg 26-32;13583 Berlin;Bauteil 2;3.666,00;;;4.078,00;;1,00;1,00;0,00;0,90;0,00;1,00;0,00;1,00;0,93;;636,93;0,50;700,00;0,00;0,00;2.687,07;2.050,14;0,50;300;1;307,52;FD;1.612,55;150;0;0,00;150 €;0;0,00;0;0 €;0;0 €;2;50 €;200 €;0 €;3.532,16;750,00;1,00;2.649,12;133,84;2010;50;66,92;147,22;3.303,87;3.303,87;;0 €;;0,00;;;;;0;0,00;0,00;;0;0,00;;;n;;
05-146258-3;05G06;Grundschule;Siegerland-GS Filiale;Remscheider Str. 3-7;13583 Berlin;Schulgebäude, Filiale;2.732,00;;;3.164,00;;1,00;1,00;1,00;1,00;0,00;1,00;0,00;1,00;1,00;;324,97;1,00;700,00;1,00;227,48;1.465,40;1.140,43;1,00;300;1;342,13;FD;966,90;150;1;145,04;150 €;1;20,00;1;50 €;1;200 €;1;25 €;445 €;175 €;2.619,58;350,00;1,00;916,85;112,42;2000;100;112,42;247,32;2.498,82;2.498,82;;0 €;;0,00;;;;;0;0,00;0,00;;0;0,00;;;n;;
05-146258-6;05G06;Grundschule;Siegerland-GS Filiale;Remscheider Str. 3-7;13583 Berlin;Sporthalle, Filiale;611,00;;;643,00;;1,00;1,00;1,00;1,00;0,00;1,00;0,00;1,00;1,00;;35,09;1,00;700,00;1,00;24,56;670,35;635,26;1,00;300;1;190,58;FD;642,85;150;1;96,43;0 €;1;20,00;1;50 €;1;200 €;1;25 €;295 €;0 €;581,04;350,00;1,00;203,36;29,96;2000;100;29,96;65,91;0,00;1.100,00;373,95;1.100 €;1;1.100,00;;;;;0;0,00;0,00;;0;0,00;;;n;;
05-146302-1;05G19;Grundschule;GS am Ritterfeld;Schallweg 31;14089 Berlin;"Hauptgebäude, inkl. Sporthalle";10.251,00;;6.960,00;11.878,00;26.406,00;1,00;1,00;1,00;1,00;1,00;1,00;0,00;2,00;1,30;;1.233,18;1,00;700,00;1,00;863,23;5.615,15;4.381,97;1,00;300;1;1.314,59;unterschiedl.;7.354,64;350;1;2.574,12;0 €;0;0,00;0;0 €;0;0 €;0;0 €;0 €;0 €;9.918,36;350,00;0,00;0,00;332,64;2016;50;166,32;365,90;5.117,85;2.558,92;1.213,12;2.100 €;0,5;2.558,92;;;1.100,00;2;175;192,50;19.446,00;1;90;1.750,14;;;n;;
05-146295-2;05G10;Grundschule;GS am Birkenhain;Seeburger Str. 59;13581 Berlin;Neubau Hort;377,00;;;419,00;;0,00;0,00;0,00;0,00;0,00;0,00;0,00;0,00;0,00;;77,75;1,00;700,00;0,00;0,00;327,25;249,50;1,00;300;0;0,00;FD;419,15;150;0;0,00;0 €;0;0,00;0;0 €;0;0 €;1;25 €;25 €;0 €;358,68;350,00;0,00;0,00;18,32;2004;100;0,00;0,00;25,00;25,00;;0 €;;0,00;;;;;0;0,00;0,00;;0;0,00;;;n;;
05-146295-1;05G10;Grundschule;GS am Birkenhain;Seeburger Str. 59;13581 Berlin;"Hauptgebäude, inkl. Sporthalle";3.743,00;;1.644,00;4.661,00;5.965,00;1,00;1,00;2,00;1,10;1,00;1,00;0,00;2,00;1,37;;642,47;1,00;700,00;1,00;449,73;2.846,15;2.203,68;1,00;300;1;661,10;WD;1.474,40;350;1;516,04;150 €;1;20,00;1;50 €;1;200 €;1;25 €;445 €;175 €;3.588,98;350,00;0,00;0,00;154,02;2000;0;154,02;338,84;2.585,72;2.585,72;267,22;1.100 €;1;2.585,72;;;500,00;1;120;60,00;4.321,00;1;90;388,89;;;n;;
05-146295-3;05G10;Grundschule;GS am Birkenhain;Seeburger Str. 59;13581 Berlin;Nebengebäude;77,00;;;103,00;;1,00;1,00;0,00;0,90;1,00;1,00;0,00;2,00;1,23;;14,73;1,00;700,00;0,00;0,00;14,73;0,00;1,00;300;0;0,00;PD;111,00;350;0;0,00;0 €;0;0,00;0;0 €;0;0 €;0;0 €;0 €;0 €;77,00;350,00;0,00;0,00;0,00;;0;0,00;0,00;0,00;0,00;;0 €;;0,00;;;;;0;0,00;0,00;;0;0,00;;;n;;
05-146263-1;N.N.;Oberschule;Gebäude Seecktstr. 2;Seecktstr. 2;13581 Berlin;Schulgebäude;5.710,00;;1.780,00;7.230,00;9.673,00;1,00;1,00;1,00;1,00;1,00;1,00;1,00;3,00;1,60;;1.070,58;1,00;700,00;1,00;749,41;2.577,34;1.506,76;1,00;200;1;301,35;SD, FD;2.062,15;350;0;0,00;150 €;0;0,00;1;50 €;0;0 €;3;75 €;275 €;0 €;5.522,91;750,00;0,75;3.106,64;187,09;2016;100;0,00;0,00;4.432,39;4.432,39;;0 €;;0,00;;;0,00;0;0;0,00;7.893,00;2;135;1.065,56;;;n;;
05-146293-1;05G04;Grundschule;Klosterfeld-GS;Seegefelder Str. 125-131;13583 Berlin;Altbau;3.769,00;;1.829,00;4.610,00;7.245,00;3,00;3,00;4,00;3,10;0,00;0,00;0,00;0,00;2,17;;914,32;1,00;700,00;1,00;640,02;2.789,25;1.874,93;1,00;300;0;0,00;WD;1.406,70;350;1;492,35;0 €;0;0,00;0;0 €;0;0 €;0;0 €;0 €;0 €;3.501,35;350,00;1,00;1.225,47;267,65;2006;100;0,00;0,00;2.357,84;2.357,84;278,69;1.100 €;1;2.357,84;;;1.100,00;0;0;0,00;5.416,00;0;0;0,00;;;n;;
05-146293-2;05G04;Grundschule;Klosterfeld-GS;Seegefelder Str. 125-131;13583 Berlin;Alt-Neubau;1.423,00;;;1.764,00;;0,00;0,00;4,00;0,40;0,00;0,00;0,00;0,00;0,28;;321,63;1,00;700,00;0,00;0,00;626,90;305,27;1,00;300;0;0,00;WD;518,90;350;0;0,00;0 €;0;0,00;0;0 €;0;0 €;0;0 €;0 €;0 €;1.392,03;350,00;0,00;0,00;30,97;2008;100;0,00;0,00;0,00;0,00;;0 €;;0,00;;;;;0;0,00;0,00;;0;0,00;;;n;;
05-146293-3;05G04;Grundschule;Klosterfeld-GS;Seegefelder Str. 125-131;13583 Berlin;Barracke, Pavillion;149,00;;;167,00;;1,00;0,00;4,00;0,90;0,00;0,00;0,00;0,00;0,63;;67,37;1,00;700,00;0,00;0,00;278,80;211,43;1,00;300;0;0,00;SD;63,85;350;0;0,00;0 €;0;0,00;1;50 €;0;0 €;1;25 €;75 €;0 €;149,00;350,00;1,00;52,15;0,00;;;0,00;0,00;127,15;127,15;;0 €;;0,00;;;;;0;0,00;0,00;;0;0,00;;;n;;
05-146259-4;05K09;Oberschule;Schule am Staakener Kleeblatt;Brunsbütteler Damm 431;13591 Berlin;Haus 3;332,00;;;389,00;;4,00;4,00;1,00;3,70;4,00;4,00;0,00;8,00;4,99;;35,34;1,00;700,00;0,00;0,00;434,24;398,90;1,00;300;0;0,00;WD, FD;436,70;350;0;0,00;0 €;0;0,00;0;0 €;0;0 €;1;25 €;25 €;0 €;321,49;750,00;0,00;0,00;10,51;2005;100;0,00;0,00;25,00;25,00;;0 €;;0,00;;;;;0;0,00;0,00;;0;0,00;;;n;;
05-146259-3;05K09;Oberschule;Schule am Staakener Kleeblatt;Brunsbütteler Damm 431;13591 Berlin;Sporthalle;1.389,00;;;1.515,00;;1,00;1,00;1,00;1,00;1,00;1,00;0,00;2,00;1,30;;24,88;1,00;700,00;1,00;17,42;1.199,00;1.174,12;1,00;300;1;352,24;FD;1.703,45;150;1;255,52;0 €;1;20,00;1;50 €;1;200 €;1;25 €;295 €;0 €;1.326,48;750,00;0,00;0,00;62,52;2005;100;0,00;0,00;0,00;2.100,00;988,69;2.100 €;1;2.100,00;;;;;0;0,00;0,00;;0;0,00;;;n;;
05-146259-2;05K09;Oberschule;Schule am Staakener Kleeblatt;Brunsbütteler Damm 431;13591 Berlin;Hauptgebäude;1.917,00;;;2.441,00;;4,00;4,00;1,00;3,70;4,00;4,00;0,00;8,00;4,99;;193,07;1,00;700,00;0,00;0,00;942,90;749,83;1,00;300;0;0,00;WD;1.015,75;350;0;0,00;0 €;1;20,00;1;50 €;0;0 €;1;25 €;95 €;0 €;1.861,14;750,00;0,00;0,00;55,86;2005;100;0,00;0,00;95,00;95,00;;0 €;0;0,00;;;;;0;0,00;0,00;;0;0,00;;;n;;
05-146289-1;05G14;Grundschule;Linden-GS;Staakener Feldstr. 6-8;13591 Berlin;Hauptgebäude;7.251,00;;5.700,00;8.541,00;22.593,00;1,00;1,00;3,00;1,20;1,00;1,00;0,00;2,00;1,44;;942,21;1,00;700,00;0,00;0,00;5.732,91;4.790,70;1,00;300;0;0,00;FD, GD, SD;4.465,00;350;0;0,00;0 €;0;0,00;0;0 €;0;0 €;0;0 €;0 €;0 €;6.983,35;350,00;1,00;2.444,17;267,65;2016;100;0,00;0,00;2.444,17;2.444,17;;0 €;;0,00;;;1.100,00;1;120;132,00;16.893,00;1;90;1.520,37;;;n;;
05-146289-2;05G14;Grundschule;Linden-GS;Staakener Feldstr. 6-8;13591 Berlin;Sporthalle;2.191,00;;;2.731,00;;2,00;2,00;0,00;1,80;0,00;2,00;0,00;2,00;1,86;;13,36;0,50;700,00;1,00;4,68;1.010,80;997,44;0,50;300;1;149,62;FD, GD;1.718,50;350;0;0,00;0 €;0;0,00;0;0 €;0;0 €;0;0 €;0 €;0 €;2.087,30;350,00;1,00;730,56;103,70;2016;100;0,00;0,00;0,00;1.600,00;1.224,79;3.200 €;1;1.600,00;;;;;0;0,00;0,00;;0;0,00;;;n;;
05-146286-4;05G17;Grundschule;Astrid-Lindgren-GS;Südekumzeile 3a;13591 Berlin;Schulhort;196,00;;;239,00;755,00;0,00;0,00;0,00;0,00;0,00;0,00;0,00;0,00;0,00;;31,71;1,00;700,00;0,00;0,00;235,94;204,23;1,00;300;0;0,00;FD;238,62;150;0;0,00;0 €;0;0,00;0;0 €;0;0 €;1;25 €;25 €;0 €;178,78;350,00;1,00;62,57;17,22;2007;100;0,00;0,00;87,57;87,57;;0 €;;0,00;;;;;0;0,00;755,00;0;0;0,00;;;n;;
05-146286-1;05G17;Grundschule;Astrid-Lindgren-GS;Südekumzeile 5;13591 Berlin;Hauptgebäude;3.421,00;;3.728,00;4.008,00;18.148,00;1,00;1,00;0,00;0,90;1,00;1,00;0,00;2,00;1,23;;878,85;1,00;700,00;1,00;615,20;3.646,00;2.767,15;1,00;300;1;830,15;FD;2.608,59;150;1;391,29;0 €;1;20,00;1;50 €;1;200 €;1;25 €;295 €;175 €;3.310,87;350,00;1,00;1.158,80;110,13;2000;0;110,13;242,29;3.707,72;3.707,72;;0 €;;0,00;;;1.100,00;0;0;0,00;14.420,00;0;0;0,00;;;n;;
05-146286-3;05G17;Grundschule;Astrid-Lindgren-GS;Südekumzeile 5;13591 Berlin;Sporthalle;555,00;;;613,00;;1,00;1,00;0,00;0,90;1,00;1,00;0,00;2,00;1,23;;45,40;1,00;700,00;1,00;31,78;842,92;797,52;1,00;300;1;239,26;FD;612,88;150;1;91,93;0 €;0;0,00;0;0 €;1;200 €;0;0 €;200 €;0 €;505,02;350,00;0,00;0,00;49,98;2016;100;0,00;0,00;0,00;1.100,00;341,19;1.100 €;1;1.100,00;;;;;0;0,00;0,00;;0;0,00;;;n;;
05-146259-1;05K09;Oberschule;Schule am Staakener Kleeblatt;Brunsbütteler Damm 431;13591 Berlin;Haus 1.0 und 1.1;4.614,00;;4.094,00;5.343,00;23.767,00;1,00;1,00;1,00;1,00;1,00;1,00;0,00;2,00;1,30;;582,34;1,00;700,00;1,00;407,64;2.111,00;1.528,66;1,00;300;1;458,60;WD;2.389,20;350;1;836,22;150 €;1;20,00;0;0 €;0;0 €;3;75 €;245 €;0 €;4.453,64;750,00;0,45;1.503,10;160,36;2000;100;160,36;352,79;3.803,35;3.803,35;132,39;1.100 €;0;0,00;;;0,00;0;0;0,00;19.673,00;2;135;2.655,86;;;n;;
05-146259-6;05K09;Oberschule;Schule am Staakener Kleeblatt;Brunsbütteler Damm 437;13591 Berlin;Haus 4.0, 5.1 und 5.2;200,00;;;259,00;;1,00;1,00;1,00;1,00;1,00;1,00;0,00;2,00;1,30;;100,64;1,00;700,00;1,00;70,45;281,50;180,86;1,00;300;1;54,26;WD;296,30;350;1;103,71;0 €;0;0,00;0;0 €;1;200 €;1;25 €;225 €;0 €;200,00;750,00;1,00;150,00;0,00;;;0,00;0,00;603,41;603,41;;0 €;;0,00;;;;;0;0,00;0,00;;0;0,00;;;n;;
05-146259-5;05K09;Oberschule;Schule am Staakener Kleeblatt;Brunsbütteler Damm 437;13591 Berlin;Schulgebäude;1.851,00;;;2.257,00;;4,00;4,00;1,00;3,70;4,00;4,00;0,00;8,00;4,99;;376,83;1,00;700,00;0,00;0,00;922,85;546,02;1,00;300;0;0,00;WD;1.034,20;350;0;0,00;0 €;1;20,00;0;0 €;0;0 €;0;0 €;20 €;0 €;1.757,34;750,00;0,00;0,00;93,66;2005;100;0,00;0,00;20,00;20,00;;0 €;0;0,00;;;;;0;0,00;0,00;;0;0,00;;;n;;
05-146274-1;05K03;Oberschule;Bertolt-Brecht-OS;Wilhelmstr. 10;13595 Berlin;Hauptgebäude;12.477,00;;8.817,00;13.526,00;38.290,00;1,00;1,00;1,00;1,00;1,00;1,00;0,00;2,00;1,30;;3.806,43;1,00;700,00;1,00;2.664,50;7.530,00;3.723,57;1,00;300;1;1.117,07;unterschiedl.;7.117,76;350;0;0,00;0 €;0;0,00;0;0 €;0;0 €;0;0 €;0 €;0 €;12.189,68;750,00;0,50;4.571,13;287,32;2000;0;287,32;632,10;8.984,81;8.984,81;;0 €;;0,00;;;0,00;0;0;0,00;29.473,00;1;90;2.652,57;;;n;;
05-146274-2;05K03;Oberschule;Bertolt-Brecht-OS;Wilhelmstr. 10;13595 Berlin;Sporthalle;3.087,00;;;3.446,00;;1,00;1,00;0,00;0,90;0,00;1,00;0,00;1,00;0,93;;193,43;1,00;700,00;1,00;135,40;1.976,03;1.782,60;1,00;300;0;0,00;FD;1.565,20;150;0;0,00;150 €;0;0,00;0;0 €;0;0 €;0;0 €;150 €;0 €;2.893,06;750,00;0,00;0,00;193,94;2016;100;0,00;0,00;0,00;1.600,00;1.582,64;3.200 €;0,50;1.600,00;;;;;0;0,00;0,00;;0;0,00;;;n;;
05-146274-3;05K03;Oberschule;Bertolt-Brecht-OS;Wilhelmstr. 10;13595 Berlin;MZR (Anbau);;;;485,00;;0,00;0,00;0,00;0,00;0,00;0,00;0,00;0,00;0,00;;74,50;1,00;700,00;0,00;0,00;294,64;220,14;1,00;300;0;0,00;FD;574,93;;0;0,00;0 €;0;0,00;0;0 €;0;0 €;0;0 €;0 €;0 €;0,00;750,00;0,00;0,00;0,00;;;0,00;0,00;0,00;0,00;;0,00;;0,00;;;;;0;0,00;0,00;;0;0,00;;;;;
05-146292-3;05G03;Grundschule;Birken-GS;Windmühlenberg 3;13585 Berlin;Neubau, Windmühlenberg 3;1.262,00;;756,00;1.437,00;4.171,00;1,00;1,00;2,00;1,10;0,00;0,00;0,00;0,00;0,77;;185,05;1,00;700,00;0,00;0,00;1.072,26;887,21;1,00;300;0;0,00;FD;754,11;150;0;0,00;150 €;0;0,00;1;50 €;0;0 €;2;50 €;250 €;0 €;1.196,38;350,00;0,00;0,00;65,62;2008;100;0,00;0,00;250,00;250,00;;0 €;;0,00;;;1.100,00;1;120;132,00;3.415,00;1;90;307,35;;;n;;
